{"type":"FeatureCollection","name":"DDM contour tile r01_c06","bbox":[10.28,54.83,10.755,55.305],"metadata":{"schema":"waternav-ddm-contour-tile-v1","version":"v45.9","tileId":"r01_c06","source":"Danmarks Dybdemodel 2024 ddm_50m.dybde.tiff via bundled DDM contour GeoJSON files"},"features":[{"type":"Feature","properties":{"depth":1,"source":"DDM 2024 coarse contour","resolution":"0.005 degree sampled grid","scope":"denmark","tileSource":"contours-denmark-coarse.geojson"},"geometry":{"type":"LineString","coordinates":[[10.60106,54.829999],[10.589167,54.845],[10.57,54.854062],[10.555,54.853846],[10.545,54.858889],[10.5375,54.855],[10.53,54.844605],[10.52,54.840023],[10.460143,54.84],[10.455,54.835029],[10.445,54.834423],[10.44158,54.829999]]}},{"type":"Feature","properties":{"depth":1,"source":"DDM 2024 coarse contour","resolution":"0.005 degree sampled grid","scope":"denmark","tileSource":"contours-denmark-coarse.geojson"},"geometry":{"type":"LineString","coordinates":[[10.393277,54.829999],[10.393276,54.83],[10.37,54.835022],[10.345,54.855003],[10.34,54.85502],[10.32,54.87501],[10.305,54.880011],[10.3,54.885001],[10.29,54.885036],[10.28,54.895002],[10.279999,54.895002]]}},{"type":"Feature","properties":{"depth":1,"source":"DDM 2024 coarse contour","resolution":"0.005 degree sampled grid","scope":"denmark","tileSource":"contours-denmark-coarse.geojson"},"geometry":{"type":"LineString","coordinates":[[10.279999,54.94496],[10.28,54.94496],[10.3,54.930124],[10.305,54.929988],[10.315,54.920064],[10.32,54.919985],[10.34,54.899984],[10.36,54.899948],[10.375,54.885937],[10.395,54.895116],[10.404362,54.905],[10.4,54.90502],[10.395001,54.91],[10.4,54.914936],[10.414991,54.9],[10.410517,54.895],[10.421207,54.88],[10.435,54.872143],[10.439,54.875],[10.430003,54.88],[10.435,54.884983],[10.445,54.875294],[10.455,54.874999],[10.46,54.879991],[10.465,54.87625],[10.46,54.888542],[10.45,54.885016],[10.445022,54.89],[10.45,54.895],[10.46,54.893889],[10.475,54.9],[10.48,54.892],[10.49,54.894991],[10.51,54.887],[10.505,54.880012],[10.495,54.888269],[10.481667,54.885],[10.493333,54.88],[10.495,54.874999],[10.5,54.874993],[10.52,54.86037],[10.525,54.860455],[10.525342,54.855],[10.534928,54.855],[10.54,54.860476],[10.555,54.8604],[10.56,54.865],[10.57,54.86561],[10.575,54.861026],[10.5875,54.86],[10.59,54.851818],[10.595,54.855278],[10.606071,54.84],[10.623889,54.84],[10.619219,54.845],[10.625,54.846154],[10.63,54.8375],[10.645,54.8354],[10.663833,54.855],[10.665013,54.88],[10.67,54.884997],[10.68,54.884994],[10.685,54.881458],[10.695,54.885],[10.695,54.876071],[10.7,54.876667],[10.705,54.884997],[10.71,54.879994],[10.714643,54.88],[10.710003,54.885],[10.713095,54.895],[10.705002,54.9],[10.705,54.903571],[10.695,54.895013],[10.69,54.898448],[10.675,54.894677],[10.670011,54.91],[10.695,54.934982],[10.6995,54.935],[10.713437,54.945],[10.715,54.955],[10.719,54.96],[10.718,54.965],[10.735,54.965833],[10.755001,54.976779]]}},{"type":"Feature","properties":{"depth":1,"source":"DDM 2024 coarse contour","resolution":"0.005 degree sampled grid","scope":"denmark","tileSource":"contours-denmark-coarse.geojson"},"geometry":{"type":"LineString","coordinates":[[10.504997,54.94],[10.515,54.931],[10.545,54.92],[10.544,54.915],[10.55,54.912308],[10.58,54.908889],[10.583333,54.91],[10.58,54.92],[10.59,54.925106],[10.595,54.92],[10.62,54.92],[10.6275,54.915],[10.627105,54.9],[10.62,54.890005],[10.61,54.885009],[10.595,54.895833],[10.58,54.894],[10.57,54.895007],[10.565,54.898846],[10.555,54.893125],[10.548421,54.9],[10.54,54.900018],[10.535,54.909],[10.523571,54.915],[10.5245,54.92],[10.52,54.923],[10.5,54.92502],[10.493125,54.935],[10.5,54.944995],[10.504997,54.94]]}},{"type":"Feature","properties":{"depth":1,"source":"DDM 2024 coarse contour","resolution":"0.005 degree sampled grid","scope":"denmark","tileSource":"contours-denmark-coarse.geojson"},"geometry":{"type":"LineString","coordinates":[[10.429981,54.9],[10.425,54.894231],[10.419318,54.9],[10.425,54.904971],[10.429981,54.9]]}},{"type":"Feature","properties":{"depth":1,"source":"DDM 2024 coarse contour","resolution":"0.005 degree sampled grid","scope":"denmark","tileSource":"contours-denmark-coarse.geojson"},"geometry":{"type":"LineString","coordinates":[[10.490278,54.925],[10.495,54.918571],[10.51,54.915],[10.515,54.9],[10.505,54.9075],[10.48,54.913],[10.475,54.905625],[10.463437,54.915],[10.465,54.918571],[10.477857,54.925],[10.490278,54.925]]}},{"type":"Feature","properties":{"depth":1,"source":"DDM 2024 coarse contour","resolution":"0.005 degree sampled grid","scope":"denmark","tileSource":"contours-denmark-coarse.geojson"},"geometry":{"type":"LineString","coordinates":[[10.755001,55.080097],[10.754983,55.08],[10.74,55.065032],[10.726364,55.065],[10.70875,55.055],[10.716579,55.04],[10.715,55.031364],[10.685,55.030007],[10.68,55.025047],[10.67,55.025039],[10.665039,55.03],[10.665039,55.035],[10.67,55.039992],[10.697,55.04],[10.66,55.04003],[10.655,55.035003],[10.65,55.035033],[10.645023,55.04],[10.645,55.05],[10.65,55.054995],[10.65925,55.055],[10.635243,55.055],[10.644972,55.045],[10.644995,55.035],[10.655,55.034997],[10.661071,55.025],[10.650962,55.02],[10.641296,55.005],[10.642273,55],[10.630556,54.99],[10.631304,54.985],[10.645,54.985244],[10.655,54.98119],[10.663043,54.985],[10.675,54.999989],[10.69,54.999989],[10.694998,54.995],[10.691061,54.99],[10.69,54.973],[10.685,54.970005],[10.66,54.97],[10.643,54.96],[10.661429,54.94],[10.66,54.932778],[10.655,54.928846],[10.639524,54.93],[10.655,54.933],[10.655,54.9375],[10.63,54.936667],[10.625,54.945],[10.608333,54.945],[10.62,54.934286],[10.602857,54.935],[10.59,54.943889],[10.57,54.944773],[10.555,54.940011],[10.550002,54.945],[10.552,54.95],[10.545001,54.955],[10.547368,54.96],[10.542632,54.965],[10.535,54.966818],[10.525,54.962727],[10.52,54.955011],[10.505,54.9642],[10.5,54.963676],[10.49,54.955006],[10.485,54.955006],[10.470003,54.965],[10.468333,54.97],[10.493214,54.97],[10.491667,54.975],[10.5,54.977174],[10.505,54.97625],[10.50525,54.97],[10.51,54.96587],[10.53,54.965132],[10.534205,54.97],[10.525002,54.975],[10.520007,54.985],[10.524487,54.99],[10.52431,54.995],[10.52,54.995012],[10.510026,55.005],[10.52,55.014955],[10.53,55.01],[10.54,55.01998],[10.54825,55.02],[10.559167,55.025],[10.559259,55.03],[10.57,55.03],[10.568636,55.035],[10.595,55.039993],[10.600024,55.045],[10.6,55.049444],[10.58,55.040035],[10.565,55.040003],[10.56,55.03506],[10.545,55.035004],[10.54,55.030059],[10.525616,55.03],[10.52,55.025064],[10.5,55.025069],[10.475,55.040027],[10.421875,55.04],[10.415,55.035042],[10.41,55.040009],[10.4,55.040017],[10.39,55.045007],[10.378409,55.055],[10.378333,55.06],[10.365,55.055004],[10.36,55.049194],[10.35,55.048929],[10.33,55.03505],[10.325,55.035002],[10.320005,55.04],[10.325,55.044985],[10.339444,55.05],[10.32,55.05001],[10.315007,55.055],[10.32,55.060001],[10.305,55.060057],[10.295,55.070004],[10.281,55.075],[10.28,55.080004],[10.279999,55.080004]]}},{"type":"Feature","properties":{"depth":1,"source":"DDM 2024 coarse contour","resolution":"0.005 degree sampled grid","scope":"denmark","tileSource":"contours-denmark-coarse.geojson"},"geometry":{"type":"LineString","coordinates":[[10.670625,54.965],[10.68,54.96175],[10.685,54.964998],[10.7,54.959999],[10.704997,54.955],[10.704996,54.95],[10.7,54.945001],[10.69,54.945002],[10.685,54.949],[10.67,54.9495],[10.656667,54.955],[10.65875,54.96],[10.670625,54.965]]}},{"type":"Feature","properties":{"depth":1,"source":"DDM 2024 coarse contour","resolution":"0.005 degree sampled grid","scope":"denmark","tileSource":"contours-denmark-coarse.geojson"},"geometry":{"type":"LineString","coordinates":[[10.425909,54.985],[10.44375,54.975],[10.445,54.97],[10.425,54.960014],[10.415,54.960051],[10.405,54.969239],[10.395,54.970013],[10.39,54.978043],[10.375,54.970012],[10.365,54.970012],[10.360011,54.975],[10.365,54.980217],[10.375,54.980217],[10.385,54.986],[10.4,54.9875],[10.41,54.98],[10.42,54.986563],[10.425909,54.985]]}},{"type":"Feature","properties":{"depth":1,"source":"DDM 2024 coarse contour","resolution":"0.005 degree sampled grid","scope":"denmark","tileSource":"contours-denmark-coarse.geojson"},"geometry":{"type":"LineString","coordinates":[[10.473333,55.02],[10.466136,55.015],[10.485,55.010109],[10.4925,55],[10.475,54.994107],[10.46,54.995023],[10.450004,55.005],[10.456667,55.015],[10.473333,55.02]]}},{"type":"Feature","properties":{"depth":1,"source":"DDM 2024 coarse contour","resolution":"0.005 degree sampled grid","scope":"denmark","tileSource":"contours-denmark-coarse.geojson"},"geometry":{"type":"LineString","coordinates":[[10.305,55.02],[10.31,55.015],[10.31,55.01],[10.315,55.014978],[10.325,55.015],[10.33,55.019936],[10.335,55.019942],[10.346731,55.005],[10.34,55.000015],[10.335,55.00003],[10.33,55.005001],[10.315,55.00505],[10.31,55.01],[10.305,55.010011],[10.297778,55.02],[10.305,55.02]]}},{"type":"Feature","properties":{"depth":1,"source":"DDM 2024 coarse contour","resolution":"0.005 degree sampled grid","scope":"denmark","tileSource":"contours-denmark-coarse.geojson"},"geometry":{"type":"LineString","coordinates":[[10.380714,55.015],[10.377222,55.01],[10.384286,55.005],[10.375,55.005],[10.375,55.012],[10.380714,55.015]]}},{"type":"Feature","properties":{"depth":1,"source":"DDM 2024 coarse contour","resolution":"0.005 degree sampled grid","scope":"denmark","tileSource":"contours-denmark-coarse.geojson"},"geometry":{"type":"LineString","coordinates":[[10.279999,55.023449],[10.291154,55.02],[10.285,55.019773],[10.28,55.015052],[10.279999,55.015052]]}},{"type":"Feature","properties":{"depth":1,"source":"DDM 2024 coarse contour","resolution":"0.005 degree sampled grid","scope":"denmark","tileSource":"contours-denmark-coarse.geojson"},"geometry":{"type":"LineString","coordinates":[[10.62,55.060009],[10.615,55.06002],[10.614976,55.055],[10.61,55.050032],[10.600588,55.05],[10.615,55.049989],[10.615024,55.055],[10.62,55.060009]]}},{"type":"Feature","properties":{"depth":2,"source":"DDM 2024 coarse contour","resolution":"0.005 degree sampled grid","scope":"denmark","tileSource":"contours-denmark-coarse.geojson"},"geometry":{"type":"LineString","coordinates":[[10.755001,55.080037],[10.754988,55.08],[10.74,55.065027],[10.728636,55.065],[10.714998,55.06],[10.712021,55.05],[10.722143,55.03],[10.685,55.030002],[10.68,55.025042],[10.67,55.025034],[10.665034,55.03],[10.665034,55.035],[10.67,55.039997],[10.692778,55.04],[10.66,55.040025],[10.656667,55.035],[10.662857,55.025],[10.652885,55.02],[10.652692,55.015],[10.645,55.01],[10.643148,55.005],[10.646667,55],[10.636935,54.995],[10.633478,54.985],[10.66087,54.985],[10.660909,54.99],[10.675,54.999994],[10.69,54.999994],[10.695833,54.995],[10.691857,54.985],[10.69375,54.975],[10.704545,54.97],[10.69,54.965],[10.705,54.96],[10.71,54.950385],[10.713913,54.955],[10.715,54.9685],[10.725,54.967273],[10.745,54.9716],[10.755001,54.976958]]}},{"type":"Feature","properties":{"depth":2,"source":"DDM 2024 coarse contour","resolution":"0.005 degree sampled grid","scope":"denmark","tileSource":"contours-denmark-coarse.geojson"},"geometry":{"type":"LineString","coordinates":[[10.600642,54.829999],[10.5875,54.845],[10.57,54.8525],[10.555,54.85],[10.545,54.853125],[10.52,54.840018],[10.461571,54.84],[10.44,54.830007],[10.44,54.829999]]}},{"type":"Feature","properties":{"depth":2,"source":"DDM 2024 coarse contour","resolution":"0.005 degree sampled grid","scope":"denmark","tileSource":"contours-denmark-coarse.geojson"},"geometry":{"type":"LineString","coordinates":[[10.391554,54.829999],[10.391552,54.83],[10.37,54.835017],[10.344559,54.855],[10.34,54.855015],[10.32,54.875005],[10.315,54.87502],[10.3,54.884545],[10.29,54.885031],[10.279999,54.894253]]}},{"type":"Feature","properties":{"depth":2,"source":"DDM 2024 coarse contour","resolution":"0.005 degree sampled grid","scope":"denmark","tileSource":"contours-denmark-coarse.geojson"},"geometry":{"type":"LineString","coordinates":[[10.279999,54.944965],[10.28,54.944965],[10.327206,54.915],[10.34,54.899989],[10.36,54.899953],[10.375,54.886979],[10.400009,54.9],[10.403298,54.905],[10.388529,54.915],[10.395,54.912692],[10.4,54.914941],[10.414211,54.905],[10.412241,54.895],[10.415,54.889996],[10.43,54.881667],[10.435,54.884988],[10.445,54.876765],[10.46,54.879996],[10.465,54.878036],[10.46,54.886458],[10.45,54.885011],[10.445017,54.89],[10.45,54.896875],[10.46,54.89629],[10.467778,54.9],[10.466818,54.91],[10.453846,54.92],[10.46,54.927222],[10.49,54.925458],[10.494685,54.93],[10.491042,54.935],[10.5,54.945],[10.515,54.933],[10.545,54.925769],[10.56,54.913036],[10.575,54.913043],[10.578,54.915],[10.577059,54.92],[10.59,54.92617],[10.596538,54.925],[10.598571,54.92],[10.62,54.9225],[10.635,54.915],[10.626087,54.895],[10.61,54.885004],[10.595,54.893269],[10.58,54.892],[10.571923,54.895],[10.565,54.895],[10.555,54.889074],[10.545909,54.895],[10.545789,54.9],[10.54,54.900013],[10.525,54.914434],[10.520053,54.91],[10.522143,54.905],[10.519545,54.9],[10.495,54.899],[10.49,54.905],[10.485,54.8975],[10.48,54.898571],[10.478864,54.895],[10.51,54.891667],[10.51375,54.885],[10.505,54.880007],[10.5,54.882353],[10.498077,54.875],[10.51,54.870625],[10.52,54.862222],[10.525,54.862727],[10.526027,54.855],[10.534203,54.855],[10.535,54.862778],[10.555,54.8624],[10.56,54.867083],[10.57,54.866829],[10.575,54.862308],[10.595,54.858056],[10.61,54.845],[10.607857,54.84],[10.618846,54.84],[10.62,54.849688],[10.625,54.85],[10.635,54.840667],[10.645,54.8374],[10.662167,54.855],[10.665008,54.88],[10.668636,54.885],[10.675,54.886607],[10.685,54.883542],[10.690833,54.885],[10.695,54.8918],[10.7,54.887143],[10.71,54.892],[10.710714,54.895],[10.705,54.89875],[10.685,54.893696],[10.669032,54.895],[10.672632,54.9],[10.670006,54.91],[10.677353,54.92],[10.71,54.94625],[10.705,54.949231],[10.7,54.941111],[10.695,54.940714],[10.685,54.9465],[10.671,54.945],[10.661923,54.93],[10.65,54.92125],[10.64,54.92625],[10.635,54.932813],[10.62,54.928462],[10.615,54.9324],[10.595714,54.935],[10.59,54.941111],[10.57,54.9425],[10.555,54.940006],[10.548437,54.945],[10.543542,54.955],[10.544792,54.96],[10.54,54.965],[10.53,54.9625],[10.52,54.955006],[10.5,54.962206],[10.49,54.955001],[10.485,54.955001],[10.475,54.960003],[10.46,54.974071],[10.455,54.971429],[10.452222,54.975],[10.455,54.980417],[10.465,54.982727],[10.468333,54.98],[10.465,54.973],[10.489375,54.97],[10.486667,54.975],[10.49,54.977857],[10.51,54.980789],[10.507727,54.975],[10.51,54.968043],[10.53,54.966447],[10.533068,54.97],[10.525,54.973958],[10.520952,54.98],[10.522586,54.995],[10.510021,55.005],[10.52,55.01496],[10.53,55.010882],[10.54,55.019985],[10.5575,55.025],[10.557407,55.03],[10.565,55.032273],[10.565,55.038333],[10.56,55.035055],[10.54527,55.035],[10.54,55.030054],[10.526301,55.03],[10.52,55.025059],[10.5,55.025064],[10.475,55.040022],[10.425,55.04],[10.415,55.035037],[10.41,55.040004],[10.4,55.040012],[10.385,55.046964],[10.376136,55.055],[10.375,55.060001],[10.37,55.055004],[10.365,55.054643],[10.36,55.047581],[10.355,55.048421],[10.342917,55.04],[10.325,55.034824],[10.32,55.04],[10.337593,55.05],[10.32,55.050005],[10.315002,55.055],[10.3195,55.06],[10.305,55.060052],[10.295,55.069831],[10.285,55.074213],[10.279999,55.069606]]}},{"type":"Feature","properties":{"depth":2,"source":"DDM 2024 coarse contour","resolution":"0.005 degree sampled grid","scope":"denmark","tileSource":"contours-denmark-coarse.geojson"},"geometry":{"type":"LineString","coordinates":[[10.429986,54.9],[10.425,54.893269],[10.417045,54.9],[10.425,54.904976],[10.429986,54.9]]}},{"type":"Feature","properties":{"depth":2,"source":"DDM 2024 coarse contour","resolution":"0.005 degree sampled grid","scope":"denmark","tileSource":"contours-denmark-coarse.geojson"},"geometry":{"type":"LineString","coordinates":[[10.5,54.925015],[10.495,54.92875],[10.491667,54.925],[10.505,54.915783],[10.51,54.917083],[10.515,54.908462],[10.519,54.91],[10.519375,54.92],[10.5,54.925015]]}},{"type":"Feature","properties":{"depth":2,"source":"DDM 2024 coarse contour","resolution":"0.005 degree sampled grid","scope":"denmark","tileSource":"contours-denmark-coarse.geojson"},"geometry":{"type":"LineString","coordinates":[[10.565962,54.925],[10.572941,54.92],[10.57,54.915455],[10.561,54.92],[10.56,54.925],[10.565962,54.925]]}},{"type":"Feature","properties":{"depth":2,"source":"DDM 2024 coarse contour","resolution":"0.005 degree sampled grid","scope":"denmark","tileSource":"contours-denmark-coarse.geojson"},"geometry":{"type":"LineString","coordinates":[[10.382143,55.015],[10.39,55.001],[10.41,54.984545],[10.421,54.99],[10.425,54.997292],[10.43,54.996531],[10.431786,54.995],[10.4275,54.99],[10.428182,54.985],[10.445263,54.985],[10.438571,54.98],[10.448333,54.975],[10.448571,54.97],[10.425,54.960009],[10.415,54.960047],[10.405,54.968152],[10.395,54.970008],[10.39,54.97587],[10.375,54.970007],[10.365,54.970007],[10.360006,54.975],[10.365,54.981304],[10.3975,54.99],[10.395,54.994286],[10.385833,54.995],[10.389,55],[10.371667,55.005],[10.374259,55.015],[10.382143,55.015]]}},{"type":"Feature","properties":{"depth":2,"source":"DDM 2024 coarse contour","resolution":"0.005 degree sampled grid","scope":"denmark","tileSource":"contours-denmark-coarse.geojson"},"geometry":{"type":"LineString","coordinates":[[10.68,54.970002],[10.662273,54.97],[10.665,54.965],[10.67,54.967069],[10.68,54.96425],[10.685,54.97],[10.68,54.970002]]}},{"type":"Feature","properties":{"depth":2,"source":"DDM 2024 coarse contour","resolution":"0.005 degree sampled grid","scope":"denmark","tileSource":"contours-denmark-coarse.geojson"},"geometry":{"type":"LineString","coordinates":[[10.475673,55.02],[10.468409,55.015],[10.485,55.011196],[10.495962,55],[10.475,54.992321],[10.46,54.995018],[10.453077,55],[10.449773,55.005],[10.452647,55.015],[10.465294,55.02],[10.475673,55.02]]}},{"type":"Feature","properties":{"depth":2,"source":"DDM 2024 coarse contour","resolution":"0.005 degree sampled grid","scope":"denmark","tileSource":"contours-denmark-coarse.geojson"},"geometry":{"type":"LineString","coordinates":[[10.279999,55.023831],[10.285,55.020528],[10.305,55.020379],[10.311023,55.015],[10.323148,55.015],[10.335,55.019947],[10.34,55.01125],[10.348654,55.005],[10.34,55.00001],[10.335,55.000025],[10.329146,55.005],[10.315,55.005045],[10.305,55.010006],[10.295,55.02],[10.285,55.019015],[10.28,55.015047],[10.279999,55.015047]]}},{"type":"Feature","properties":{"depth":2,"source":"DDM 2024 coarse contour","resolution":"0.005 degree sampled grid","scope":"denmark","tileSource":"contours-denmark-coarse.geojson"},"geometry":{"type":"LineString","coordinates":[[10.645,55.049182],[10.645,55.035],[10.654672,55.035],[10.65,55.035028],[10.645018,55.04],[10.645,55.049182]]}},{"type":"Feature","properties":{"depth":2,"source":"DDM 2024 coarse contour","resolution":"0.005 degree sampled grid","scope":"denmark","tileSource":"contours-denmark-coarse.geojson"},"geometry":{"type":"LineString","coordinates":[[10.6,55.048519],[10.58,55.04003],[10.565158,55.04],[10.57,55.035741],[10.58,55.035946],[10.585,55.039974],[10.595,55.039998],[10.6,55.048519]]}},{"type":"Feature","properties":{"depth":2,"source":"DDM 2024 coarse contour","resolution":"0.005 degree sampled grid","scope":"denmark","tileSource":"contours-denmark-coarse.geojson"},"geometry":{"type":"LineString","coordinates":[[10.62,55.060004],[10.615,55.060015],[10.614981,55.055],[10.61,55.050027],[10.601569,55.05],[10.615,55.049994],[10.615019,55.055],[10.62,55.060004]]}},{"type":"Feature","properties":{"depth":2,"source":"DDM 2024 coarse contour","resolution":"0.005 degree sampled grid","scope":"denmark","tileSource":"contours-denmark-coarse.geojson"},"geometry":{"type":"LineString","coordinates":[[10.655,55.055003],[10.635728,55.055],[10.64,55.049989],[10.655,55.055003]]}},{"type":"Feature","properties":{"depth":3,"source":"DDM 2024 coarse contour","resolution":"0.005 degree sampled grid","scope":"denmark","tileSource":"contours-denmark-coarse.geojson"},"geometry":{"type":"LineString","coordinates":[[10.755001,55.08047],[10.745,55.068687],[10.74,55.065022],[10.715857,55.06],[10.713085,55.05],[10.726667,55.03],[10.725,55.028235],[10.687308,55.03],[10.68,55.025037],[10.67,55.025029],[10.665029,55.03],[10.665,55.039538],[10.660164,55.035],[10.664643,55.025],[10.654808,55.02],[10.655,55.012143],[10.648214,55.01],[10.645,55.005],[10.65,54.998],[10.638548,54.995],[10.637,54.99],[10.64,54.988],[10.65,54.985455],[10.675,54.999999],[10.69,54.999999],[10.6975,54.995],[10.693286,54.985],[10.695,54.978],[10.707647,54.97],[10.71,54.965],[10.715,54.975],[10.7225,54.975],[10.720556,54.97],[10.725,54.968788],[10.755,54.976918],[10.755001,54.976919]]}},{"type":"Feature","properties":{"depth":3,"source":"DDM 2024 coarse contour","resolution":"0.005 degree sampled grid","scope":"denmark","tileSource":"contours-denmark-coarse.geojson"},"geometry":{"type":"LineString","coordinates":[[10.600992,54.829999],[10.595,54.837442],[10.589444,54.835],[10.591563,54.84],[10.585833,54.845],[10.57,54.850937],[10.54,54.848462],[10.53,54.841974],[10.52,54.840013],[10.463,54.84],[10.44,54.830002],[10.44,54.829999]]}},{"type":"Feature","properties":{"depth":3,"source":"DDM 2024 coarse contour","resolution":"0.005 degree sampled grid","scope":"denmark","tileSource":"contours-denmark-coarse.geojson"},"geometry":{"type":"LineString","coordinates":[[10.38969,54.829999],[10.389688,54.83],[10.37,54.835012],[10.34,54.85501],[10.32,54.875],[10.315,54.875015],[10.3,54.883896],[10.29,54.885026],[10.279999,54.893252]]}},{"type":"Feature","properties":{"depth":3,"source":"DDM 2024 coarse contour","resolution":"0.005 degree sampled grid","scope":"denmark","tileSource":"contours-denmark-coarse.geojson"},"geometry":{"type":"LineString","coordinates":[[10.279999,54.94497],[10.28,54.94497],[10.285,54.940442],[10.29,54.940413],[10.3,54.930745],[10.328676,54.915],[10.34,54.899994],[10.36,54.899957],[10.375,54.888021],[10.4,54.899996],[10.402234,54.905],[10.385588,54.915],[10.4,54.914946],[10.42,54.901139],[10.425,54.904981],[10.429991,54.9],[10.425,54.892308],[10.415,54.899286],[10.415556,54.89],[10.435,54.884993],[10.445,54.878235],[10.459167,54.885],[10.45,54.885006],[10.445012,54.89],[10.445,54.8975],[10.46,54.897903],[10.465,54.9],[10.466389,54.905],[10.464375,54.91],[10.45,54.92],[10.465,54.933333],[10.485,54.929792],[10.49,54.92584],[10.494291,54.93],[10.489648,54.935],[10.492222,54.945],[10.465,54.965],[10.46,54.973357],[10.455,54.968621],[10.44,54.967143],[10.435,54.961731],[10.425,54.960004],[10.415,54.960042],[10.41,54.965006],[10.39,54.973235],[10.365,54.970002],[10.360001,54.975],[10.3625,54.98],[10.375556,54.985],[10.375,54.99],[10.36,54.993667],[10.359167,55],[10.38,54.996667],[10.38,55.000357],[10.365,55],[10.372407,55.015],[10.38,55.016812],[10.405,54.99],[10.4125,54.99],[10.405,54.99],[10.41,54.997],[10.415,54.992222],[10.42,54.993214],[10.425,54.999375],[10.432976,54.995],[10.431154,54.99],[10.435,54.985833],[10.447895,54.985],[10.445909,54.98],[10.45,54.977],[10.47,54.99],[10.475,54.98625],[10.477143,54.99],[10.47,54.99],[10.466935,54.995],[10.46,54.995013],[10.451154,55],[10.445,55.008667],[10.4325,55.01],[10.44,55.01],[10.46125,55.02],[10.475,55.020817],[10.470625,55.015],[10.485,55.012283],[10.496667,55.005],[10.497885,55],[10.481667,54.99],[10.485,54.983],[10.495,54.98],[10.51,54.983421],[10.512826,54.98],[10.51,54.975],[10.515,54.970405],[10.53,54.967763],[10.531932,54.97],[10.525,54.971875],[10.518125,54.98],[10.520862,54.995],[10.510016,55.005],[10.52,55.014965],[10.53,55.011863],[10.54,55.01999],[10.555833,55.025],[10.555556,55.03],[10.56481,55.035],[10.546622,55.035],[10.54,55.030049],[10.526986,55.03],[10.52,55.025054],[10.5,55.025059],[10.475,55.040017],[10.426786,55.04],[10.415,55.035032],[10.41,55.039844],[10.39,55.044167],[10.387093,55.04],[10.38,55.039717],[10.373478,55.045],[10.37,55.054286],[10.36,55.045968],[10.355,55.047544],[10.345862,55.04],[10.325,55.034472],[10.319375,55.04],[10.33,55.048947],[10.335741,55.05],[10.32,55.05],[10.314492,55.055],[10.318786,55.06],[10.305,55.060047],[10.285,55.073652],[10.279999,55.068992]]}},{"type":"Feature","properties":{"depth":3,"source":"DDM 2024 coarse contour","resolution":"0.005 degree sampled grid","scope":"denmark","tileSource":"contours-denmark-coarse.geojson"},"geometry":{"type":"LineString","coordinates":[[10.279999,55.049511],[10.28,55.04951],[10.279999,55.049511]]}},{"type":"Feature","properties":{"depth":3,"source":"DDM 2024 coarse contour","resolution":"0.005 degree sampled grid","scope":"denmark","tileSource":"contours-denmark-coarse.geojson"},"geometry":{"type":"LineString","coordinates":[[10.675,54.933077],[10.67,54.92881],[10.665,54.929333],[10.65,54.916364],[10.635,54.908333],[10.631667,54.905],[10.63375,54.9],[10.615,54.885536],[10.605,54.885],[10.595,54.891346],[10.57,54.892222],[10.545,54.885],[10.548846,54.89],[10.542143,54.895],[10.543542,54.9],[10.535,54.9],[10.525,54.895],[10.527,54.9],[10.525,54.902],[10.525,54.895],[10.52,54.897353],[10.499286,54.895],[10.51,54.894048],[10.52,54.885],[10.515,54.880714],[10.501429,54.88],[10.518529,54.865],[10.525,54.865],[10.526712,54.855],[10.533478,54.855],[10.535,54.867727],[10.545,54.864231],[10.55,54.868],[10.555,54.8644],[10.56,54.869167],[10.596667,54.86],[10.615,54.84],[10.62,54.851607],[10.625,54.851923],[10.635,54.844],[10.65,54.846],[10.6605,54.855],[10.664286,54.885],[10.675,54.888393],[10.685,54.8865],[10.69087,54.89],[10.69,54.895],[10.685,54.891522],[10.675,54.891452],[10.667419,54.895],[10.671944,54.915],[10.680238,54.925],[10.679444,54.93],[10.675,54.933077]]}},{"type":"Feature","properties":{"depth":3,"source":"DDM 2024 coarse contour","resolution":"0.005 degree sampled grid","scope":"denmark","tileSource":"contours-denmark-coarse.geojson"},"geometry":{"type":"LineString","coordinates":[[10.705,54.89625],[10.69,54.895],[10.705,54.893214],[10.707083,54.895],[10.705,54.89625]]}},{"type":"Feature","properties":{"depth":3,"source":"DDM 2024 coarse contour","resolution":"0.005 degree sampled grid","scope":"denmark","tileSource":"contours-denmark-coarse.geojson"},"geometry":{"type":"LineString","coordinates":[[10.54,54.962826],[10.52,54.955001],[10.51,54.957115],[10.505,54.952692],[10.495,54.953333],[10.493333,54.95],[10.505,54.947308],[10.515,54.935],[10.55,54.924444],[10.565,54.926829],[10.575,54.92125],[10.595,54.926957],[10.6,54.922143],[10.61,54.920441],[10.619615,54.925],[10.615,54.9304],[10.61,54.929559],[10.58,54.94],[10.55,54.941053],[10.545312,54.945],[10.54,54.962826]]}},{"type":"Feature","properties":{"depth":3,"source":"DDM 2024 coarse contour","resolution":"0.005 degree sampled grid","scope":"denmark","tileSource":"contours-denmark-coarse.geojson"},"geometry":{"type":"LineString","coordinates":[[10.48,54.981667],[10.475,54.984583],[10.468,54.975],[10.48,54.972187],[10.483,54.975],[10.48,54.981667]]}},{"type":"Feature","properties":{"depth":3,"source":"DDM 2024 coarse contour","resolution":"0.005 degree sampled grid","scope":"denmark","tileSource":"contours-denmark-coarse.geojson"},"geometry":{"type":"LineString","coordinates":[[10.279999,55.024213],[10.285,55.020935],[10.305,55.020758],[10.312159,55.015],[10.335,55.019952],[10.35,55.00425],[10.335,55.00002],[10.327927,55.005],[10.315,55.00504],[10.3,55.015],[10.285,55.018258],[10.28,55.015042],[10.279999,55.015042]]}},{"type":"Feature","properties":{"depth":3,"source":"DDM 2024 coarse contour","resolution":"0.005 degree sampled grid","scope":"denmark","tileSource":"contours-denmark-coarse.geojson"},"geometry":{"type":"LineString","coordinates":[[10.585,55.043088],[10.58,55.040025],[10.565684,55.04],[10.57,55.036204],[10.58,55.036622],[10.589118,55.04],[10.585,55.043088]]}},{"type":"Feature","properties":{"depth":3,"source":"DDM 2024 coarse contour","resolution":"0.005 degree sampled grid","scope":"denmark","tileSource":"contours-denmark-coarse.geojson"},"geometry":{"type":"LineString","coordinates":[[10.685,55.040002],[10.671429,55.04],[10.687222,55.04],[10.685,55.040002]]}},{"type":"Feature","properties":{"depth":3,"source":"DDM 2024 coarse contour","resolution":"0.005 degree sampled grid","scope":"denmark","tileSource":"contours-denmark-coarse.geojson"},"geometry":{"type":"LineString","coordinates":[[10.6,55.047593],[10.589483,55.045],[10.595,55.040625],[10.6,55.047593]]}},{"type":"Feature","properties":{"depth":3,"source":"DDM 2024 coarse contour","resolution":"0.005 degree sampled grid","scope":"denmark","tileSource":"contours-denmark-coarse.geojson"},"geometry":{"type":"LineString","coordinates":[[10.615,55.06001],[10.614986,55.055],[10.61,55.050022],[10.602549,55.05],[10.615,55.049999],[10.615014,55.055],[10.619762,55.06],[10.615,55.06001]]}},{"type":"Feature","properties":{"depth":3,"source":"DDM 2024 coarse contour","resolution":"0.005 degree sampled grid","scope":"denmark","tileSource":"contours-denmark-coarse.geojson"},"geometry":{"type":"LineString","coordinates":[[10.645,55.055007],[10.636214,55.055],[10.64,55.049994],[10.648125,55.055],[10.645,55.055007]]}},{"type":"Feature","properties":{"depth":5,"source":"DDM 2024 coarse contour","resolution":"0.005 degree sampled grid","scope":"denmark","tileSource":"contours-denmark-coarse.geojson"},"geometry":{"type":"LineString","coordinates":[[10.755001,55.078109],[10.745,55.067437],[10.718714,55.06],[10.716719,55.045],[10.73,55.031538],[10.731327,55.025],[10.695,55.029324],[10.666579,55.025],[10.658167,55.02],[10.66,55.01],[10.6516,55.005],[10.66,54.9952],[10.665,55.000167],[10.675,55.002195],[10.695,55.001196],[10.700862,54.995],[10.696739,54.985],[10.698333,54.98],[10.705,54.975156],[10.715,54.980333],[10.72,54.977561],[10.755,54.978288],[10.755001,54.978289]]}},{"type":"Feature","properties":{"depth":5,"source":"DDM 2024 coarse contour","resolution":"0.005 degree sampled grid","scope":"denmark","tileSource":"contours-denmark-coarse.geojson"},"geometry":{"type":"LineString","coordinates":[[10.594269,54.829999],[10.582,54.84],[10.58,54.845408],[10.565,54.848636],[10.545714,54.845],[10.535,54.84],[10.54,54.834412],[10.535,54.84],[10.53,54.834342],[10.52375,54.84],[10.465,54.8395],[10.443571,54.83],[10.44357,54.829999]]}},{"type":"Feature","properties":{"depth":5,"source":"DDM 2024 coarse contour","resolution":"0.005 degree sampled grid","scope":"denmark","tileSource":"contours-denmark-coarse.geojson"},"geometry":{"type":"LineString","coordinates":[[10.379942,54.829999],[10.375,54.831912],[10.355,54.843364],[10.32,54.872917],[10.281364,54.89],[10.279999,54.891251]]}},{"type":"Feature","properties":{"depth":5,"source":"DDM 2024 coarse contour","resolution":"0.005 degree sampled grid","scope":"denmark","tileSource":"contours-denmark-coarse.geojson"},"geometry":{"type":"LineString","coordinates":[[10.279999,54.94498],[10.28,54.94498],[10.29,54.940898],[10.3,54.931366],[10.330887,54.915],[10.34,54.900727],[10.36,54.899967],[10.375,54.890094],[10.38,54.890125],[10.4,54.904583],[10.385,54.915909],[10.4,54.914956],[10.42,54.902129],[10.425,54.904991],[10.43,54.900833],[10.455,54.902],[10.46,54.9035],[10.459455,54.91],[10.445,54.917895],[10.446923,54.93],[10.44,54.935],[10.46,54.9415],[10.475,54.940286],[10.48,54.935714],[10.485294,54.945],[10.472,54.95],[10.46,54.962692],[10.45,54.966176],[10.44,54.965102],[10.437037,54.96],[10.440385,54.955],[10.435,54.953696],[10.423333,54.96],[10.415,54.960032],[10.41,54.964615],[10.39,54.962143],[10.38,54.969167],[10.362778,54.97],[10.347273,54.975],[10.37,54.986346],[10.365,54.985952],[10.345,54.998158],[10.325488,55.005],[10.315,55.00503],[10.285,55.016742],[10.279999,55.016468]]}},{"type":"Feature","properties":{"depth":5,"source":"DDM 2024 coarse contour","resolution":"0.005 degree sampled grid","scope":"denmark","tileSource":"contours-denmark-coarse.geojson"},"geometry":{"type":"LineString","coordinates":[[10.279999,55.02506],[10.285,55.021748],[10.305,55.021515],[10.314432,55.015],[10.335,55.019962],[10.355,55.000708],[10.365,55.003846],[10.37,55.015714],[10.38,55.018261],[10.390606,55.015],[10.4,55.005208],[10.415,55.000208],[10.42,55.003913],[10.425,55.002656],[10.4365,54.995],[10.435,54.99],[10.455,54.986481],[10.461957,54.99],[10.462143,54.995],[10.45,54.997879],[10.445,55.003043],[10.417,55.01],[10.424167,55.015],[10.44,55.014348],[10.455,55.020137],[10.475,55.021779],[10.478558,55.02],[10.474792,55.015],[10.485,55.014457],[10.5,55.006277],[10.502308,54.99],[10.505,54.987941],[10.51,54.991439],[10.512714,54.99],[10.511842,54.985],[10.515,54.981471],[10.518558,54.995],[10.5125,55],[10.510816,55.01],[10.52,55.014975],[10.53,55.013824],[10.563857,55.035],[10.549324,55.035],[10.54,55.03004],[10.528356,55.03],[10.52,55.025044],[10.5,55.025049],[10.475,55.040007],[10.43,55.039899],[10.415,55.035022],[10.395,55.041452],[10.38,55.038774],[10.37,55.047308],[10.356563,55.04],[10.335,55.038086],[10.325,55.033768],[10.318125,55.04],[10.323902,55.045],[10.32,55.048137],[10.315,55.05],[10.313,55.045],[10.308,55.045],[10.317357,55.06],[10.305,55.060037],[10.285,55.072528],[10.279999,55.067736]]}},{"type":"Feature","properties":{"depth":5,"source":"DDM 2024 coarse contour","resolution":"0.005 degree sampled grid","scope":"denmark","tileSource":"contours-denmark-coarse.geojson"},"geometry":{"type":"LineString","coordinates":[[10.279999,55.051886],[10.282099,55.05],[10.28,55.048811],[10.279999,55.048812]]}},{"type":"Feature","properties":{"depth":5,"source":"DDM 2024 coarse contour","resolution":"0.005 degree sampled grid","scope":"denmark","tileSource":"contours-denmark-coarse.geojson"},"geometry":{"type":"LineString","coordinates":[[10.53,54.86875],[10.527128,54.865],[10.528082,54.855],[10.532029,54.855],[10.53,54.86875]]}},{"type":"Feature","properties":{"depth":5,"source":"DDM 2024 coarse contour","resolution":"0.005 degree sampled grid","scope":"denmark","tileSource":"contours-denmark-coarse.geojson"},"geometry":{"type":"LineString","coordinates":[[10.65,54.901],[10.643333,54.9],[10.65,54.89],[10.64,54.8975],[10.638,54.895],[10.6375,54.89],[10.642857,54.885],[10.64,54.882778],[10.635,54.882143],[10.63,54.885833],[10.62,54.877778],[10.595,54.885],[10.575,54.875],[10.578333,54.88],[10.575,54.882],[10.574,54.87],[10.61,54.860833],[10.618333,54.865],[10.62,54.871429],[10.635,54.87625],[10.635,54.87],[10.63,54.8725],[10.628,54.865],[10.63,54.861667],[10.635,54.862857],[10.645,54.858333],[10.6475,54.86],[10.645,54.861667],[10.64,54.86],[10.645,54.87],[10.642,54.875],[10.649167,54.88],[10.646875,54.885],[10.65,54.89],[10.6575,54.89],[10.65,54.901]]}},{"type":"Feature","properties":{"depth":5,"source":"DDM 2024 coarse contour","resolution":"0.005 degree sampled grid","scope":"denmark","tileSource":"contours-denmark-coarse.geojson"},"geometry":{"type":"LineString","coordinates":[[10.44,54.896905],[10.435,54.897273],[10.42375,54.89],[10.445,54.883333],[10.445,54.890714],[10.44,54.896905]]}},{"type":"Feature","properties":{"depth":5,"source":"DDM 2024 coarse contour","resolution":"0.005 degree sampled grid","scope":"denmark","tileSource":"contours-denmark-coarse.geojson"},"geometry":{"type":"LineString","coordinates":[[10.535,54.9575],[10.53,54.953333],[10.51,54.95],[10.511667,54.945],[10.515,54.9425],[10.52,54.946333],[10.53625,54.935],[10.54,54.928953],[10.545,54.931818],[10.575,54.927391],[10.598636,54.93],[10.55,54.937037],[10.54025,54.945],[10.541129,54.95],[10.535,54.9575]]}},{"type":"Feature","properties":{"depth":5,"source":"DDM 2024 coarse contour","resolution":"0.005 degree sampled grid","scope":"denmark","tileSource":"contours-denmark-coarse.geojson"},"geometry":{"type":"LineString","coordinates":[[10.585,55.041618],[10.566737,55.04],[10.57,55.03713],[10.58,55.037973],[10.587157,55.04],[10.585,55.041618]]}},{"type":"Feature","properties":{"depth":10,"source":"DDM 2024 coarse contour","resolution":"0.005 degree sampled grid","scope":"denmark","tileSource":"contours-denmark-coarse.geojson"},"geometry":{"type":"LineString","coordinates":[[10.755001,55.069491],[10.750833,55.065],[10.737258,55.025],[10.71,55.015],[10.73,55.01],[10.755001,55.0125]]}},{"type":"Feature","properties":{"depth":10,"source":"DDM 2024 coarse contour","resolution":"0.005 degree sampled grid","scope":"denmark","tileSource":"contours-denmark-coarse.geojson"},"geometry":{"type":"LineString","coordinates":[[10.587714,54.829999],[10.58,54.832885],[10.552097,54.835],[10.551615,54.829999]]}},{"type":"Feature","properties":{"depth":10,"source":"DDM 2024 coarse contour","resolution":"0.005 degree sampled grid","scope":"denmark","tileSource":"contours-denmark-coarse.geojson"},"geometry":{"type":"LineString","coordinates":[[10.517064,54.829999],[10.51,54.832187],[10.49,54.834286],[10.476204,54.829999]]}},{"type":"Feature","properties":{"depth":10,"source":"DDM 2024 coarse contour","resolution":"0.005 degree sampled grid","scope":"denmark","tileSource":"contours-denmark-coarse.geojson"},"geometry":{"type":"LineString","coordinates":[[10.474345,54.829999],[10.465,54.835333],[10.45892,54.829999]]}},{"type":"Feature","properties":{"depth":10,"source":"DDM 2024 coarse contour","resolution":"0.005 degree sampled grid","scope":"denmark","tileSource":"contours-denmark-coarse.geojson"},"geometry":{"type":"LineString","coordinates":[[10.363485,54.829999],[10.315,54.872809],[10.28,54.887965],[10.279999,54.887966]]}},{"type":"Feature","properties":{"depth":10,"source":"DDM 2024 coarse contour","resolution":"0.005 degree sampled grid","scope":"denmark","tileSource":"contours-denmark-coarse.geojson"},"geometry":{"type":"LineString","coordinates":[[10.279999,54.943049],[10.29,54.942112],[10.334919,54.915],[10.34,54.906],[10.345,54.911429],[10.35,54.91],[10.3405,54.905],[10.345,54.902787],[10.375,54.894811],[10.39,54.89987],[10.388936,54.91],[10.381222,54.915],[10.385,54.918434],[10.42,54.904604],[10.43,54.9075],[10.445,54.904342],[10.4548,54.91],[10.445,54.912329],[10.43,54.927647],[10.414104,54.93],[10.409464,54.94],[10.421944,54.945],[10.42375,54.95],[10.416667,54.96],[10.375,54.957838],[10.37,54.965],[10.35,54.970373],[10.34122,54.965],[10.340405,54.98],[10.331,54.985],[10.348421,54.99],[10.34,54.995385],[10.281786,55.015],[10.279999,55.015005]]}},{"type":"Feature","properties":{"depth":10,"source":"DDM 2024 coarse contour","resolution":"0.005 degree sampled grid","scope":"denmark","tileSource":"contours-denmark-coarse.geojson"},"geometry":{"type":"LineString","coordinates":[[10.279999,55.026805],[10.285,55.02378],[10.305,55.023409],[10.315,55.017922],[10.335,55.019987],[10.355,55.003066],[10.361,55.005],[10.37,55.020816],[10.415,55.0148],[10.47,55.0248],[10.503333,55.015],[10.505,55.004024],[10.51,55.014038],[10.525,55.015833],[10.534,55.025],[10.5,55.025025],[10.47,55.037756],[10.395,55.03259],[10.365,55.041102],[10.325,55.032007],[10.315,55.04],[10.305,55.039545],[10.301364,55.045],[10.304107,55.055],[10.312927,55.06],[10.295,55.062326],[10.285,55.068611],[10.279999,55.05535]]}},{"type":"Feature","properties":{"depth":10,"source":"DDM 2024 coarse contour","resolution":"0.005 degree sampled grid","scope":"denmark","tileSource":"contours-denmark-coarse.geojson"},"geometry":{"type":"LineString","coordinates":[[10.279999,55.054882],[10.285484,55.05],[10.28,55.047063],[10.279999,55.047063]]}},{"type":"Feature","properties":{"depth":10,"source":"DDM 2024 coarse contour","resolution":"0.005 degree sampled grid","scope":"denmark","tileSource":"contours-denmark-coarse.geojson"},"geometry":{"type":"LineString","coordinates":[[10.45,54.958056],[10.44,54.947182],[10.43,54.949014],[10.425809,54.945],[10.445,54.942982],[10.462544,54.95],[10.45,54.958056]]}},{"type":"Feature","properties":{"depth":10,"source":"DDM 2024 coarse contour","resolution":"0.005 degree sampled grid","scope":"denmark","tileSource":"contours-denmark-coarse.geojson"},"geometry":{"type":"LineString","coordinates":[[10.306429,54.99],[10.313611,54.985],[10.305,54.97629],[10.306429,54.99]]}},{"type":"Feature","properties":{"depth":10,"source":"DDM 2024 coarse contour","resolution":"0.005 degree sampled grid","scope":"denmark","tileSource":"contours-denmark-coarse.geojson"},"geometry":{"type":"LineString","coordinates":[[10.545,55.031019],[10.531857,55.03],[10.535,55.02551],[10.545,55.031019]]}},{"type":"Feature","properties":{"depth":15,"source":"DDM 2024 coarse contour","resolution":"0.005 degree sampled grid","scope":"denmark","tileSource":"contours-denmark-coarse.geojson"},"geometry":{"type":"LineString","coordinates":[[10.348335,54.829999],[10.348333,54.83],[10.349048,54.835],[10.315,54.87],[10.28,54.885058],[10.279999,54.885059]]}},{"type":"Feature","properties":{"depth":15,"source":"DDM 2024 coarse contour","resolution":"0.005 degree sampled grid","scope":"denmark","tileSource":"contours-denmark-coarse.geojson"},"geometry":{"type":"LineString","coordinates":[[10.279999,54.944637],[10.29,54.943325],[10.355,54.907167],[10.36,54.913611],[10.375,54.913333],[10.385,54.921979],[10.415,54.912821],[10.429,54.915],[10.401324,54.94],[10.416061,54.95],[10.41,54.955556],[10.375,54.952803],[10.365,54.958605],[10.36,54.954437],[10.353387,54.96],[10.359722,54.965],[10.35,54.967],[10.34,54.961429],[10.335,54.980541],[10.325,54.972904],[10.315,54.982826],[10.305,54.972213],[10.300931,54.985],[10.305,54.992857],[10.32,54.987821],[10.3275,54.995],[10.29,55.011233],[10.279999,55.011712]]}},{"type":"Feature","properties":{"depth":15,"source":"DDM 2024 coarse contour","resolution":"0.005 degree sampled grid","scope":"denmark","tileSource":"contours-denmark-coarse.geojson"},"geometry":{"type":"LineString","coordinates":[[10.316053,54.83],[10.316054,54.829999]]}},{"type":"Feature","properties":{"depth":15,"source":"DDM 2024 coarse contour","resolution":"0.005 degree sampled grid","scope":"denmark","tileSource":"contours-denmark-coarse.geojson"},"geometry":{"type":"LineString","coordinates":[[10.312144,54.829999],[10.312143,54.83],[10.316053,54.83]]}},{"type":"Feature","properties":{"depth":15,"source":"DDM 2024 coarse contour","resolution":"0.005 degree sampled grid","scope":"denmark","tileSource":"contours-denmark-coarse.geojson"},"geometry":{"type":"LineString","coordinates":[[10.2825,54.86],[10.295,54.855],[10.295833,54.85],[10.284375,54.84],[10.279999,54.840597]]}},{"type":"Feature","properties":{"depth":15,"source":"DDM 2024 coarse contour","resolution":"0.005 degree sampled grid","scope":"denmark","tileSource":"contours-denmark-coarse.geojson"},"geometry":{"type":"LineString","coordinates":[[10.279999,54.858924],[10.2825,54.86]]}},{"type":"Feature","properties":{"depth":15,"source":"DDM 2024 coarse contour","resolution":"0.005 degree sampled grid","scope":"denmark","tileSource":"contours-denmark-coarse.geojson"},"geometry":{"type":"LineString","coordinates":[[10.343402,54.935],[10.363219,54.925],[10.36,54.921736],[10.335286,54.935],[10.343402,54.935]]}},{"type":"Feature","properties":{"depth":15,"source":"DDM 2024 coarse contour","resolution":"0.005 degree sampled grid","scope":"denmark","tileSource":"contours-denmark-coarse.geojson"},"geometry":{"type":"LineString","coordinates":[[10.298667,55],[10.29,54.987091],[10.283173,54.985],[10.292688,54.98],[10.285,54.974756],[10.279999,54.977097]]}},{"type":"Feature","properties":{"depth":15,"source":"DDM 2024 coarse contour","resolution":"0.005 degree sampled grid","scope":"denmark","tileSource":"contours-denmark-coarse.geojson"},"geometry":{"type":"LineString","coordinates":[[10.279999,54.996454],[10.29,55.001941],[10.298667,55]]}},{"type":"Feature","properties":{"depth":15,"source":"DDM 2024 coarse contour","resolution":"0.005 degree sampled grid","scope":"denmark","tileSource":"contours-denmark-coarse.geojson"},"geometry":{"type":"LineString","coordinates":[[10.495,55.025697],[10.485,55.029024],[10.480417,55.025],[10.515714,55.02],[10.495,55.025697]]}},{"type":"Feature","properties":{"depth":15,"source":"DDM 2024 coarse contour","resolution":"0.005 degree sampled grid","scope":"denmark","tileSource":"contours-denmark-coarse.geojson"},"geometry":{"type":"LineString","coordinates":[[10.43,55.03125],[10.380833,55.025],[10.405,55.023333],[10.43,55.03125]]}},{"type":"Feature","properties":{"depth":15,"source":"DDM 2024 coarse contour","resolution":"0.005 degree sampled grid","scope":"denmark","tileSource":"contours-denmark-coarse.geojson"},"geometry":{"type":"LineString","coordinates":[[10.325,55.030246],[10.303333,55.03],[10.329375,55.03],[10.325,55.030246]]}},{"type":"Feature","properties":{"depth":15,"source":"DDM 2024 coarse contour","resolution":"0.005 degree sampled grid","scope":"denmark","tileSource":"contours-denmark-coarse.geojson"},"geometry":{"type":"LineString","coordinates":[[10.48,55.0314],[10.46775,55.03],[10.48,55.025882],[10.483182,55.03],[10.48,55.0314]]}},{"type":"Feature","properties":{"depth":15,"source":"DDM 2024 coarse contour","resolution":"0.005 degree sampled grid","scope":"denmark","tileSource":"contours-denmark-coarse.geojson"},"geometry":{"type":"LineString","coordinates":[[10.465,55.035612],[10.435366,55.035],[10.455,55.031479],[10.4686,55.035],[10.465,55.035612]]}},{"type":"Feature","properties":{"depth":15,"source":"DDM 2024 coarse contour","resolution":"0.005 degree sampled grid","scope":"denmark","tileSource":"contours-denmark-coarse.geojson"},"geometry":{"type":"LineString","coordinates":[[10.279999,55.041799],[10.285,55.0425],[10.279999,55.045075]]}},{"type":"Feature","properties":{"depth":20,"source":"DDM 2024 coarse contour","resolution":"0.005 degree sampled grid","scope":"denmark","tileSource":"contours-denmark-coarse.geojson"},"geometry":{"type":"LineString","coordinates":[[10.330888,54.829999],[10.325,54.832],[10.32645,54.829999]]}},{"type":"Feature","properties":{"depth":20,"source":"DDM 2024 coarse contour","resolution":"0.005 degree sampled grid","scope":"denmark","tileSource":"contours-denmark-coarse.geojson"},"geometry":{"type":"LineString","coordinates":[[10.30674,54.829999],[10.3,54.83925],[10.285,54.834118],[10.279999,54.835207]]}},{"type":"Feature","properties":{"depth":20,"source":"DDM 2024 coarse contour","resolution":"0.005 degree sampled grid","scope":"denmark","tileSource":"contours-denmark-coarse.geojson"},"geometry":{"type":"LineString","coordinates":[[10.279999,54.864218],[10.295,54.858571],[10.31,54.845312],[10.325,54.841892],[10.3325,54.845],[10.310902,54.87],[10.279999,54.884671]]}},{"type":"Feature","properties":{"depth":20,"source":"DDM 2024 coarse contour","resolution":"0.005 degree sampled grid","scope":"denmark","tileSource":"contours-denmark-coarse.geojson"},"geometry":{"type":"LineString","coordinates":[[10.279999,54.949225],[10.28,54.949225],[10.33,54.924225],[10.34,54.926667],[10.331618,54.935],[10.335,54.939792],[10.355,54.939],[10.3725,54.945],[10.370667,54.95],[10.36,54.950915],[10.345735,54.96],[10.335,54.957442],[10.328889,54.965],[10.333846,54.97],[10.32,54.97325],[10.315,54.978981],[10.3,54.968955],[10.3,54.978125],[10.285,54.973232],[10.279999,54.975588]]}},{"type":"Feature","properties":{"depth":20,"source":"DDM 2024 coarse contour","resolution":"0.005 degree sampled grid","scope":"denmark","tileSource":"contours-denmark-coarse.geojson"},"geometry":{"type":"LineString","coordinates":[[10.279999,54.998125],[10.297368,55.005],[10.279999,55.009109]]}}]}