{"type":"FeatureCollection","name":"DDM contour tile r03_c01","bbox":[7.88,55.79,8.355,56.265],"metadata":{"schema":"waternav-ddm-contour-tile-v1","version":"v45.9","tileId":"r03_c01","source":"Danmarks Dybdemodel 2024 ddm_50m.dybde.tiff via bundled DDM contour GeoJSON files"},"features":[{"type":"Feature","properties":{"depth":1,"source":"DDM 2024 coarse contour","resolution":"0.005 degree sampled grid","scope":"denmark","tileSource":"contours-denmark-coarse.geojson"},"geometry":{"type":"LineString","coordinates":[[8.170017,55.789999],[8.170016,55.79],[8.17,55.815],[8.165005,55.82],[8.165003,55.83],[8.160014,55.835],[8.155004,55.875],[8.150011,55.88],[8.15,55.91],[8.145016,55.915],[8.145,55.929333],[8.14001,55.935],[8.14,55.948889],[8.135013,55.955],[8.133929,55.965],[8.125012,55.98],[8.125003,55.985],[8.115006,55.995],[8.12,56],[8.115,56.000024],[8.11,55.995017],[8.105011,56],[8.110001,56.005],[8.105009,56.01],[8.1,56.033667],[8.095016,56.04],[8.095015,56.075],[8.1,56.082],[8.100011,56.105],[8.105,56.113214],[8.105021,56.13],[8.11,56.135851],[8.110015,56.15],[8.114861,56.155],[8.115027,56.175],[8.12,56.180278],[8.120023,56.195],[8.124643,56.2],[8.125016,56.235],[8.13,56.243214],[8.125015,56.25],[8.125008,56.265001]]}},{"type":"Feature","properties":{"depth":1,"source":"DDM 2024 coarse contour","resolution":"0.005 degree sampled grid","scope":"denmark","tileSource":"contours-denmark-coarse.geojson"},"geometry":{"type":"LineString","coordinates":[[8.215,56.091111],[8.2,56.089687],[8.195,56.094167],[8.19,56.093846],[8.168333,56.085],[8.144,56.085],[8.146667,56.075],[8.135,56.055],[8.14125,56.045],[8.139,56.04],[8.131,56.035],[8.138333,56.025],[8.139286,56.015],[8.1525,56.005],[8.13875,55.995],[8.145,55.987188],[8.165,55.975833],[8.1925,55.98],[8.180833,55.97],[8.185,55.965833],[8.255,55.948],[8.256667,55.945],[8.253333,55.935],[8.265,55.930833],[8.265,55.9275],[8.245,55.925],[8.215,55.9125],[8.2,55.915],[8.196667,55.91],[8.2,55.906667],[8.225,55.9075],[8.23,55.912692],[8.27,55.91],[8.28,55.9125],[8.28875,55.91],[8.274167,55.905],[8.27375,55.9],[8.29,55.885],[8.28,55.871],[8.2725,55.87],[8.266667,55.865],[8.27,55.85375],[8.288571,55.86],[8.34,55.8925],[8.353125,55.91],[8.352857,55.92],[8.339,55.93],[8.325,55.946429],[8.28,55.9675],[8.265,55.969167],[8.249792,55.98],[8.26,55.986667],[8.259167,55.995],[8.266875,56],[8.26475,56.005],[8.273333,56.015],[8.281875,56.04],[8.281429,56.05],[8.245,56.078333],[8.225,56.0825],[8.215,56.091111]]}},{"type":"Feature","properties":{"depth":2,"source":"DDM 2024 coarse contour","resolution":"0.005 degree sampled grid","scope":"denmark","tileSource":"contours-denmark-coarse.geojson"},"geometry":{"type":"LineString","coordinates":[[8.171916,55.789999],[8.17,55.809091],[8.165,55.82],[8.164531,55.83],[8.160009,55.835],[8.152917,55.87],[8.154853,55.875],[8.150006,55.88],[8.15,55.90119],[8.145011,55.915],[8.145,55.927667],[8.140005,55.935],[8.14,55.947037],[8.125,55.983947],[8.115001,55.995],[8.11898,56],[8.11,55.995012],[8.105006,56],[8.108793,56.005],[8.100312,56.02],[8.09381,56.055],[8.105016,56.13],[8.11,56.136915],[8.115022,56.175],[8.12,56.183056],[8.120018,56.195],[8.125,56.207105],[8.125011,56.235],[8.128333,56.245],[8.12501,56.25],[8.125004,56.265001]]}},{"type":"Feature","properties":{"depth":2,"source":"DDM 2024 coarse contour","resolution":"0.005 degree sampled grid","scope":"denmark","tileSource":"contours-denmark-coarse.geojson"},"geometry":{"type":"LineString","coordinates":[[8.2,56.086562],[8.19,56.09],[8.17,56.081538],[8.155,56.08],[8.148,56.07],[8.151667,56.06],[8.143333,56.055],[8.148333,56.05],[8.147857,56.045],[8.162143,56.035],[8.16,56.03],[8.14,56.03],[8.145,56.025],[8.145,56.016667],[8.155,56.0125],[8.159375,56.005],[8.15,55.9975],[8.15,55.99],[8.165,55.984167],[8.185,55.99],[8.21,55.990625],[8.22,55.987143],[8.22,55.983636],[8.2,55.975714],[8.195,55.97],[8.245,55.953929],[8.26,55.9545],[8.265,55.951],[8.2625,55.94],[8.275,55.931667],[8.285,55.93],[8.275,55.92],[8.297857,55.915],[8.298333,55.91],[8.28375,55.9],[8.298,55.885],[8.29,55.875],[8.295,55.87125],[8.305,55.875],[8.343077,55.9],[8.345714,55.92],[8.325,55.941364],[8.31,55.951667],[8.278571,55.965],[8.265,55.967083],[8.247708,55.98],[8.27,56.015],[8.276316,56.035],[8.275556,56.05],[8.24,56.075909],[8.22,56.078077],[8.2,56.086562]]}},{"type":"Feature","properties":{"depth":3,"source":"DDM 2024 coarse contour","resolution":"0.005 degree sampled grid","scope":"denmark","tileSource":"contours-denmark-coarse.geojson"},"geometry":{"type":"LineString","coordinates":[[8.171033,55.789999],[8.17,55.804444],[8.163214,55.82],[8.155,55.865833],[8.150833,55.87],[8.153382,55.875],[8.148,55.89],[8.149265,55.9],[8.145,55.926],[8.137632,55.94],[8.14,55.945185],[8.12,55.989688],[8.105001,56],[8.107069,56.005],[8.09875,56.02],[8.1,56.025],[8.095,56.042826],[8.091875,56.045],[8.095,56.051739],[8.091429,56.055],[8.090667,56.065],[8.095,56.071071],[8.10375,56.125],[8.11,56.137979],[8.107727,56.145],[8.125,56.209737],[8.125,56.265001]]}},{"type":"Feature","properties":{"depth":3,"source":"DDM 2024 coarse contour","resolution":"0.005 degree sampled grid","scope":"denmark","tileSource":"contours-denmark-coarse.geojson"},"geometry":{"type":"LineString","coordinates":[[8.295,55.955714],[8.286667,55.955],[8.294375,55.95],[8.298333,55.93],[8.315,55.895],[8.32,55.893333],[8.3275,55.91],[8.32375,55.92],[8.325,55.93],[8.306,55.95],[8.295,55.955714]]}},{"type":"Feature","properties":{"depth":3,"source":"DDM 2024 coarse contour","resolution":"0.005 degree sampled grid","scope":"denmark","tileSource":"contours-denmark-coarse.geojson"},"geometry":{"type":"LineString","coordinates":[[8.25,56.0525],[8.235,56.055],[8.23,56.05],[8.235,56.045],[8.23,56.05],[8.205,56.055],[8.2,56.05],[8.19,56.05],[8.18,56.04],[8.194167,56.03],[8.19,56.025],[8.195,56.0225],[8.205,56.025],[8.205,56.015],[8.224286,55.99],[8.225,55.975],[8.245,55.9625],[8.2675,55.955],[8.28,55.94375],[8.281667,55.95],[8.2775,55.955],[8.283333,55.96],[8.265,55.965],[8.245625,55.98],[8.255,55.995],[8.255,56.005],[8.265,56.015],[8.265,56.025],[8.27,56.03],[8.26,56.04],[8.255,56.035],[8.25,56.04],[8.255,56.04],[8.26,56.045],[8.25,56.0525]]}},{"type":"Feature","properties":{"depth":5,"source":"DDM 2024 coarse contour","resolution":"0.005 degree sampled grid","scope":"denmark","tileSource":"contours-denmark-coarse.geojson"},"geometry":{"type":"LineString","coordinates":[[8.163158,55.789999],[8.163158,55.79],[8.1675,55.795],[8.162407,55.8],[8.1626,55.815],[8.156944,55.825],[8.159375,55.83],[8.152353,55.84],[8.146957,55.86],[8.146364,55.87],[8.150441,55.875],[8.143611,55.88],[8.142083,55.89],[8.146324,55.9],[8.142647,55.905],[8.142083,55.915],[8.137609,55.92],[8.1425,55.925],[8.1325,55.94],[8.133889,55.945],[8.127581,55.95],[8.117917,55.985],[8.101538,56],[8.103519,56.005],[8.09025,56.035],[8.0925,56.04],[8.087308,56.045],[8.086897,56.065],[8.091974,56.07],[8.0886,56.075],[8.092187,56.08],[8.091957,56.09],[8.097258,56.105],[8.094405,56.115],[8.099167,56.12],[8.09875,56.125],[8.105,56.129643],[8.105,56.133333],[8.099516,56.135],[8.105,56.14],[8.106786,56.15],[8.104394,56.155],[8.108333,56.17],[8.115,56.173293],[8.115,56.177692],[8.108667,56.18],[8.117195,56.185],[8.112941,56.19],[8.115,56.193889],[8.12,56.1935],[8.12,56.199286],[8.114821,56.2],[8.12087,56.21],[8.11775,56.215],[8.122143,56.23],[8.122059,56.25],[8.125,56.253125],[8.120312,56.26],[8.125,56.265],[8.124999,56.265001]]}},{"type":"Feature","properties":{"depth":10,"source":"DDM 2024 coarse contour","resolution":"0.005 degree sampled grid","scope":"denmark","tileSource":"contours-denmark-coarse.geojson"},"geometry":{"type":"LineString","coordinates":[[8.146389,55.789999],[8.147188,55.795],[8.1455,55.81],[8.133571,55.835],[8.1375,55.84],[8.125909,55.865],[8.12875,55.875],[8.121053,55.935],[8.108824,55.975],[8.09087,56],[8.073571,56.045],[8.076,56.08],[8.085833,56.105],[8.090227,56.145],[8.103571,56.185],[8.113846,56.255],[8.111729,56.265001]]}},{"type":"Feature","properties":{"depth":15,"source":"DDM 2024 coarse contour","resolution":"0.005 degree sampled grid","scope":"denmark","tileSource":"contours-denmark-coarse.geojson"},"geometry":{"type":"LineString","coordinates":[[8.119,55.789999],[8.119,55.79],[8.125714,55.805],[8.121,55.81],[8.119211,55.835],[8.114333,55.84],[8.117727,55.845],[8.106875,55.86],[8.105,55.9],[8.098125,55.91],[8.104444,55.935],[8.097308,55.95],[8.0975,55.965],[8.087778,55.975],[8.085278,55.99],[8.069091,56.02],[8.040278,56.06],[8.03625,56.08],[8.05,56.080625],[8.061875,56.1],[8.06,56.115],[8.070769,56.135],[8.069286,56.145],[8.081,56.155],[8.08875,56.175],[8.098421,56.225],[8.098024,56.265001]]}},{"type":"Feature","properties":{"depth":20,"source":"DDM 2024 coarse contour","resolution":"0.005 degree sampled grid","scope":"denmark","tileSource":"contours-denmark-coarse.geojson"},"geometry":{"type":"LineString","coordinates":[[7.893328,55.789999],[7.9,55.79125],[7.97,55.81375],[7.99,55.825],[7.996667,55.835],[7.995,55.84],[7.985,55.84375],[7.945,55.8325],[7.92875,55.835],[7.913,55.865],[7.93,55.881],[7.98,55.888],[8.015,55.903],[8.018333,55.88],[8.03,55.855],[8.065,55.845],[8.07,55.85],[8.08,55.8675],[8.081,55.88],[8.075,55.89],[8.075,55.9225],[8.065,55.935],[8.070833,55.94],[8.062857,55.95],[8.068,55.965],[8.060714,55.97],[8.0625,55.98],[8.054615,55.99],[8.06125,56],[8.042667,56.035],[8.026429,56.05],[8.025714,56.06],[8.013333,56.07],[8.014,56.075],[8,56.076],[7.991364,56.085],[7.994231,56.09],[7.99,56.095],[7.979,56.1],[7.968214,56.125],[7.971071,56.13],[7.954375,56.135],[7.961333,56.15],[7.950556,56.16],[7.953529,56.17],[7.95,56.185],[7.955,56.1775],[7.97,56.18],[7.965,56.186818],[7.96,56.180833],[7.955,56.1875],[7.95,56.185],[7.94,56.195],[7.95,56.201111],[7.96,56.198333],[7.9675,56.21],[7.926667,56.22],[7.9525,56.25],[7.995,56.255],[7.995,56.249167],[8,56.258333],[8.065,56.2425],[8.07625,56.25],[8.075,56.255],[8.07,56.255],[8.08,56.26],[8.075,56.265],[8.075001,56.265001]]}},{"type":"Feature","properties":{"depth":20,"source":"DDM 2024 coarse contour","resolution":"0.005 degree sampled grid","scope":"denmark","tileSource":"contours-denmark-coarse.geojson"},"geometry":{"type":"LineString","coordinates":[[7.9505,56.07],[7.955833,56.065],[7.95,56.05425],[7.935,56.052292],[7.9195,56.06],[7.93,56.071818],[7.9505,56.07]]}}]}