{"type":"FeatureCollection","name":"DDM contour tile r07_c06","bbox":[10.28,57.71,10.755,58],"metadata":{"schema":"waternav-ddm-contour-tile-v1","version":"v45.9","tileId":"r07_c06","source":"Danmarks Dybdemodel 2024 ddm_50m.dybde.tiff via bundled DDM contour GeoJSON files"},"features":[{"type":"Feature","properties":{"depth":1,"source":"DDM 2024 coarse contour","resolution":"0.005 degree sampled grid","scope":"denmark","tileSource":"contours-denmark-coarse.geojson"},"geometry":{"type":"LineString","coordinates":[[10.47924,57.709999],[10.479783,57.71],[10.535,57.739977],[10.545,57.739995],[10.55,57.744977],[10.563889,57.745],[10.57,57.749986],[10.585,57.750213],[10.59,57.754989],[10.635,57.754977],[10.65,57.745],[10.645,57.740017],[10.61,57.725005],[10.609961,57.72],[10.595,57.710042],[10.565,57.710004],[10.564995,57.709999]]}},{"type":"Feature","properties":{"depth":1,"source":"DDM 2024 coarse contour","resolution":"0.005 degree sampled grid","scope":"denmark","tileSource":"contours-denmark-coarse.geojson"},"geometry":{"type":"LineString","coordinates":[[10.755001,57.997289],[10.75081,58]]}},{"type":"Feature","properties":{"depth":2,"source":"DDM 2024 coarse contour","resolution":"0.005 degree sampled grid","scope":"denmark","tileSource":"contours-denmark-coarse.geojson"},"geometry":{"type":"LineString","coordinates":[[10.478027,57.709999],[10.478696,57.71],[10.525,57.734991],[10.53,57.734994],[10.535,57.739982],[10.545,57.74],[10.55,57.744982],[10.562037,57.745],[10.57,57.749991],[10.58,57.75],[10.59,57.754994],[10.635,57.754982],[10.652273,57.745],[10.625,57.730019],[10.62,57.730001],[10.615,57.725021],[10.61,57.725],[10.609966,57.72],[10.595,57.710037],[10.565263,57.71],[10.565261,57.709999]]}},{"type":"Feature","properties":{"depth":2,"source":"DDM 2024 coarse contour","resolution":"0.005 degree sampled grid","scope":"denmark","tileSource":"contours-denmark-coarse.geojson"},"geometry":{"type":"LineString","coordinates":[[10.755001,57.997285],[10.750805,58]]}},{"type":"Feature","properties":{"depth":3,"source":"DDM 2024 coarse contour","resolution":"0.005 degree sampled grid","scope":"denmark","tileSource":"contours-denmark-coarse.geojson"},"geometry":{"type":"LineString","coordinates":[[10.476658,57.709999],[10.477609,57.71],[10.525,57.734996],[10.53,57.734999],[10.535,57.739987],[10.543676,57.74],[10.55,57.744987],[10.560185,57.745],[10.59,57.754999],[10.635,57.754987],[10.654545,57.745],[10.61119,57.725],[10.605,57.715051],[10.595,57.710032],[10.566579,57.71],[10.566577,57.709999]]}},{"type":"Feature","properties":{"depth":3,"source":"DDM 2024 coarse contour","resolution":"0.005 degree sampled grid","scope":"denmark","tileSource":"contours-denmark-coarse.geojson"},"geometry":{"type":"LineString","coordinates":[[10.755001,57.997282],[10.750801,58]]}},{"type":"Feature","properties":{"depth":3,"source":"DDM 2024 coarse contour","resolution":"0.005 degree sampled grid","scope":"denmark","tileSource":"contours-denmark-coarse.geojson"},"geometry":{"type":"LineString","coordinates":[[10.68125,57.75],[10.67,57.743864],[10.6582,57.75],[10.662143,57.75],[10.665,57.745385],[10.669,57.75],[10.68125,57.75]]}},{"type":"Feature","properties":{"depth":5,"source":"DDM 2024 coarse contour","resolution":"0.005 degree sampled grid","scope":"denmark","tileSource":"contours-denmark-coarse.geojson"},"geometry":{"type":"LineString","coordinates":[[10.47543,57.709999],[10.475435,57.71],[10.5,57.724412],[10.505811,57.725],[10.508824,57.73],[10.515625,57.73],[10.525,57.738158],[10.540735,57.74],[10.573214,57.755],[10.615,57.756613],[10.655,57.750267],[10.685,57.755112],[10.689375,57.75],[10.665,57.737833],[10.648333,57.74],[10.613571,57.725],[10.605,57.715041],[10.595,57.710022],[10.569211,57.71],[10.569209,57.709999]]}},{"type":"Feature","properties":{"depth":5,"source":"DDM 2024 coarse contour","resolution":"0.005 degree sampled grid","scope":"denmark","tileSource":"contours-denmark-coarse.geojson"},"geometry":{"type":"LineString","coordinates":[[10.755001,57.997276],[10.750793,58]]}},{"type":"Feature","properties":{"depth":10,"source":"DDM 2024 coarse contour","resolution":"0.005 degree sampled grid","scope":"denmark","tileSource":"contours-denmark-coarse.geojson"},"geometry":{"type":"LineString","coordinates":[[10.442456,57.709999],[10.475,57.725351],[10.555,57.752798],[10.61,57.76008],[10.655,57.7536],[10.7,57.757583],[10.715849,57.755],[10.71,57.749464],[10.7,57.75],[10.67,57.728924],[10.615,57.721042],[10.6,57.710714],[10.598017,57.709999]]}},{"type":"Feature","properties":{"depth":10,"source":"DDM 2024 coarse contour","resolution":"0.005 degree sampled grid","scope":"denmark","tileSource":"contours-denmark-coarse.geojson"},"geometry":{"type":"LineString","coordinates":[[10.755001,57.997684],[10.750772,58]]}},{"type":"Feature","properties":{"depth":15,"source":"DDM 2024 coarse contour","resolution":"0.005 degree sampled grid","scope":"denmark","tileSource":"contours-denmark-coarse.geojson"},"geometry":{"type":"LineString","coordinates":[[10.425831,57.709999],[10.45,57.721667],[10.51,57.739133],[10.514167,57.745],[10.53,57.749516],[10.59,57.76036],[10.66,57.757222],[10.71,57.760568],[10.720306,57.755],[10.718033,57.75],[10.69,57.7332],[10.628295,57.709999]]}},{"type":"Feature","properties":{"depth":15,"source":"DDM 2024 coarse contour","resolution":"0.005 degree sampled grid","scope":"denmark","tileSource":"contours-denmark-coarse.geojson"},"geometry":{"type":"LineString","coordinates":[[10.615789,57.709999],[10.616579,57.715],[10.608542,57.715],[10.611772,57.709999]]}},{"type":"Feature","properties":{"depth":15,"source":"DDM 2024 coarse contour","resolution":"0.005 degree sampled grid","scope":"denmark","tileSource":"contours-denmark-coarse.geojson"},"geometry":{"type":"LineString","coordinates":[[10.755001,57.997672],[10.750751,58]]}},{"type":"Feature","properties":{"depth":20,"source":"DDM 2024 coarse contour","resolution":"0.005 degree sampled grid","scope":"denmark","tileSource":"contours-denmark-coarse.geojson"},"geometry":{"type":"LineString","coordinates":[[10.412994,57.709999],[10.443929,57.725],[10.525926,57.75],[10.61,57.762754],[10.715,57.7609],[10.722857,57.755],[10.72,57.742222],[10.685714,57.725],[10.675,57.715],[10.675667,57.709999]]}},{"type":"Feature","properties":{"depth":20,"source":"DDM 2024 coarse contour","resolution":"0.005 degree sampled grid","scope":"denmark","tileSource":"contours-denmark-coarse.geojson"},"geometry":{"type":"LineString","coordinates":[[10.755001,57.997659],[10.75073,58]]}},{"type":"Feature","properties":{"depth":30,"source":"DDM 2024 coarse contour","resolution":"0.005 degree sampled grid","scope":"denmark","tileSource":"contours-denmark-coarse.geojson"},"geometry":{"type":"LineString","coordinates":[[10.279999,57.728295],[10.3535,57.73],[10.358125,57.725],[10.339211,57.71],[10.339254,57.709999]]}},{"type":"Feature","properties":{"depth":30,"source":"DDM 2024 coarse contour","resolution":"0.005 degree sampled grid","scope":"denmark","tileSource":"contours-denmark-coarse.geojson"},"geometry":{"type":"LineString","coordinates":[[10.361936,57.709999],[10.55,57.7573],[10.635,57.767348],[10.715,57.764233],[10.755001,57.750831]]}},{"type":"Feature","properties":{"depth":30,"source":"DDM 2024 coarse contour","resolution":"0.005 degree sampled grid","scope":"denmark","tileSource":"contours-denmark-coarse.geojson"},"geometry":{"type":"LineString","coordinates":[[10.755001,57.997634],[10.750688,58]]}},{"type":"Feature","properties":{"depth":50,"source":"DDM 2024 coarse contour","resolution":"0.005 degree sampled grid","scope":"denmark","tileSource":"contours-denmark-coarse.geojson"},"geometry":{"type":"LineString","coordinates":[[10.279999,57.734748],[10.375,57.740709],[10.415,57.732778],[10.62,57.774106],[10.755001,57.780006]]}},{"type":"Feature","properties":{"depth":50,"source":"DDM 2024 coarse contour","resolution":"0.005 degree sampled grid","scope":"denmark","tileSource":"contours-denmark-coarse.geojson"},"geometry":{"type":"LineString","coordinates":[[10.755001,57.997585],[10.750604,58]]}},{"type":"Feature","properties":{"depth":100,"source":"DDM 2024 coarse contour","resolution":"0.005 degree sampled grid","scope":"denmark","tileSource":"contours-denmark-coarse.geojson"},"geometry":{"type":"LineString","coordinates":[[10.354,58],[10.419444,57.98],[10.458333,57.95],[10.425,57.925],[10.3965,57.895],[10.369286,57.885],[10.366667,57.88],[10.37,57.876667],[10.38,57.869286],[10.42,57.867],[10.453,57.85],[10.505,57.84431],[10.536667,57.835],[10.538889,57.83],[10.535,57.8265],[10.453,57.795],[10.45,57.785],[10.505,57.786667],[10.755001,57.843376]]}},{"type":"Feature","properties":{"depth":100,"source":"DDM 2024 coarse contour","resolution":"0.005 degree sampled grid","scope":"denmark","tileSource":"contours-denmark-coarse.geojson"},"geometry":{"type":"LineString","coordinates":[[10.755001,57.997119],[10.750395,58]]}}]}