{"type":"FeatureCollection","name":"DDM contour tile r04_c06","bbox":[10.28,56.27,10.755,56.745],"metadata":{"schema":"waternav-ddm-contour-tile-v1","version":"v45.6","tileId":"r04_c06","source":"Danmarks Dybdemodel 2024 ddm_50m.dybde.tiff via bundled DDM contour GeoJSON files"},"features":[{"type":"Feature","properties":{"depth":1,"source":"DDM 2024 coarse contour","resolution":"0.005 degree sampled grid","scope":"denmark","tileSource":"contours-denmark-coarse.geojson"},"geometry":{"type":"LineString","coordinates":[[10.319,56.745001],[10.319,56.745],[10.335833,56.74],[10.3325,56.735],[10.335,56.733182],[10.345,56.731],[10.355,56.719167],[10.365556,56.715],[10.3675,56.705],[10.362,56.7],[10.365,56.695],[10.375,56.695],[10.375,56.69],[10.37,56.686667],[10.365,56.69],[10.363333,56.685],[10.375909,56.67],[10.368214,56.66],[10.375,56.656667],[10.375,56.65],[10.380556,56.64],[10.364444,56.63],[10.352692,56.615],[10.352917,56.61],[10.357059,56.575],[10.385,56.551304],[10.405,56.541125],[10.415,56.539992],[10.435,56.526333],[10.47,56.524986],[10.475,56.520667],[10.49,56.519989],[10.5,56.515],[10.555,56.515429],[10.565,56.519986],[10.6,56.520761],[10.605,56.524983],[10.625,56.526212],[10.65,56.535],[10.705,56.534997],[10.71,56.539977],[10.717273,56.535],[10.74,56.535581],[10.755001,56.539404]]}},{"type":"Feature","properties":{"depth":1,"source":"DDM 2024 coarse contour","resolution":"0.005 degree sampled grid","scope":"denmark","tileSource":"contours-denmark-coarse.geojson"},"geometry":{"type":"LineString","coordinates":[[10.497226,56.269999],[10.499857,56.275],[10.48,56.279038],[10.471286,56.27],[10.471287,56.269999]]}},{"type":"Feature","properties":{"depth":1,"source":"DDM 2024 coarse contour","resolution":"0.005 degree sampled grid","scope":"denmark","tileSource":"contours-denmark-coarse.geojson"},"geometry":{"type":"LineString","coordinates":[[10.468168,56.269999],[10.45001,56.285],[10.45,56.290009],[10.44,56.290028],[10.435,56.294512],[10.43,56.294932],[10.425,56.290042],[10.39,56.29],[10.384999,56.285],[10.389996,56.28],[10.38,56.270015],[10.379415,56.269999]]}},{"type":"Feature","properties":{"depth":1,"source":"DDM 2024 coarse contour","resolution":"0.005 degree sampled grid","scope":"denmark","tileSource":"contours-denmark-coarse.geojson"},"geometry":{"type":"LineString","coordinates":[[10.295,56.605036],[10.290556,56.605],[10.28375,56.59],[10.279999,56.588618]]}},{"type":"Feature","properties":{"depth":1,"source":"DDM 2024 coarse contour","resolution":"0.005 degree sampled grid","scope":"denmark","tileSource":"contours-denmark-coarse.geojson"},"geometry":{"type":"LineString","coordinates":[[10.279999,56.579997],[10.28,56.579996],[10.289167,56.585],[10.299444,56.605],[10.295,56.605036]]}},{"type":"Feature","properties":{"depth":1,"source":"DDM 2024 coarse contour","resolution":"0.005 degree sampled grid","scope":"denmark","tileSource":"contours-denmark-coarse.geojson"},"geometry":{"type":"LineString","coordinates":[[10.33,56.609043],[10.325,56.605025],[10.32,56.609286],[10.315588,56.605],[10.325,56.604975],[10.33,56.601042],[10.334043,56.605],[10.33,56.609043]]}},{"type":"Feature","properties":{"depth":1,"source":"DDM 2024 coarse contour","resolution":"0.005 degree sampled grid","scope":"denmark","tileSource":"contours-denmark-coarse.geojson"},"geometry":{"type":"LineString","coordinates":[[10.32,56.705004],[10.3,56.708654],[10.295,56.702857],[10.280833,56.7],[10.282188,56.695],[10.285,56.694996],[10.29,56.699998],[10.304091,56.7],[10.31,56.704991],[10.323636,56.705],[10.32,56.705004]]}},{"type":"Feature","properties":{"depth":1,"source":"DDM 2024 coarse contour","resolution":"0.005 degree sampled grid","scope":"denmark","tileSource":"contours-denmark-coarse.geojson"},"geometry":{"type":"LineString","coordinates":[[10.34,56.7075],[10.325441,56.705],[10.342222,56.705],[10.34,56.7075]]}},{"type":"Feature","properties":{"depth":2,"source":"DDM 2024 coarse contour","resolution":"0.005 degree sampled grid","scope":"denmark","tileSource":"contours-denmark-coarse.geojson"},"geometry":{"type":"LineString","coordinates":[[10.336588,56.745001],[10.348125,56.74],[10.347,56.735],[10.355,56.72375],[10.375,56.71375],[10.375,56.705],[10.386667,56.695],[10.38,56.675],[10.383,56.66],[10.378846,56.65],[10.383636,56.645],[10.383333,56.64],[10.365,56.6275],[10.357,56.615],[10.356111,56.605],[10.36125,56.6],[10.357,56.595],[10.357308,56.58],[10.38,56.55697],[10.395,56.547432],[10.415,56.539997],[10.435,56.528],[10.47,56.524991],[10.502941,56.515],[10.545,56.515606],[10.565,56.519991],[10.6,56.521848],[10.65,56.536],[10.705,56.535476],[10.71,56.539982],[10.715,56.536293],[10.725,56.535446],[10.755001,56.541863]]}},{"type":"Feature","properties":{"depth":2,"source":"DDM 2024 coarse contour","resolution":"0.005 degree sampled grid","scope":"denmark","tileSource":"contours-denmark-coarse.geojson"},"geometry":{"type":"LineString","coordinates":[[10.495245,56.269999],[10.498429,56.275],[10.49,56.275017],[10.485,56.278906],[10.48,56.277115],[10.472714,56.27],[10.472715,56.269999]]}},{"type":"Feature","properties":{"depth":2,"source":"DDM 2024 coarse contour","resolution":"0.005 degree sampled grid","scope":"denmark","tileSource":"contours-denmark-coarse.geojson"},"geometry":{"type":"LineString","coordinates":[[10.466411,56.269999],[10.454574,56.28],[10.450005,56.285],[10.45,56.290004],[10.44,56.290023],[10.435,56.293902],[10.43,56.294257],[10.425,56.290037],[10.392381,56.29],[10.38625,56.285],[10.39,56.279828],[10.38,56.27001],[10.379979,56.269999]]}},{"type":"Feature","properties":{"depth":2,"source":"DDM 2024 coarse contour","resolution":"0.005 degree sampled grid","scope":"denmark","tileSource":"contours-denmark-coarse.geojson"},"geometry":{"type":"LineString","coordinates":[[10.33,56.607979],[10.325,56.60502],[10.32,56.608571],[10.316324,56.605],[10.33,56.602083],[10.332979,56.605],[10.33,56.607979]]}},{"type":"Feature","properties":{"depth":2,"source":"DDM 2024 coarse contour","resolution":"0.005 degree sampled grid","scope":"denmark","tileSource":"contours-denmark-coarse.geojson"},"geometry":{"type":"LineString","coordinates":[[10.31,56.705004],[10.3,56.706731],[10.297143,56.7],[10.312857,56.705],[10.31,56.705004]]}},{"type":"Feature","properties":{"depth":3,"source":"DDM 2024 coarse contour","resolution":"0.005 degree sampled grid","scope":"denmark","tileSource":"contours-denmark-coarse.geojson"},"geometry":{"type":"LineString","coordinates":[[10.343003,56.745001],[10.343,56.745],[10.36,56.742857],[10.358889,56.735],[10.3675,56.725],[10.39,56.706875],[10.41,56.7],[10.415,56.695],[10.405,56.6825],[10.391429,56.675],[10.395,56.665],[10.39,56.6675],[10.389286,56.665],[10.395,56.665],[10.396429,56.66],[10.388571,56.65],[10.393333,56.645],[10.393,56.64],[10.374,56.63],[10.37,56.624792],[10.365,56.624583],[10.361944,56.62],[10.362692,56.61],[10.357222,56.605],[10.36375,56.6],[10.3595,56.595],[10.359231,56.58],[10.362,56.575],[10.395,56.548784],[10.44,56.527959],[10.465,56.527121],[10.513333,56.515],[10.6,56.522935],[10.65,56.537],[10.705,56.536667],[10.71,56.539987],[10.725,56.536339],[10.755001,56.543227]]}},{"type":"Feature","properties":{"depth":3,"source":"DDM 2024 coarse contour","resolution":"0.005 degree sampled grid","scope":"denmark","tileSource":"contours-denmark-coarse.geojson"},"geometry":{"type":"LineString","coordinates":[[10.458558,56.269999],[10.458548,56.27],[10.46,56.275],[10.453511,56.28],[10.448571,56.29],[10.44,56.290018],[10.435,56.293293],[10.42,56.289342],[10.394762,56.29],[10.387812,56.285],[10.391058,56.28],[10.388,56.275],[10.380711,56.269999]]}},{"type":"Feature","properties":{"depth":3,"source":"DDM 2024 coarse contour","resolution":"0.005 degree sampled grid","scope":"denmark","tileSource":"contours-denmark-coarse.geojson"},"geometry":{"type":"LineString","coordinates":[[10.495,56.275007],[10.485,56.277344],[10.474143,56.27],[10.474144,56.269999]]}},{"type":"Feature","properties":{"depth":3,"source":"DDM 2024 coarse contour","resolution":"0.005 degree sampled grid","scope":"denmark","tileSource":"contours-denmark-coarse.geojson"},"geometry":{"type":"LineString","coordinates":[[10.493391,56.269999],[10.493393,56.27],[10.497,56.275],[10.495,56.275007]]}},{"type":"Feature","properties":{"depth":3,"source":"DDM 2024 coarse contour","resolution":"0.005 degree sampled grid","scope":"denmark","tileSource":"contours-denmark-coarse.geojson"},"geometry":{"type":"LineString","coordinates":[[10.33,56.606915],[10.325,56.605015],[10.32,56.607857],[10.317059,56.605],[10.33,56.603125],[10.33,56.606915]]}},{"type":"Feature","properties":{"depth":5,"source":"DDM 2024 coarse contour","resolution":"0.005 degree sampled grid","scope":"denmark","tileSource":"contours-denmark-coarse.geojson"},"geometry":{"type":"LineString","coordinates":[[10.408333,56.745001],[10.408333,56.745],[10.42,56.738],[10.445,56.735],[10.435,56.734],[10.431,56.73],[10.45,56.728],[10.455,56.72],[10.485,56.715],[10.485,56.71],[10.48,56.713333],[10.475,56.708636],[10.47,56.7125],[10.455,56.714524],[10.44,56.720714],[10.425,56.72],[10.420625,56.715],[10.427143,56.705],[10.445,56.694375],[10.45,56.695385],[10.47,56.687],[10.472,56.68],[10.46,56.676667],[10.45,56.680625],[10.445,56.675625],[10.435,56.6735],[10.41875,56.66],[10.415,56.643929],[10.36875,56.62],[10.375,56.596667],[10.382222,56.59],[10.38,56.585],[10.381667,56.575],[10.39,56.57],[10.398,56.555],[10.415,56.55],[10.43,56.549545],[10.445,56.560625],[10.442857,56.545],[10.43,56.538333],[10.42931,56.535],[10.44,56.53],[10.465,56.531],[10.47,56.533889],[10.475,56.52625],[10.495,56.5235],[10.505,56.518833],[10.545,56.520385],[10.58,56.526818],[10.6,56.525556],[10.605,56.530556],[10.65,56.539],[10.73,56.538387],[10.755001,56.543525]]}},{"type":"Feature","properties":{"depth":5,"source":"DDM 2024 coarse contour","resolution":"0.005 degree sampled grid","scope":"denmark","tileSource":"contours-denmark-coarse.geojson"},"geometry":{"type":"LineString","coordinates":[[10.455326,56.269999],[10.455323,56.27],[10.457778,56.275],[10.445,56.288171],[10.435,56.292073],[10.415,56.2875],[10.403864,56.29],[10.393333,56.285],[10.390256,56.275],[10.383429,56.269999]]}},{"type":"Feature","properties":{"depth":5,"source":"DDM 2024 coarse contour","resolution":"0.005 degree sampled grid","scope":"denmark","tileSource":"contours-denmark-coarse.geojson"},"geometry":{"type":"LineString","coordinates":[[10.651,56.635],[10.6525,56.63],[10.645,56.625],[10.653333,56.62],[10.653333,56.615],[10.665,56.608333],[10.67,56.61],[10.671667,56.605],[10.6875,56.595],[10.685,56.585],[10.687778,56.58],[10.685,56.5775],[10.67,56.575],[10.665,56.578333],[10.65,56.579412],[10.645,56.585],[10.63,56.588077],[10.59,56.589167],[10.585,56.592963],[10.57125,56.595],[10.564118,56.61],[10.565,56.615],[10.575,56.62],[10.595,56.625],[10.625,56.625],[10.63,56.63],[10.645,56.635833],[10.651,56.635]]}},{"type":"Feature","properties":{"depth":10,"source":"DDM 2024 coarse contour","resolution":"0.005 degree sampled grid","scope":"denmark","tileSource":"contours-denmark-coarse.geojson"},"geometry":{"type":"LineString","coordinates":[[10.561073,56.745001],[10.561071,56.745],[10.56125,56.735],[10.575,56.73],[10.5725,56.72],[10.605,56.712143],[10.610714,56.7],[10.582,56.67],[10.565,56.6625],[10.550667,56.645],[10.545,56.646667],[10.530417,56.635],[10.529167,56.625],[10.521667,56.62],[10.51625,56.605],[10.525,56.603636],[10.54,56.62],[10.57,56.637],[10.605,56.647143],[10.62625,56.665],[10.665,56.668333],[10.67,56.67],[10.67,56.675278],[10.705,56.680833],[10.735,56.678],[10.75,56.68125],[10.755,56.6875],[10.755001,56.6875]]}},{"type":"Feature","properties":{"depth":10,"source":"DDM 2024 coarse contour","resolution":"0.005 degree sampled grid","scope":"denmark","tileSource":"contours-denmark-coarse.geojson"},"geometry":{"type":"LineString","coordinates":[[10.755001,56.681999],[10.755,56.682],[10.751667,56.68],[10.74875,56.67],[10.75,56.665],[10.755,56.665],[10.755001,56.664996]]}},{"type":"Feature","properties":{"depth":10,"source":"DDM 2024 coarse contour","resolution":"0.005 degree sampled grid","scope":"denmark","tileSource":"contours-denmark-coarse.geojson"},"geometry":{"type":"LineString","coordinates":[[10.401347,56.269999],[10.4,56.2725],[10.396058,56.269999]]}},{"type":"Feature","properties":{"depth":10,"source":"DDM 2024 coarse contour","resolution":"0.005 degree sampled grid","scope":"denmark","tileSource":"contours-denmark-coarse.geojson"},"geometry":{"type":"LineString","coordinates":[[10.75,56.5615],[10.71,56.5608],[10.68125,56.555],[10.695,56.549722],[10.725,56.558],[10.74,56.550833],[10.755001,56.553272]]}},{"type":"Feature","properties":{"depth":10,"source":"DDM 2024 coarse contour","resolution":"0.005 degree sampled grid","scope":"denmark","tileSource":"contours-denmark-coarse.geojson"},"geometry":{"type":"LineString","coordinates":[[10.755001,56.55942],[10.75,56.5615]]}}]}