{"type":"FeatureCollection","name":"DDM contour tile r00_c14","bbox":[14.12,54.35,14.595,54.825],"metadata":{"schema":"waternav-ddm-contour-tile-v1","version":"v46.0","tileId":"r00_c14","source":"Danmarks Dybdemodel 2024 ddm_50m.dybde.tiff via bundled DDM contour GeoJSON files"},"features":[{"type":"Feature","properties":{"depth":1,"source":"DDM 2024 coarse contour","resolution":"0.005 degree sampled grid","scope":"denmark","tileSource":"contours-denmark-coarse.geojson"},"geometry":{"type":"LineString","coordinates":[[14.159851,54.825001],[14.17,54.814861],[14.41,54.814927],[14.41493,54.81],[14.414853,54.66],[14.42,54.654855],[14.445,54.644863],[14.455,54.634859],[14.46,54.63486],[14.465,54.629861],[14.5,54.614872],[14.51,54.604873],[14.515,54.604874],[14.52,54.599878],[14.555,54.584882],[14.565,54.574889],[14.595001,54.562036]]}},{"type":"Feature","properties":{"depth":2,"source":"DDM 2024 coarse contour","resolution":"0.005 degree sampled grid","scope":"denmark","tileSource":"contours-denmark-coarse.geojson"},"geometry":{"type":"LineString","coordinates":[[14.159856,54.825001],[14.17,54.814866],[14.41,54.814932],[14.414934,54.81],[14.414858,54.66],[14.42,54.65486],[14.445,54.644868],[14.455,54.634863],[14.46,54.634864],[14.465,54.629866],[14.5,54.614877],[14.51,54.604878],[14.515,54.604879],[14.52,54.599882],[14.555,54.584887],[14.565,54.574893],[14.595001,54.562041]]}},{"type":"Feature","properties":{"depth":3,"source":"DDM 2024 coarse contour","resolution":"0.005 degree sampled grid","scope":"denmark","tileSource":"contours-denmark-coarse.geojson"},"geometry":{"type":"LineString","coordinates":[[14.159861,54.825001],[14.17,54.814871],[14.41,54.814936],[14.414939,54.81],[14.414863,54.66],[14.42,54.654865],[14.445,54.644873],[14.455,54.634868],[14.46,54.634869],[14.465,54.629871],[14.5,54.614882],[14.51,54.604883],[14.515,54.604884],[14.52,54.599887],[14.555,54.584892],[14.565,54.574898],[14.595001,54.562046]]}},{"type":"Feature","properties":{"depth":5,"source":"DDM 2024 coarse contour","resolution":"0.005 degree sampled grid","scope":"denmark","tileSource":"contours-denmark-coarse.geojson"},"geometry":{"type":"LineString","coordinates":[[14.159871,54.825001],[14.17,54.814881],[14.41,54.814946],[14.414949,54.81],[14.414873,54.66],[14.42,54.654874],[14.445,54.644882],[14.455,54.634878],[14.46,54.634879],[14.465,54.629881],[14.5,54.614891],[14.51,54.604893],[14.515,54.604894],[14.52,54.599897],[14.555,54.584901],[14.565,54.574908],[14.595001,54.562055]]}},{"type":"Feature","properties":{"depth":10,"source":"DDM 2024 coarse contour","resolution":"0.005 degree sampled grid","scope":"denmark","tileSource":"contours-denmark-coarse.geojson"},"geometry":{"type":"LineString","coordinates":[[14.158453,54.825001],[14.17,54.814905],[14.41,54.814971],[14.414974,54.81],[14.414897,54.66],[14.595001,54.559476]]}},{"type":"Feature","properties":{"depth":15,"source":"DDM 2024 coarse contour","resolution":"0.005 degree sampled grid","scope":"denmark","tileSource":"contours-denmark-coarse.geojson"},"geometry":{"type":"LineString","coordinates":[[14.158481,54.825001],[14.17,54.81493],[14.41,54.814996],[14.414999,54.81],[14.415,54.788947],[14.435,54.773],[14.455,54.77],[14.446,54.765],[14.4475,54.76],[14.463929,54.745],[14.468125,54.735],[14.457143,54.725],[14.4595,54.72],[14.44,54.71],[14.441667,54.705],[14.415,54.70425],[14.414921,54.66],[14.595001,54.559499]]}},{"type":"Feature","properties":{"depth":15,"source":"DDM 2024 coarse contour","resolution":"0.005 degree sampled grid","scope":"denmark","tileSource":"contours-denmark-coarse.geojson"},"geometry":{"type":"LineString","coordinates":[[14.415,54.730952],[14.415,54.713333],[14.42875,54.715],[14.425,54.724118],[14.415,54.730952]]}},{"type":"Feature","properties":{"depth":15,"source":"DDM 2024 coarse contour","resolution":"0.005 degree sampled grid","scope":"denmark","tileSource":"contours-denmark-coarse.geojson"},"geometry":{"type":"LineString","coordinates":[[14.595001,54.808333],[14.595,54.808333],[14.59,54.804231],[14.584,54.81],[14.59,54.81125],[14.595,54.8225],[14.595001,54.8225]]}},{"type":"Feature","properties":{"depth":20,"source":"DDM 2024 coarse contour","resolution":"0.005 degree sampled grid","scope":"denmark","tileSource":"contours-denmark-coarse.geojson"},"geometry":{"type":"LineString","coordinates":[[14.158509,54.825001],[14.17,54.814954],[14.266071,54.815],[14.29244,54.825001]]}},{"type":"Feature","properties":{"depth":20,"source":"DDM 2024 coarse contour","resolution":"0.005 degree sampled grid","scope":"denmark","tileSource":"contours-denmark-coarse.geojson"},"geometry":{"type":"LineString","coordinates":[[14.295729,54.825001],[14.3,54.819314],[14.3029,54.825001]]}},{"type":"Feature","properties":{"depth":20,"source":"DDM 2024 coarse contour","resolution":"0.005 degree sampled grid","scope":"denmark","tileSource":"contours-denmark-coarse.geojson"},"geometry":{"type":"LineString","coordinates":[[14.595001,54.793576],[14.575,54.793616],[14.55,54.783621],[14.52,54.783162],[14.495,54.798939],[14.48,54.798649],[14.475,54.804545],[14.47,54.8022],[14.455,54.8075],[14.445833,54.795],[14.481528,54.775],[14.47925,54.77],[14.485,54.765],[14.486,54.755],[14.482353,54.74],[14.451528,54.7],[14.415,54.694483],[14.414946,54.66],[14.595001,54.559521]]}},{"type":"Feature","properties":{"depth":20,"source":"DDM 2024 coarse contour","resolution":"0.005 degree sampled grid","scope":"denmark","tileSource":"contours-denmark-coarse.geojson"},"geometry":{"type":"LineString","coordinates":[[14.414796,54.825001],[14.42,54.820435],[14.44,54.81375],[14.445,54.82],[14.455,54.816875],[14.4575,54.82],[14.4575,54.825001]]}},{"type":"Feature","properties":{"depth":30,"source":"DDM 2024 coarse contour","resolution":"0.005 degree sampled grid","scope":"denmark","tileSource":"contours-denmark-coarse.geojson"},"geometry":{"type":"LineString","coordinates":[[14.595001,54.776406],[14.585,54.769811],[14.55,54.763514],[14.535,54.766818],[14.51,54.753929],[14.489697,54.725],[14.447222,54.69],[14.4625,54.645],[14.47,54.64],[14.49,54.641538],[14.555,54.603333],[14.595001,54.593065]]}},{"type":"Feature","properties":{"depth":30,"source":"DDM 2024 coarse contour","resolution":"0.005 degree sampled grid","scope":"denmark","tileSource":"contours-denmark-coarse.geojson"},"geometry":{"type":"LineString","coordinates":[[14.42,54.671667],[14.415,54.6725],[14.414994,54.66],[14.426,54.655],[14.425,54.67],[14.42,54.671667]]}}]}