{"type":"FeatureCollection","name":"DDM contour tile r00_c15","bbox":[14.6,54.35,15.075,54.825],"metadata":{"schema":"waternav-ddm-contour-tile-v1","version":"v45.9","tileId":"r00_c15","source":"Danmarks Dybdemodel 2024 ddm_50m.dybde.tiff via bundled DDM contour GeoJSON files"},"features":[{"type":"Feature","properties":{"depth":1,"source":"DDM 2024 coarse contour","resolution":"0.005 degree sampled grid","scope":"denmark","tileSource":"contours-denmark-coarse.geojson"},"geometry":{"type":"LineString","coordinates":[[14.599999,54.559894],[14.6,54.559894],[14.61,54.549897],[14.625,54.544896],[14.63,54.539897],[14.635,54.539897],[14.64511,54.55],[14.645112,54.555],[14.675184,54.595],[14.67519,54.6],[14.69,54.614792],[14.71,54.61479],[14.715,54.609793],[14.735,54.609791],[14.74,54.604794],[14.76,54.604792],[14.765,54.599795],[14.785,54.599793],[14.79,54.594796],[14.815,54.594793],[14.82,54.589796],[14.85,54.589792],[14.855,54.584794],[14.885,54.584791],[14.89,54.579792],[14.93,54.579787],[14.935,54.574789],[14.985,54.574783],[14.99,54.569786],[15.075001,54.56978]]}},{"type":"Feature","properties":{"depth":2,"source":"DDM 2024 coarse contour","resolution":"0.005 degree sampled grid","scope":"denmark","tileSource":"contours-denmark-coarse.geojson"},"geometry":{"type":"LineString","coordinates":[[14.599999,54.559899],[14.6,54.559899],[14.61,54.549902],[14.625,54.544901],[14.63,54.539902],[14.635,54.539902],[14.645105,54.55],[14.645107,54.555],[14.67518,54.595],[14.675185,54.6],[14.69,54.614796],[14.71,54.614795],[14.715,54.609798],[14.735,54.609795],[14.74,54.604799],[14.76,54.604797],[14.765,54.5998],[14.785,54.599798],[14.79,54.594801],[14.815,54.594798],[14.82,54.5898],[14.85,54.589797],[14.855,54.584799],[14.885,54.584795],[14.89,54.579797],[14.93,54.579791],[14.935,54.574794],[14.985,54.574788],[14.99,54.569791],[15.075001,54.569785]]}},{"type":"Feature","properties":{"depth":3,"source":"DDM 2024 coarse contour","resolution":"0.005 degree sampled grid","scope":"denmark","tileSource":"contours-denmark-coarse.geojson"},"geometry":{"type":"LineString","coordinates":[[14.599999,54.559904],[14.6,54.559904],[14.61,54.549906],[14.625,54.544906],[14.63,54.539907],[14.635,54.539906],[14.6451,54.55],[14.645102,54.555],[14.675175,54.595],[14.67518,54.6],[14.69,54.614801],[14.71,54.6148],[14.715,54.609803],[14.735,54.6098],[14.74,54.604803],[14.76,54.604802],[14.765,54.599804],[14.785,54.599803],[14.79,54.594806],[14.815,54.594803],[14.82,54.589805],[14.85,54.589802],[14.855,54.584803],[14.885,54.5848],[14.89,54.579802],[14.93,54.579796],[14.935,54.574799],[14.985,54.574793],[14.99,54.569796],[15.075001,54.56979]]}},{"type":"Feature","properties":{"depth":5,"source":"DDM 2024 coarse contour","resolution":"0.005 degree sampled grid","scope":"denmark","tileSource":"contours-denmark-coarse.geojson"},"geometry":{"type":"LineString","coordinates":[[14.599999,54.559913],[14.6,54.559913],[14.61,54.549916],[14.625,54.544915],[14.63,54.539917],[14.635,54.539916],[14.64509,54.55],[14.645092,54.555],[14.675165,54.595],[14.675171,54.6],[14.69,54.614811],[14.71,54.614809],[14.715,54.609812],[14.735,54.60981],[14.74,54.604813],[14.76,54.604812],[14.765,54.599814],[14.785,54.599813],[14.79,54.594815],[14.815,54.594813],[14.82,54.589815],[14.85,54.589811],[14.855,54.584813],[14.885,54.58481],[14.89,54.579811],[14.93,54.579806],[14.935,54.574808],[14.985,54.574802],[14.99,54.569805],[15.075001,54.569799]]}},{"type":"Feature","properties":{"depth":10,"source":"DDM 2024 coarse contour","resolution":"0.005 degree sampled grid","scope":"denmark","tileSource":"contours-denmark-coarse.geojson"},"geometry":{"type":"LineString","coordinates":[[14.599999,54.556686],[14.63,54.539941],[14.645066,54.55],[14.675147,54.6],[14.69,54.614835],[14.71,54.614833],[14.715,54.609836],[14.76,54.604836],[14.765,54.599838],[14.785,54.599837],[14.79,54.594839],[14.815,54.594837],[14.82,54.589839],[14.885,54.584834],[14.89,54.579835],[14.93,54.57983],[14.935,54.574832],[14.985,54.574826],[14.99,54.569829],[15.075001,54.569823]]}},{"type":"Feature","properties":{"depth":15,"source":"DDM 2024 coarse contour","resolution":"0.005 degree sampled grid","scope":"denmark","tileSource":"contours-denmark-coarse.geojson"},"geometry":{"type":"LineString","coordinates":[[14.599999,54.556709],[14.63,54.539966],[14.645041,54.55],[14.675123,54.6],[14.69,54.614859],[14.71,54.614857],[14.715,54.60986],[14.76,54.60486],[14.765,54.599862],[14.785,54.599861],[14.79,54.594863],[14.815,54.594861],[14.82,54.589863],[14.885,54.584858],[14.89,54.579859],[14.93,54.579854],[14.935,54.574856],[14.985,54.57485],[14.99,54.569853],[15.075001,54.569847]]}},{"type":"Feature","properties":{"depth":15,"source":"DDM 2024 coarse contour","resolution":"0.005 degree sampled grid","scope":"denmark","tileSource":"contours-denmark-coarse.geojson"},"geometry":{"type":"LineString","coordinates":[[14.657719,54.825001],[14.63,54.799926],[14.615,54.7995],[14.599999,54.806125]]}},{"type":"Feature","properties":{"depth":15,"source":"DDM 2024 coarse contour","resolution":"0.005 degree sampled grid","scope":"denmark","tileSource":"contours-denmark-coarse.geojson"},"geometry":{"type":"LineString","coordinates":[[14.599999,54.82225],[14.62,54.82125],[14.621364,54.825001]]}},{"type":"Feature","properties":{"depth":20,"source":"DDM 2024 coarse contour","resolution":"0.005 degree sampled grid","scope":"denmark","tileSource":"contours-denmark-coarse.geojson"},"geometry":{"type":"LineString","coordinates":[[14.661297,54.825001],[14.625,54.793516],[14.599999,54.793566]]}},{"type":"Feature","properties":{"depth":20,"source":"DDM 2024 coarse contour","resolution":"0.005 degree sampled grid","scope":"denmark","tileSource":"contours-denmark-coarse.geojson"},"geometry":{"type":"LineString","coordinates":[[14.599999,54.556732],[14.63,54.53999],[14.645017,54.55],[14.675099,54.6],[14.69,54.614883],[14.71,54.614881],[14.715,54.609884],[14.76,54.604884],[14.765,54.599886],[14.785,54.599884],[14.79,54.594887],[14.815,54.594884],[14.82,54.589887],[14.885,54.584882],[14.89,54.579883],[14.93,54.579877],[14.935,54.57488],[14.985,54.574874],[14.99,54.569877],[15.075001,54.569871]]}},{"type":"Feature","properties":{"depth":30,"source":"DDM 2024 coarse contour","resolution":"0.005 degree sampled grid","scope":"denmark","tileSource":"contours-denmark-coarse.geojson"},"geometry":{"type":"LineString","coordinates":[[14.674415,54.825001],[14.65,54.810034],[14.625,54.789038],[14.605,54.783],[14.599999,54.779702]]}},{"type":"Feature","properties":{"depth":30,"source":"DDM 2024 coarse contour","resolution":"0.005 degree sampled grid","scope":"denmark","tileSource":"contours-denmark-coarse.geojson"},"geometry":{"type":"LineString","coordinates":[[14.599999,54.591782],[14.66,54.576379],[14.69,54.614931],[14.71,54.614929],[14.715,54.609932],[14.76,54.604931],[14.765,54.599934],[14.785,54.599932],[14.79,54.594935],[14.815,54.594932],[14.82,54.589935],[14.885,54.58493],[14.89,54.579931],[14.93,54.579925],[14.935,54.574928],[14.985,54.574922],[14.99,54.569925],[15.075001,54.569919]]}},{"type":"Feature","properties":{"depth":50,"source":"DDM 2024 coarse contour","resolution":"0.005 degree sampled grid","scope":"denmark","tileSource":"contours-denmark-coarse.geojson"},"geometry":{"type":"LineString","coordinates":[[15.001037,54.825001],[14.998636,54.82],[14.98,54.811786],[14.955,54.809545],[14.905,54.825],[14.90498,54.825001]]}},{"type":"Feature","properties":{"depth":50,"source":"DDM 2024 coarse contour","resolution":"0.005 degree sampled grid","scope":"denmark","tileSource":"contours-denmark-coarse.geojson"},"geometry":{"type":"LineString","coordinates":[[14.872672,54.825001],[14.843333,54.82],[14.8325,54.81],[14.8,54.804286],[14.74375,54.775],[14.735,54.76],[14.6875,54.72],[14.67,54.69],[14.705,54.67],[14.785,54.65625],[14.85,54.639],[14.92,54.63],[15.02,54.628219],[15.055,54.621324],[15.0595,54.62],[15.04,54.61],[15.045,54.6],[15.065,54.59],[15.075001,54.589256]]}}]}