{"type":"FeatureCollection","name":"DDM contour tile r01_c08","bbox":[11.24,54.83,11.715,55.305],"metadata":{"schema":"waternav-ddm-contour-tile-v1","version":"v45.9","tileId":"r01_c08","source":"Danmarks Dybdemodel 2024 ddm_50m.dybde.tiff via bundled DDM contour GeoJSON files"},"features":[{"type":"Feature","properties":{"depth":1,"source":"DDM 2024 coarse contour","resolution":"0.005 degree sampled grid","scope":"denmark","tileSource":"contours-denmark-coarse.geojson"},"geometry":{"type":"LineString","coordinates":[[11.239999,54.961872],[11.27,54.959989],[11.285,54.951552],[11.295,54.949995],[11.32,54.928846],[11.355,54.922647],[11.364999,54.91],[11.366053,54.9],[11.38,54.887368],[11.43,54.874992],[11.435,54.867222],[11.45,54.869993],[11.465,54.865833],[11.471667,54.86],[11.472143,54.85],[11.48,54.850357],[11.479,54.845],[11.49,54.843],[11.495,54.8385],[11.515,54.84],[11.52,54.836818],[11.535,54.836852],[11.555,54.831944],[11.56,54.8355],[11.563502,54.829999]]}},{"type":"Feature","properties":{"depth":1,"source":"DDM 2024 coarse contour","resolution":"0.005 degree sampled grid","scope":"denmark","tileSource":"contours-denmark-coarse.geojson"},"geometry":{"type":"LineString","coordinates":[[11.58749,54.829999],[11.5875,54.83],[11.575,54.830004],[11.57,54.838696],[11.5475,54.85],[11.544,54.86],[11.55,54.858333],[11.575,54.8625],[11.579286,54.865],[11.575,54.87],[11.585,54.863],[11.615,54.852222],[11.6225,54.855],[11.635909,54.865],[11.635556,54.895],[11.627692,54.905],[11.63,54.91],[11.64,54.914998],[11.645,54.9116],[11.65,54.9125],[11.655,54.9075],[11.66,54.911111],[11.675,54.911818],[11.682188,54.895],[11.7,54.881739],[11.715001,54.876418]]}},{"type":"Feature","properties":{"depth":1,"source":"DDM 2024 coarse contour","resolution":"0.005 degree sampled grid","scope":"denmark","tileSource":"contours-denmark-coarse.geojson"},"geometry":{"type":"LineString","coordinates":[[11.715001,54.929259],[11.703437,54.93],[11.689583,54.945],[11.705,54.951154],[11.715001,54.950685]]}},{"type":"Feature","properties":{"depth":1,"source":"DDM 2024 coarse contour","resolution":"0.005 degree sampled grid","scope":"denmark","tileSource":"contours-denmark-coarse.geojson"},"geometry":{"type":"LineString","coordinates":[[11.452273,54.885],[11.45,54.879],[11.445,54.8845],[11.435,54.883889],[11.425,54.875],[11.428947,54.88],[11.425,54.885],[11.452273,54.885]]}},{"type":"Feature","properties":{"depth":1,"source":"DDM 2024 coarse contour","resolution":"0.005 degree sampled grid","scope":"denmark","tileSource":"contours-denmark-coarse.geojson"},"geometry":{"type":"LineString","coordinates":[[11.471875,54.92],[11.485,54.915],[11.507,54.915],[11.506154,54.9],[11.510238,54.895],[11.515,54.89499],[11.531111,54.885],[11.525,54.882308],[11.474375,54.885],[11.4725,54.895],[11.458929,54.905],[11.457778,54.91],[11.46,54.91625],[11.471875,54.92]]}},{"type":"Feature","properties":{"depth":1,"source":"DDM 2024 coarse contour","resolution":"0.005 degree sampled grid","scope":"denmark","tileSource":"contours-denmark-coarse.geojson"},"geometry":{"type":"LineString","coordinates":[[11.360714,54.985],[11.36575,54.975],[11.363077,54.97],[11.385,54.957],[11.405,54.953333],[11.407955,54.96],[11.405002,54.965],[11.41,54.97],[11.43,54.96537],[11.445,54.973333],[11.474999,54.95],[11.465,54.940015],[11.43,54.939783],[11.4,54.917308],[11.394348,54.925],[11.37,54.935026],[11.365045,54.94],[11.360004,54.955],[11.355,54.955043],[11.345048,54.965],[11.348611,54.97],[11.345,54.975],[11.352143,54.975],[11.35,54.986154],[11.360714,54.985]]}},{"type":"Feature","properties":{"depth":1,"source":"DDM 2024 coarse contour","resolution":"0.005 degree sampled grid","scope":"denmark","tileSource":"contours-denmark-coarse.geojson"},"geometry":{"type":"LineString","coordinates":[[11.545714,54.995],[11.5485,54.99],[11.565,54.985732],[11.565938,54.98],[11.571579,54.975],[11.555,54.960005],[11.545,54.955],[11.54,54.945625],[11.524722,54.955],[11.515,54.970003],[11.51,54.970003],[11.495005,54.98],[11.495002,54.985],[11.5,54.989992],[11.507,54.99],[11.515,54.994987],[11.53,54.990294],[11.545714,54.995]]}},{"type":"Feature","properties":{"depth":1,"source":"DDM 2024 coarse contour","resolution":"0.005 degree sampled grid","scope":"denmark","tileSource":"contours-denmark-coarse.geojson"},"geometry":{"type":"LineString","coordinates":[[11.308125,54.98],[11.320309,54.97],[11.315,54.958654],[11.305,54.960005],[11.295,54.968816],[11.281667,54.975],[11.28,54.98],[11.295,54.982],[11.308125,54.98]]}},{"type":"Feature","properties":{"depth":1,"source":"DDM 2024 coarse contour","resolution":"0.005 degree sampled grid","scope":"denmark","tileSource":"contours-denmark-coarse.geojson"},"geometry":{"type":"LineString","coordinates":[[11.715001,55.055029],[11.715,55.055029],[11.71,55.060007],[11.685,55.065009],[11.680007,55.07],[11.685,55.074999],[11.7,55.074974],[11.705,55.070714],[11.715001,55.070356]]}},{"type":"Feature","properties":{"depth":1,"source":"DDM 2024 coarse contour","resolution":"0.005 degree sampled grid","scope":"denmark","tileSource":"contours-denmark-coarse.geojson"},"geometry":{"type":"LineString","coordinates":[[11.715001,55.084368],[11.709286,55.085],[11.71,55.09],[11.715001,55.088]]}},{"type":"Feature","properties":{"depth":1,"source":"DDM 2024 coarse contour","resolution":"0.005 degree sampled grid","scope":"denmark","tileSource":"contours-denmark-coarse.geojson"},"geometry":{"type":"LineString","coordinates":[[11.715001,55.120007],[11.710006,55.125],[11.70925,55.14],[11.705,55.140008],[11.695,55.15],[11.69,55.150008],[11.6782,55.16],[11.66,55.160018],[11.645,55.175007],[11.635,55.175028],[11.63,55.18001],[11.615,55.180009],[11.61,55.185001],[11.6,55.185012],[11.595,55.190001],[11.59,55.185013],[11.575,55.185034],[11.57,55.190007],[11.535,55.190012],[11.53,55.195004],[11.49,55.196111],[11.48,55.190024],[11.47,55.192059],[11.465,55.185016],[11.46,55.188438],[11.455,55.185008],[11.41,55.185009],[11.405,55.1888],[11.395,55.189643],[11.39,55.185008],[11.37,55.184464],[11.36,55.188333],[11.355,55.185004],[11.35,55.19],[11.34,55.192826],[11.335,55.190009],[11.315,55.190006],[11.31,55.19325],[11.305,55.190009],[11.295,55.190009],[11.28,55.200008],[11.255,55.20008],[11.239999,55.214287]]}},{"type":"Feature","properties":{"depth":1,"source":"DDM 2024 coarse contour","resolution":"0.005 degree sampled grid","scope":"denmark","tileSource":"contours-denmark-coarse.geojson"},"geometry":{"type":"LineString","coordinates":[[11.239999,55.254992],[11.240015,55.255],[11.24,55.269091],[11.239999,55.269092]]}},{"type":"Feature","properties":{"depth":1,"source":"DDM 2024 coarse contour","resolution":"0.005 degree sampled grid","scope":"denmark","tileSource":"contours-denmark-coarse.geojson"},"geometry":{"type":"LineString","coordinates":[[11.3756,55.04],[11.379988,55.035],[11.375,55.030027],[11.36,55.029194],[11.345,55.020001],[11.340006,55.025],[11.340004,55.03],[11.355,55.039984],[11.3634,55.04],[11.37,55.044994],[11.3756,55.04]]}},{"type":"Feature","properties":{"depth":1,"source":"DDM 2024 coarse contour","resolution":"0.005 degree sampled grid","scope":"denmark","tileSource":"contours-denmark-coarse.geojson"},"geometry":{"type":"LineString","coordinates":[[11.655,55.08],[11.665,55.079977],[11.67,55.075833],[11.679167,55.075],[11.66,55.070011],[11.65,55.078947],[11.645,55.075007],[11.635,55.075017],[11.63,55.08],[11.635,55.084993],[11.64,55.084997],[11.655,55.08]]}},{"type":"Feature","properties":{"depth":1,"source":"DDM 2024 coarse contour","resolution":"0.005 degree sampled grid","scope":"denmark","tileSource":"contours-denmark-coarse.geojson"},"geometry":{"type":"LineString","coordinates":[[11.705,55.205005],[11.685,55.204531],[11.6625,55.19],[11.662917,55.185],[11.67,55.18125],[11.68,55.194997],[11.685,55.194994],[11.69,55.19],[11.695,55.195],[11.695,55.200909],[11.709231,55.205],[11.705,55.205005]]}},{"type":"Feature","properties":{"depth":1,"source":"DDM 2024 coarse contour","resolution":"0.005 degree sampled grid","scope":"denmark","tileSource":"contours-denmark-coarse.geojson"},"geometry":{"type":"LineString","coordinates":[[11.36,55.19775],[11.356333,55.195],[11.36,55.191765],[11.365,55.195],[11.365,55.185],[11.365,55.195],[11.36,55.19775]]}},{"type":"Feature","properties":{"depth":1,"source":"DDM 2024 coarse contour","resolution":"0.005 degree sampled grid","scope":"denmark","tileSource":"contours-denmark-coarse.geojson"},"geometry":{"type":"LineString","coordinates":[[11.375,55.19501],[11.370833,55.195],[11.375,55.185],[11.38,55.185882],[11.38,55.193333],[11.375,55.19501]]}},{"type":"Feature","properties":{"depth":1,"source":"DDM 2024 coarse contour","resolution":"0.005 degree sampled grid","scope":"denmark","tileSource":"contours-denmark-coarse.geojson"},"geometry":{"type":"LineString","coordinates":[[11.475,55.201538],[11.465,55.2005],[11.465,55.195],[11.476429,55.2],[11.475,55.201538]]}},{"type":"Feature","properties":{"depth":2,"source":"DDM 2024 coarse contour","resolution":"0.005 degree sampled grid","scope":"denmark","tileSource":"contours-denmark-coarse.geojson"},"geometry":{"type":"LineString","coordinates":[[11.239999,54.962064],[11.245,54.960795],[11.265,54.9625],[11.295,54.95],[11.325,54.928571],[11.33,54.93025],[11.36,54.925],[11.368684,54.9],[11.385,54.887759],[11.415,54.881852],[11.42,54.878095],[11.426316,54.88],[11.42,54.890536],[11.425,54.887632],[11.455,54.885192],[11.45,54.8765],[11.44,54.882826],[11.428125,54.875],[11.435,54.87],[11.465,54.867917],[11.485,54.846667],[11.495,54.848571],[11.5,54.8425],[11.505,54.845769],[11.52,54.839091],[11.55,54.837812],[11.555,54.834722],[11.563077,54.84],[11.545,54.8475],[11.54,54.853421],[11.515357,54.86],[11.52,54.867857],[11.535,54.86125],[11.535,54.87],[11.53,54.87],[11.54,54.874286],[11.54875,54.87],[11.55,54.864],[11.565,54.865],[11.555,54.875],[11.545,54.88],[11.535,54.876429],[11.505,54.882647],[11.495,54.8775],[11.49,54.882206],[11.47,54.884516],[11.469333,54.895],[11.455357,54.905],[11.453214,54.91],[11.455,54.92],[11.465,54.925],[11.48,54.917778],[11.505,54.917353],[11.510455,54.915],[11.507917,54.905],[11.512619,54.895],[11.525,54.892692],[11.54,54.881667],[11.546429,54.885],[11.605,54.8588],[11.615,54.862143],[11.624286,54.87],[11.623571,54.875],[11.632273,54.885],[11.632647,54.89],[11.623,54.9],[11.625,54.91375],[11.63,54.916087],[11.645,54.9136],[11.655,54.916],[11.665,54.912708],[11.675,54.915469],[11.685357,54.895],[11.7,54.883913],[11.715001,54.878634]]}},{"type":"Feature","properties":{"depth":2,"source":"DDM 2024 coarse contour","resolution":"0.005 degree sampled grid","scope":"denmark","tileSource":"contours-denmark-coarse.geojson"},"geometry":{"type":"LineString","coordinates":[[11.715001,54.928078],[11.700312,54.93],[11.69,54.935],[11.685417,54.945],[11.688636,54.95],[11.705,54.955],[11.715001,54.953695]]}},{"type":"Feature","properties":{"depth":2,"source":"DDM 2024 coarse contour","resolution":"0.005 degree sampled grid","scope":"denmark","tileSource":"contours-denmark-coarse.geojson"},"geometry":{"type":"LineString","coordinates":[[11.506111,54.87],[11.51375,54.865],[11.51,54.863421],[11.50375,54.87],[11.506111,54.87]]}},{"type":"Feature","properties":{"depth":2,"source":"DDM 2024 coarse contour","resolution":"0.005 degree sampled grid","scope":"denmark","tileSource":"contours-denmark-coarse.geojson"},"geometry":{"type":"LineString","coordinates":[[11.715001,55.055024],[11.715,55.055024],[11.71,55.060002],[11.685,55.065004],[11.68,55.071538],[11.66,55.070006],[11.65,55.076316],[11.635,55.075012],[11.62,55.085],[11.611364,55.085],[11.645,55.084973],[11.65,55.080921],[11.665,55.079982],[11.67,55.076759],[11.685,55.0785],[11.686129,55.075],[11.7,55.074979],[11.715001,55.071245]]}},{"type":"Feature","properties":{"depth":2,"source":"DDM 2024 coarse contour","resolution":"0.005 degree sampled grid","scope":"denmark","tileSource":"contours-denmark-coarse.geojson"},"geometry":{"type":"LineString","coordinates":[[11.715001,55.083231],[11.705,55.084692],[11.699444,55.09],[11.705,55.093889],[11.71,55.091282],[11.715,55.093214],[11.715,55.1004],[11.715001,55.100399]]}},{"type":"Feature","properties":{"depth":2,"source":"DDM 2024 coarse contour","resolution":"0.005 degree sampled grid","scope":"denmark","tileSource":"contours-denmark-coarse.geojson"},"geometry":{"type":"LineString","coordinates":[[11.715001,55.115024],[11.70675,55.14],[11.6762,55.16],[11.66,55.160013],[11.647105,55.17],[11.645,55.175002],[11.635,55.175023],[11.63,55.180005],[11.615,55.180004],[11.595,55.188095],[11.59,55.185008],[11.575,55.185029],[11.57,55.190002],[11.535,55.190007],[11.529474,55.195],[11.496379,55.195],[11.495,55.191],[11.49,55.191],[11.485,55.195004],[11.48,55.190019],[11.471071,55.19],[11.465,55.185011],[11.41,55.185004],[11.395,55.188452],[11.385,55.183276],[11.365,55.182222],[11.34,55.190652],[11.295,55.190004],[11.280714,55.195],[11.28,55.200003],[11.255,55.200075],[11.24,55.214484],[11.239999,55.214484]]}},{"type":"Feature","properties":{"depth":2,"source":"DDM 2024 coarse contour","resolution":"0.005 degree sampled grid","scope":"denmark","tileSource":"contours-denmark-coarse.geojson"},"geometry":{"type":"LineString","coordinates":[[11.239999,55.254996],[11.24001,55.255],[11.24,55.267955],[11.239999,55.267956]]}},{"type":"Feature","properties":{"depth":2,"source":"DDM 2024 coarse contour","resolution":"0.005 degree sampled grid","scope":"denmark","tileSource":"contours-denmark-coarse.geojson"},"geometry":{"type":"LineString","coordinates":[[11.560833,54.92],[11.587143,54.91],[11.58,54.907963],[11.57,54.913125],[11.565,54.912222],[11.55875,54.915],[11.560833,54.92]]}},{"type":"Feature","properties":{"depth":2,"source":"DDM 2024 coarse contour","resolution":"0.005 degree sampled grid","scope":"denmark","tileSource":"contours-denmark-coarse.geojson"},"geometry":{"type":"LineString","coordinates":[[11.35,54.99],[11.364286,54.985],[11.368125,54.97],[11.39,54.956951],[11.405,54.958125],[11.4,54.970769],[11.415,54.971667],[11.43,54.967222],[11.438,54.97],[11.435,54.975],[11.445,54.975875],[11.471585,54.955],[11.475946,54.95],[11.475,54.9465],[11.465,54.94001],[11.43,54.937609],[11.425,54.931154],[11.42,54.930714],[11.4,54.914429],[11.395,54.91413],[11.392174,54.925],[11.37,54.935021],[11.36504,54.94],[11.36,54.954892],[11.355,54.955038],[11.345043,54.965],[11.345833,54.97],[11.335,54.98],[11.34,54.9825],[11.345,54.978571],[11.3475,54.98],[11.345,54.99],[11.35,54.99]]}},{"type":"Feature","properties":{"depth":2,"source":"DDM 2024 coarse contour","resolution":"0.005 degree sampled grid","scope":"denmark","tileSource":"contours-denmark-coarse.geojson"},"geometry":{"type":"LineString","coordinates":[[11.481667,54.935],[11.48,54.927727],[11.4738,54.935],[11.481667,54.935]]}},{"type":"Feature","properties":{"depth":2,"source":"DDM 2024 coarse contour","resolution":"0.005 degree sampled grid","scope":"denmark","tileSource":"contours-denmark-coarse.geojson"},"geometry":{"type":"LineString","coordinates":[[11.551538,54.995],[11.565,54.986951],[11.5675,54.98],[11.574211,54.975],[11.547632,54.955],[11.54,54.936154],[11.53375,54.94],[11.535,54.945],[11.5312,54.95],[11.521944,54.955],[11.515,54.96875],[11.51,54.968462],[11.495,54.980833],[11.4895,54.98],[11.5,54.989997],[11.515,54.994992],[11.551538,54.995]]}},{"type":"Feature","properties":{"depth":2,"source":"DDM 2024 coarse contour","resolution":"0.005 degree sampled grid","scope":"denmark","tileSource":"contours-denmark-coarse.geojson"},"geometry":{"type":"LineString","coordinates":[[11.295714,54.985],[11.31,54.980417],[11.320825,54.97],[11.318864,54.96],[11.315,54.956731],[11.31,54.956935],[11.28,54.973906],[11.276154,54.98],[11.28,54.984167],[11.295714,54.985]]}},{"type":"Feature","properties":{"depth":2,"source":"DDM 2024 coarse contour","resolution":"0.005 degree sampled grid","scope":"denmark","tileSource":"contours-denmark-coarse.geojson"},"geometry":{"type":"LineString","coordinates":[[11.316129,55.005],[11.336875,54.99],[11.335,54.98625],[11.33,54.993],[11.32,54.996905],[11.314737,54.995],[11.315937,55],[11.312308,55.005],[11.315,55.007692],[11.316129,55.005]]}},{"type":"Feature","properties":{"depth":2,"source":"DDM 2024 coarse contour","resolution":"0.005 degree sampled grid","scope":"denmark","tileSource":"contours-denmark-coarse.geojson"},"geometry":{"type":"LineString","coordinates":[[11.3776,55.04],[11.379993,55.035],[11.375,55.030022],[11.366071,55.03],[11.345,55.018542],[11.3415,55.02],[11.34,55.028333],[11.335,55.025],[11.335,55.031538],[11.34,55.030313],[11.355,55.039989],[11.3614,55.04],[11.37,55.044999],[11.3776,55.04]]}},{"type":"Feature","properties":{"depth":2,"source":"DDM 2024 coarse contour","resolution":"0.005 degree sampled grid","scope":"denmark","tileSource":"contours-denmark-coarse.geojson"},"geometry":{"type":"LineString","coordinates":[[11.705,55.205],[11.689333,55.205],[11.679615,55.2],[11.683,55.195],[11.69,55.193125],[11.695,55.203182],[11.705,55.205]]}},{"type":"Feature","properties":{"depth":3,"source":"DDM 2024 coarse contour","resolution":"0.005 degree sampled grid","scope":"denmark","tileSource":"contours-denmark-coarse.geojson"},"geometry":{"type":"LineString","coordinates":[[11.315645,55.01],[11.32,55.003108],[11.34,54.99],[11.345,54.992174],[11.365,54.987105],[11.373,54.975],[11.372187,54.97],[11.39,54.958171],[11.400625,54.96],[11.401429,54.965],[11.397586,54.97],[11.4,54.972692],[11.434167,54.97],[11.431429,54.975],[11.433462,54.98],[11.43,54.9845],[11.424286,54.985],[11.43,54.985263],[11.44925,54.975],[11.477297,54.95],[11.477333,54.945],[11.485,54.938333],[11.488333,54.93],[11.479167,54.92],[11.5,54.920741],[11.515,54.915],[11.51,54.905],[11.52,54.901667],[11.53,54.9025],[11.535,54.906129],[11.530455,54.9],[11.538333,54.89],[11.6,54.863333],[11.616,54.87],[11.627727,54.885],[11.629,54.89],[11.619722,54.9],[11.62175,54.905],[11.613846,54.92],[11.62,54.920909],[11.645,54.915833],[11.675,54.917031],[11.688929,54.895],[11.702273,54.885],[11.715001,54.88092]]}},{"type":"Feature","properties":{"depth":3,"source":"DDM 2024 coarse contour","resolution":"0.005 degree sampled grid","scope":"denmark","tileSource":"contours-denmark-coarse.geojson"},"geometry":{"type":"LineString","coordinates":[[11.715001,54.925694],[11.698846,54.925],[11.687222,54.935],[11.68,54.95],[11.695,54.951038],[11.705,54.957083],[11.715001,54.955824]]}},{"type":"Feature","properties":{"depth":3,"source":"DDM 2024 coarse contour","resolution":"0.005 degree sampled grid","scope":"denmark","tileSource":"contours-denmark-coarse.geojson"},"geometry":{"type":"LineString","coordinates":[[11.239999,54.96346],[11.245,54.961932],[11.265,54.964423],[11.269423,54.96],[11.28,54.959138],[11.3,54.949737],[11.31,54.95],[11.306842,54.945],[11.325,54.931429],[11.34,54.93175],[11.361786,54.925],[11.369286,54.915],[11.370909,54.905],[11.376818,54.895],[11.383846,54.89],[11.405,54.885588],[11.41,54.891],[11.42,54.892321],[11.43,54.888171],[11.455,54.885673],[11.453333,54.875],[11.47,54.865],[11.475,54.866429],[11.485,54.857222],[11.4925,54.86],[11.495,54.855],[11.5,54.855],[11.505,54.849615],[11.51,54.851],[11.515,54.846],[11.52,54.850714],[11.525,54.845],[11.54,54.845],[11.54,54.850789],[11.515,54.857],[11.5,54.867143],[11.49,54.875],[11.49,54.880735],[11.47,54.882903],[11.4625,54.9],[11.45,54.903],[11.443333,54.91],[11.442778,54.915],[11.47,54.9305],[11.476667,54.94],[11.435,54.937679],[11.429545,54.935],[11.425,54.926111],[11.42,54.927647],[11.41,54.918947],[11.395,54.911957],[11.39,54.925],[11.37,54.935016],[11.365035,54.94],[11.36,54.954355],[11.355,54.955033],[11.345038,54.965],[11.345,54.969578],[11.335,54.978214],[11.328182,54.99],[11.314079,54.995],[11.304688,55.01],[11.315645,55.01]]}},{"type":"Feature","properties":{"depth":3,"source":"DDM 2024 coarse contour","resolution":"0.005 degree sampled grid","scope":"denmark","tileSource":"contours-denmark-coarse.geojson"},"geometry":{"type":"LineString","coordinates":[[11.715001,55.055019],[11.715,55.055019],[11.71,55.059554],[11.61,55.082308],[11.607083,55.085],[11.61,55.086944],[11.64,55.086321],[11.65,55.081579],[11.675,55.076984],[11.69,55.080865],[11.692143,55.08],[11.687742,55.075],[11.715,55.071744],[11.715001,55.071745]]}},{"type":"Feature","properties":{"depth":3,"source":"DDM 2024 coarse contour","resolution":"0.005 degree sampled grid","scope":"denmark","tileSource":"contours-denmark-coarse.geojson"},"geometry":{"type":"LineString","coordinates":[[11.715001,55.082234],[11.705,55.083923],[11.694,55.09],[11.694667,55.095],[11.69,55.1],[11.7,55.1],[11.71,55.092564],[11.713958,55.095],[11.712931,55.1],[11.715001,55.101617]]}},{"type":"Feature","properties":{"depth":3,"source":"DDM 2024 coarse contour","resolution":"0.005 degree sampled grid","scope":"denmark","tileSource":"contours-denmark-coarse.geojson"},"geometry":{"type":"LineString","coordinates":[[11.715001,55.11607],[11.71,55.122143],[11.705,55.137],[11.685,55.153421],[11.671667,55.16],[11.66,55.160008],[11.63,55.18],[11.62,55.177727],[11.605,55.18],[11.6025,55.185],[11.575,55.185024],[11.57,55.189286],[11.535,55.190002],[11.526842,55.195],[11.515,55.190588],[11.5,55.195005],[11.495,55.18375],[11.486667,55.185],[11.488919,55.19],[11.485,55.194677],[11.48,55.190014],[11.465,55.185006],[11.435,55.182368],[11.395,55.187262],[11.385,55.181552],[11.36,55.179773],[11.29,55.190167],[11.275,55.1975],[11.255,55.20007],[11.239999,55.212421]]}},{"type":"Feature","properties":{"depth":3,"source":"DDM 2024 coarse contour","resolution":"0.005 degree sampled grid","scope":"denmark","tileSource":"contours-denmark-coarse.geojson"},"geometry":{"type":"LineString","coordinates":[[11.239999,55.254999],[11.240005,55.255],[11.24,55.266818],[11.239999,55.266818]]}},{"type":"Feature","properties":{"depth":3,"source":"DDM 2024 coarse contour","resolution":"0.005 degree sampled grid","scope":"denmark","tileSource":"contours-denmark-coarse.geojson"},"geometry":{"type":"LineString","coordinates":[[11.42,54.886176],[11.415,54.8885],[11.407,54.885],[11.42,54.881667],[11.42,54.886176]]}},{"type":"Feature","properties":{"depth":3,"source":"DDM 2024 coarse contour","resolution":"0.005 degree sampled grid","scope":"denmark","tileSource":"contours-denmark-coarse.geojson"},"geometry":{"type":"LineString","coordinates":[[11.565,54.92],[11.58,54.912143],[11.591875,54.91],[11.59,54.907273],[11.58,54.906111],[11.555625,54.915],[11.555714,54.92],[11.56,54.923158],[11.565,54.92]]}},{"type":"Feature","properties":{"depth":3,"source":"DDM 2024 coarse contour","resolution":"0.005 degree sampled grid","scope":"denmark","tileSource":"contours-denmark-coarse.geojson"},"geometry":{"type":"LineString","coordinates":[[11.555128,54.995],[11.565,54.988171],[11.57,54.979063],[11.58,54.980227],[11.585,54.976667],[11.6,54.976429],[11.608571,54.97],[11.595,54.966429],[11.585,54.974722],[11.58,54.969839],[11.575,54.973409],[11.57,54.965],[11.565,54.965484],[11.550152,54.955],[11.546429,54.95],[11.550217,54.945],[11.544545,54.94],[11.549,54.935],[11.54,54.933333],[11.530625,54.94],[11.531667,54.945],[11.528182,54.95],[11.515,54.955],[11.52,54.956875],[11.52,54.960962],[11.515,54.964444],[11.51,54.9625],[11.505,54.972143],[11.495,54.978393],[11.484737,54.98],[11.505,54.994375],[11.535,54.995333],[11.545,54.998387],[11.555128,54.995]]}},{"type":"Feature","properties":{"depth":3,"source":"DDM 2024 coarse contour","resolution":"0.005 degree sampled grid","scope":"denmark","tileSource":"contours-denmark-coarse.geojson"},"geometry":{"type":"LineString","coordinates":[[11.273333,54.99],[11.295,54.986897],[11.31,54.981012],[11.325,54.965],[11.325,54.96],[11.32,54.95375],[11.31,54.95],[11.313333,54.955],[11.276731,54.975],[11.269333,54.985],[11.268824,54.99],[11.273333,54.99]]}},{"type":"Feature","properties":{"depth":3,"source":"DDM 2024 coarse contour","resolution":"0.005 degree sampled grid","scope":"denmark","tileSource":"contours-denmark-coarse.geojson"},"geometry":{"type":"LineString","coordinates":[[11.667045,54.97],[11.668125,54.965],[11.665,54.963649],[11.65375,54.965],[11.65,54.97],[11.665,54.974091],[11.667045,54.97]]}},{"type":"Feature","properties":{"depth":3,"source":"DDM 2024 coarse contour","resolution":"0.005 degree sampled grid","scope":"denmark","tileSource":"contours-denmark-coarse.geojson"},"geometry":{"type":"LineString","coordinates":[[11.406818,55],[11.416429,54.99],[11.397195,54.995],[11.4,55],[11.406818,55]]}},{"type":"Feature","properties":{"depth":3,"source":"DDM 2024 coarse contour","resolution":"0.005 degree sampled grid","scope":"denmark","tileSource":"contours-denmark-coarse.geojson"},"geometry":{"type":"LineString","coordinates":[[11.375357,55.045],[11.379998,55.035],[11.375,55.030017],[11.367857,55.03],[11.345,55.016458],[11.331667,55.025],[11.334167,55.035],[11.34,55.033438],[11.367667,55.045],[11.375357,55.045]]}},{"type":"Feature","properties":{"depth":3,"source":"DDM 2024 coarse contour","resolution":"0.005 degree sampled grid","scope":"denmark","tileSource":"contours-denmark-coarse.geojson"},"geometry":{"type":"LineString","coordinates":[[11.3155,55.03],[11.322,55.025],[11.314286,55.025],[11.3155,55.03]]}},{"type":"Feature","properties":{"depth":5,"source":"DDM 2024 coarse contour","resolution":"0.005 degree sampled grid","scope":"denmark","tileSource":"contours-denmark-coarse.geojson"},"geometry":{"type":"LineString","coordinates":[[11.239999,54.967321],[11.24,54.967321],[11.24375,54.97],[11.247381,54.985],[11.24,54.989167],[11.24,54.993333],[11.258158,54.985],[11.258571,54.98],[11.265,54.977778],[11.268333,54.98],[11.2625,54.985],[11.2675,54.995],[11.26,54.998125],[11.2555,55.005],[11.26,55.005882],[11.27,54.9956],[11.295,54.990169],[11.312681,54.98],[11.34,54.95],[11.350862,54.935],[11.349583,54.93],[11.355,54.929848],[11.372083,54.92],[11.39,54.895],[11.405,54.893125],[11.41,54.895],[11.409231,54.9],[11.413333,54.9],[11.415,54.895],[11.43125,54.895],[11.455,54.886635],[11.456098,54.88],[11.465,54.875294],[11.469706,54.88],[11.455,54.896471],[11.442778,54.9],[11.44,54.904167],[11.431842,54.905],[11.43,54.908889],[11.425,54.9055],[11.415,54.909062],[11.395,54.909154],[11.386667,54.925],[11.365025,54.94],[11.36,54.95328],[11.335,54.974875],[11.325,54.988556],[11.307258,55],[11.294224,55.015],[11.29375,55.02],[11.295,55.021667],[11.3,55.016562],[11.318871,55.01],[11.33,54.998953],[11.335,54.998333],[11.34,55.002903],[11.347333,54.995],[11.36,54.989286],[11.365,54.991184],[11.37,54.983846],[11.382353,54.98],[11.385,54.970833],[11.39,54.975],[11.38625,54.97],[11.39,54.967857],[11.39,54.975],[11.395,54.980714],[11.41,54.974167],[11.414,54.975],[11.414333,54.98],[11.41275,54.985],[11.405,54.990556],[11.395,54.99],[11.39,54.996667],[11.385,54.995192],[11.38037,55],[11.381176,55.005],[11.395,55.012368],[11.4,55.005769],[11.405,55.007],[11.42,55.028462],[11.431316,55.025],[11.421429,55.02],[11.425208,55.01],[11.42,55.007222],[11.415,55.012222],[11.408,55.005],[11.415,54.998043],[11.435,54.990185],[11.44,54.98225],[11.455,54.975244],[11.48,54.95],[11.485,54.950833],[11.491429,54.965],[11.499545,54.97],[11.494545,54.975],[11.48,54.978333],[11.485,54.996111],[11.5,54.993871],[11.51,55.000962],[11.515,54.997121],[11.545,55.000769],[11.565,54.990397],[11.57,54.984667],[11.589167,54.985],[11.595,54.980385],[11.601563,54.98],[11.605,54.97463],[11.615,54.971338],[11.615,54.9681],[11.595,54.963163],[11.585,54.971944],[11.58,54.966613],[11.575,54.968214],[11.57,54.96],[11.56,54.960865],[11.553182,54.955],[11.549286,54.95],[11.554565,54.945],[11.548214,54.94],[11.558214,54.935],[11.552619,54.93],[11.555,54.9275],[11.565,54.929231],[11.57,54.922273],[11.58,54.925333],[11.58,54.92],[11.585,54.915357],[11.595,54.91725],[11.600426,54.915],[11.596786,54.91],[11.6,54.906897],[11.615,54.91],[11.615,54.903],[11.615,54.91],[11.600952,54.925],[11.605,54.928148],[11.61,54.923571],[11.6175,54.925],[11.615,54.935143],[11.621429,54.925],[11.63,54.924286],[11.635,54.919625],[11.65,54.920556],[11.655,54.924286],[11.67,54.918857],[11.675,54.920185],[11.705,54.895714],[11.71,54.898125],[11.715001,54.89486]]}},{"type":"Feature","properties":{"depth":5,"source":"DDM 2024 coarse contour","resolution":"0.005 degree sampled grid","scope":"denmark","tileSource":"contours-denmark-coarse.geojson"},"geometry":{"type":"LineString","coordinates":[[11.715001,54.921667],[11.715,54.921667],[11.705,54.9188],[11.680714,54.935],[11.68,54.940625],[11.675,54.936538],[11.665625,54.94],[11.668718,54.945],[11.666667,54.95],[11.695,54.952925],[11.7,54.966489],[11.705,54.967121],[11.706875,54.96],[11.7125,54.96],[11.715001,54.965002]]}},{"type":"Feature","properties":{"depth":5,"source":"DDM 2024 coarse contour","resolution":"0.005 degree sampled grid","scope":"denmark","tileSource":"contours-denmark-coarse.geojson"},"geometry":{"type":"LineString","coordinates":[[11.715001,54.970923],[11.703966,54.975],[11.705,54.97875],[11.71,54.979286],[11.715001,54.984259]]}},{"type":"Feature","properties":{"depth":5,"source":"DDM 2024 coarse contour","resolution":"0.005 degree sampled grid","scope":"denmark","tileSource":"contours-denmark-coarse.geojson"},"geometry":{"type":"LineString","coordinates":[[11.715001,55.045584],[11.7,55.05],[11.69,55.062759],[11.675,55.063485],[11.645,55.073397],[11.604783,55.08],[11.599211,55.085],[11.603333,55.09],[11.61,55.090918],[11.62,55.087273],[11.64,55.088208],[11.65,55.082895],[11.68,55.079149],[11.68,55.082105],[11.67,55.081136],[11.666136,55.085],[11.67,55.087656],[11.68,55.086618],[11.6885,55.095],[11.681,55.1],[11.685,55.105],[11.68,55.11],[11.685,55.105],[11.705,55.099667],[11.7115,55.105],[11.701667,55.12],[11.705,55.125],[11.702273,55.13],[11.6775,55.145],[11.678333,55.15],[11.671667,55.155],[11.645,55.161923],[11.636905,55.17],[11.636735,55.175],[11.63,55.177841],[11.615,55.171818],[11.585714,55.18],[11.5825,55.185],[11.545,55.1845],[11.525,55.18775],[11.52,55.184519],[11.5,55.192],[11.502097,55.18],[11.495,55.176667],[11.48,55.179],[11.485,55.191452],[11.478393,55.19],[11.465,55.179651],[11.45,55.182174],[11.44,55.173889],[11.425,55.18],[11.405,55.182375],[11.401724,55.18],[11.411154,55.175],[11.4,55.1705],[11.395,55.176071],[11.385,55.172857],[11.33,55.181111],[11.32,55.18],[11.3,55.185926],[11.28,55.184766],[11.26907,55.195],[11.255,55.200061],[11.24,55.213516],[11.239999,55.213516]]}},{"type":"Feature","properties":{"depth":5,"source":"DDM 2024 coarse contour","resolution":"0.005 degree sampled grid","scope":"denmark","tileSource":"contours-denmark-coarse.geojson"},"geometry":{"type":"LineString","coordinates":[[11.239999,55.262775],[11.24,55.262778],[11.239999,55.262779]]}},{"type":"Feature","properties":{"depth":5,"source":"DDM 2024 coarse contour","resolution":"0.005 degree sampled grid","scope":"denmark","tileSource":"contours-denmark-coarse.geojson"},"geometry":{"type":"LineString","coordinates":[[11.585,54.905286],[11.58,54.9015],[11.565,54.905],[11.557368,54.89],[11.571667,54.885],[11.571875,54.895],[11.575,54.896563],[11.585,54.89],[11.582083,54.885],[11.585,54.88],[11.59,54.883462],[11.6025,54.88],[11.6,54.888889],[11.595,54.887778],[11.5925,54.895],[11.595,54.89875],[11.6,54.89125],[11.60875,54.895],[11.6,54.901563],[11.59,54.900312],[11.585,54.905286]]}},{"type":"Feature","properties":{"depth":5,"source":"DDM 2024 coarse contour","resolution":"0.005 degree sampled grid","scope":"denmark","tileSource":"contours-denmark-coarse.geojson"},"geometry":{"type":"LineString","coordinates":[[11.62,54.891786],[11.615,54.894167],[11.612222,54.89],[11.62,54.8845],[11.62,54.891786]]}},{"type":"Feature","properties":{"depth":5,"source":"DDM 2024 coarse contour","resolution":"0.005 degree sampled grid","scope":"denmark","tileSource":"contours-denmark-coarse.geojson"},"geometry":{"type":"LineString","coordinates":[[11.525,54.9355],[11.505,54.933333],[11.503333,54.93],[11.509615,54.92],[11.52,54.927083],[11.525,54.912857],[11.53,54.915],[11.529,54.91],[11.539,54.91],[11.544,54.915],[11.541667,54.92],[11.526842,54.93],[11.525,54.9355]]}},{"type":"Feature","properties":{"depth":5,"source":"DDM 2024 coarse contour","resolution":"0.005 degree sampled grid","scope":"denmark","tileSource":"contours-denmark-coarse.geojson"},"geometry":{"type":"LineString","coordinates":[[11.5,54.95175],[11.491111,54.95],[11.5,54.945],[11.505,54.937],[11.51,54.945],[11.505,54.948],[11.5,54.945],[11.503889,54.95],[11.5,54.95175]]}},{"type":"Feature","properties":{"depth":5,"source":"DDM 2024 coarse contour","resolution":"0.005 degree sampled grid","scope":"denmark","tileSource":"contours-denmark-coarse.geojson"},"geometry":{"type":"LineString","coordinates":[[11.663333,54.98],[11.674333,54.975],[11.68,54.9675],[11.69,54.9664],[11.691818,54.96],[11.685,54.95825],[11.67,54.962879],[11.655,54.961719],[11.645,54.96375],[11.639959,54.97],[11.645,54.976875],[11.663333,54.98]]}},{"type":"Feature","properties":{"depth":5,"source":"DDM 2024 coarse contour","resolution":"0.005 degree sampled grid","scope":"denmark","tileSource":"contours-denmark-coarse.geojson"},"geometry":{"type":"LineString","coordinates":[[11.688333,54.985],[11.671667,54.985],[11.685,54.98875],[11.688333,54.985]]}},{"type":"Feature","properties":{"depth":5,"source":"DDM 2024 coarse contour","resolution":"0.005 degree sampled grid","scope":"denmark","tileSource":"contours-denmark-coarse.geojson"},"geometry":{"type":"LineString","coordinates":[[11.386136,55.045],[11.389375,55.04],[11.386296,55.035],[11.3628,55.025],[11.365,55.015],[11.37,55.018889],[11.38,55.017333],[11.381296,55.015],[11.375,55.010263],[11.36,55.008125],[11.355,55.0175],[11.345,55.01175],[11.34,55.016625],[11.315,55.019565],[11.308108,55.025],[11.308333,55.03],[11.317609,55.04],[11.315833,55.045],[11.325714,55.045],[11.331111,55.04],[11.34,55.038571],[11.36,55.043194],[11.365,55.048158],[11.386136,55.045]]}},{"type":"Feature","properties":{"depth":5,"source":"DDM 2024 coarse contour","resolution":"0.005 degree sampled grid","scope":"denmark","tileSource":"contours-denmark-coarse.geojson"},"geometry":{"type":"LineString","coordinates":[[11.715,55.055009],[11.71,55.057768],[11.7005,55.055],[11.71,55.05131],[11.715001,55.053331]]}},{"type":"Feature","properties":{"depth":5,"source":"DDM 2024 coarse contour","resolution":"0.005 degree sampled grid","scope":"denmark","tileSource":"contours-denmark-coarse.geojson"},"geometry":{"type":"LineString","coordinates":[[11.715001,55.055009],[11.715,55.055009]]}},{"type":"Feature","properties":{"depth":5,"source":"DDM 2024 coarse contour","resolution":"0.005 degree sampled grid","scope":"denmark","tileSource":"contours-denmark-coarse.geojson"},"geometry":{"type":"LineString","coordinates":[[11.715,55.081],[11.7,55.083437],[11.694286,55.075],[11.715,55.07407],[11.715001,55.074072]]}},{"type":"Feature","properties":{"depth":5,"source":"DDM 2024 coarse contour","resolution":"0.005 degree sampled grid","scope":"denmark","tileSource":"contours-denmark-coarse.geojson"},"geometry":{"type":"LineString","coordinates":[[11.715001,55.081],[11.715,55.081]]}},{"type":"Feature","properties":{"depth":5,"source":"DDM 2024 coarse contour","resolution":"0.005 degree sampled grid","scope":"denmark","tileSource":"contours-denmark-coarse.geojson"},"geometry":{"type":"LineString","coordinates":[[11.491458,55.095],[11.475,55.084933],[11.469512,55.085],[11.466667,55.09],[11.48,55.095172],[11.491458,55.095]]}},{"type":"Feature","properties":{"depth":5,"source":"DDM 2024 coarse contour","resolution":"0.005 degree sampled grid","scope":"denmark","tileSource":"contours-denmark-coarse.geojson"},"geometry":{"type":"LineString","coordinates":[[11.511429,55.105],[11.515,55.103214],[11.515,55.098548],[11.500556,55.1],[11.497857,55.105],[11.511429,55.105]]}},{"type":"Feature","properties":{"depth":5,"source":"DDM 2024 coarse contour","resolution":"0.005 degree sampled grid","scope":"denmark","tileSource":"contours-denmark-coarse.geojson"},"geometry":{"type":"LineString","coordinates":[[11.239999,55.184086],[11.251154,55.175],[11.25,55.167917],[11.239999,55.170046]]}},{"type":"Feature","properties":{"depth":10,"source":"DDM 2024 coarse contour","resolution":"0.005 degree sampled grid","scope":"denmark","tileSource":"contours-denmark-coarse.geojson"},"geometry":{"type":"LineString","coordinates":[[11.239999,55.087886],[11.25,55.086607],[11.258,55.08],[11.2601,55.065],[11.242647,55.035],[11.239999,55.035]]}},{"type":"Feature","properties":{"depth":10,"source":"DDM 2024 coarse contour","resolution":"0.005 degree sampled grid","scope":"denmark","tileSource":"contours-denmark-coarse.geojson"},"geometry":{"type":"LineString","coordinates":[[11.239999,55.022141],[11.24,55.022143],[11.245,55.021224],[11.28,54.999583],[11.29,55.002308],[11.292812,54.995],[11.35,54.952143],[11.353636,54.955],[11.345,54.965361],[11.302143,55],[11.285,55.020917],[11.26381,55.035],[11.28,55.051667],[11.29,55.047105],[11.295417,55.05],[11.3,55.072625],[11.31,55.075909],[11.3125,55.07],[11.33,55.06275],[11.345,55.069167],[11.39,55.047797],[11.3975,55.04],[11.395,55.035],[11.405,55.02913],[11.425,55.036],[11.435,55.034694],[11.435,55.040132],[11.45,55.036389],[11.445,55.025652],[11.435,55.02],[11.440962,55.015],[11.43,55],[11.45,54.9845],[11.47,54.992105],[11.475,54.99],[11.477895,54.995],[11.463,55.01],[11.465,55.019091],[11.48,55.016375],[11.495,55.005185],[11.545,55.004615],[11.57,54.992059],[11.59,54.989537],[11.61,54.979375],[11.615,54.982021],[11.613889,54.975],[11.635,54.955],[11.64,54.9545],[11.642059,54.96],[11.634412,54.98],[11.641538,54.99],[11.630952,54.995],[11.64,54.997568],[11.655,54.993269],[11.660714,55.005],[11.650625,55.01],[11.656071,55.015],[11.68,55.012195],[11.695,55.004074],[11.708478,55.01],[11.696429,55.015],[11.7,55.016613],[11.715001,55.019528]]}},{"type":"Feature","properties":{"depth":10,"source":"DDM 2024 coarse contour","resolution":"0.005 degree sampled grid","scope":"denmark","tileSource":"contours-denmark-coarse.geojson"},"geometry":{"type":"LineString","coordinates":[[11.715001,55.035],[11.715,55.035],[11.71,55.04],[11.715,55.035],[11.715001,55.035]]}},{"type":"Feature","properties":{"depth":10,"source":"DDM 2024 coarse contour","resolution":"0.005 degree sampled grid","scope":"denmark","tileSource":"contours-denmark-coarse.geojson"},"geometry":{"type":"LineString","coordinates":[[11.715001,55.039636],[11.69,55.038182],[11.665,55.045395],[11.645,55.043788],[11.63,55.056518],[11.614167,55.06],[11.645385,55.07],[11.61,55.07119],[11.56125,55.09],[11.57,55.093182],[11.575,55.087059],[11.600625,55.095],[11.605,55.10125],[11.635,55.104706],[11.65,55.09875],[11.66,55.1155],[11.69,55.115],[11.680385,55.12],[11.67,55.137333],[11.655,55.143095],[11.64,55.138571],[11.63,55.156667],[11.625,55.158571],[11.62,55.152407],[11.615,55.158667],[11.58,55.166705],[11.5785,55.16],[11.57,55.159545],[11.555,55.170816],[11.525,55.16875],[11.52,55.17875],[11.495,55.167941],[11.465,55.1725],[11.44,55.163],[11.425,55.167162],[11.42,55.159483],[11.4,55.154355],[11.394583,55.155],[11.395,55.165],[11.385,55.165682],[11.37,55.155789],[11.335,55.163784],[11.305,55.154219],[11.289757,55.17],[11.32,55.168529],[11.320625,55.175],[11.28,55.183598],[11.24,55.211903],[11.239999,55.211903]]}},{"type":"Feature","properties":{"depth":10,"source":"DDM 2024 coarse contour","resolution":"0.005 degree sampled grid","scope":"denmark","tileSource":"contours-denmark-coarse.geojson"},"geometry":{"type":"LineString","coordinates":[[11.38,54.926017],[11.373636,54.925],[11.384,54.92],[11.38,54.926017]]}},{"type":"Feature","properties":{"depth":10,"source":"DDM 2024 coarse contour","resolution":"0.005 degree sampled grid","scope":"denmark","tileSource":"contours-denmark-coarse.geojson"},"geometry":{"type":"LineString","coordinates":[[11.36,54.950591],[11.355,54.95375],[11.352,54.95],[11.36,54.937857],[11.365,54.94],[11.361667,54.935],[11.365,54.93119],[11.36,54.950591]]}},{"type":"Feature","properties":{"depth":10,"source":"DDM 2024 coarse contour","resolution":"0.005 degree sampled grid","scope":"denmark","tileSource":"contours-denmark-coarse.geojson"},"geometry":{"type":"LineString","coordinates":[[11.715001,55.006572],[11.7075,55.005],[11.715001,55.005177]]}},{"type":"Feature","properties":{"depth":10,"source":"DDM 2024 coarse contour","resolution":"0.005 degree sampled grid","scope":"denmark","tileSource":"contours-denmark-coarse.geojson"},"geometry":{"type":"LineString","coordinates":[[11.61337,55.05],[11.63,55.033182],[11.645,55.036622],[11.658158,55.03],[11.658947,55.025],[11.65,55.018492],[11.625,55.017917],[11.61,55.011429],[11.601833,55.015],[11.6075,55.035],[11.595,55.03],[11.575,55.034231],[11.5695,55.03],[11.574333,55.035],[11.57,55.043333],[11.575,55.036176],[11.583333,55.045],[11.575,55.05],[11.585,55.045789],[11.595,55.051207],[11.61337,55.05]]}},{"type":"Feature","properties":{"depth":10,"source":"DDM 2024 coarse contour","resolution":"0.005 degree sampled grid","scope":"denmark","tileSource":"contours-denmark-coarse.geojson"},"geometry":{"type":"LineString","coordinates":[[11.545789,55.04],[11.535,55.030357],[11.530357,55.035],[11.535,55.040833],[11.545789,55.04]]}},{"type":"Feature","properties":{"depth":10,"source":"DDM 2024 coarse contour","resolution":"0.005 degree sampled grid","scope":"denmark","tileSource":"contours-denmark-coarse.geojson"},"geometry":{"type":"LineString","coordinates":[[11.534167,55.06],[11.542,55.055],[11.54,55.046818],[11.524118,55.055],[11.53,55.062465],[11.534167,55.06]]}},{"type":"Feature","properties":{"depth":10,"source":"DDM 2024 coarse contour","resolution":"0.005 degree sampled grid","scope":"denmark","tileSource":"contours-denmark-coarse.geojson"},"geometry":{"type":"LineString","coordinates":[[11.66,55.065854],[11.651591,55.065],[11.66,55.056944],[11.66,55.065854]]}},{"type":"Feature","properties":{"depth":10,"source":"DDM 2024 coarse contour","resolution":"0.005 degree sampled grid","scope":"denmark","tileSource":"contours-denmark-coarse.geojson"},"geometry":{"type":"LineString","coordinates":[[11.410667,55.08],[11.38875,55.08],[11.405,55.083542],[11.410667,55.08]]}},{"type":"Feature","properties":{"depth":10,"source":"DDM 2024 coarse contour","resolution":"0.005 degree sampled grid","scope":"denmark","tileSource":"contours-denmark-coarse.geojson"},"geometry":{"type":"LineString","coordinates":[[11.477381,55.11],[11.51,55.109127],[11.540833,55.1],[11.527273,55.095],[11.53234,55.09],[11.525,55.087013],[11.5,55.08871],[11.475,55.0816],[11.45,55.083519],[11.445,55.079818],[11.433265,55.085],[11.432222,55.09],[11.455,55.092111],[11.463571,55.1],[11.4506,55.105],[11.45,55.11],[11.46,55.113269],[11.477381,55.11]]}},{"type":"Feature","properties":{"depth":10,"source":"DDM 2024 coarse contour","resolution":"0.005 degree sampled grid","scope":"denmark","tileSource":"contours-denmark-coarse.geojson"},"geometry":{"type":"LineString","coordinates":[[11.48,55.100556],[11.465909,55.1],[11.484286,55.1],[11.48,55.100556]]}},{"type":"Feature","properties":{"depth":10,"source":"DDM 2024 coarse contour","resolution":"0.005 degree sampled grid","scope":"denmark","tileSource":"contours-denmark-coarse.geojson"},"geometry":{"type":"LineString","coordinates":[[11.391392,55.12],[11.38569,55.115],[11.385,55.104468],[11.35,55.104178],[11.344211,55.11],[11.391392,55.12]]}},{"type":"Feature","properties":{"depth":10,"source":"DDM 2024 coarse contour","resolution":"0.005 degree sampled grid","scope":"denmark","tileSource":"contours-denmark-coarse.geojson"},"geometry":{"type":"LineString","coordinates":[[11.471667,55.12],[11.46,55.1168],[11.433333,55.12],[11.45,55.123333],[11.471667,55.12]]}},{"type":"Feature","properties":{"depth":10,"source":"DDM 2024 coarse contour","resolution":"0.005 degree sampled grid","scope":"denmark","tileSource":"contours-denmark-coarse.geojson"},"geometry":{"type":"LineString","coordinates":[[11.586842,55.155],[11.59,55.14975],[11.580625,55.155],[11.586842,55.155]]}},{"type":"Feature","properties":{"depth":10,"source":"DDM 2024 coarse contour","resolution":"0.005 degree sampled grid","scope":"denmark","tileSource":"contours-denmark-coarse.geojson"},"geometry":{"type":"LineString","coordinates":[[11.239999,55.193755],[11.25,55.181866],[11.27,55.174375],[11.27,55.168793],[11.265,55.17425],[11.26,55.1575],[11.239999,55.155041]]}},{"type":"Feature","properties":{"depth":10,"source":"DDM 2024 coarse contour","resolution":"0.005 degree sampled grid","scope":"denmark","tileSource":"contours-denmark-coarse.geojson"},"geometry":{"type":"LineString","coordinates":[[11.477692,55.16],[11.47,55.155],[11.457,55.16],[11.477692,55.16]]}},{"type":"Feature","properties":{"depth":15,"source":"DDM 2024 coarse contour","resolution":"0.005 degree sampled grid","scope":"denmark","tileSource":"contours-denmark-coarse.geojson"},"geometry":{"type":"LineString","coordinates":[[11.239999,55.142898],[11.279444,55.14],[11.281667,55.13],[11.318,55.1],[11.32,55.095],[11.315,55.09],[11.333,55.085],[11.331429,55.08],[11.35,55.07],[11.37,55.071094],[11.395,55.061667],[11.425,55.059091],[11.42625,55.065],[11.455,55.075],[11.39,55.076742],[11.36875,55.085],[11.361667,55.09],[11.365,55.095],[11.336531,55.11],[11.353214,55.115],[11.329444,55.12],[11.29,55.155455],[11.285,55.166712],[11.29,55.172835],[11.302105,55.175],[11.275175,55.185],[11.239999,55.20803]]}},{"type":"Feature","properties":{"depth":15,"source":"DDM 2024 coarse contour","resolution":"0.005 degree sampled grid","scope":"denmark","tileSource":"contours-denmark-coarse.geojson"},"geometry":{"type":"LineString","coordinates":[[11.29,55.101],[11.255,55.04934],[11.248387,55.035],[11.25,55.028256],[11.262308,55.03],[11.259714,55.035],[11.265204,55.045],[11.289231,55.065],[11.3,55.09],[11.29,55.101]]}},{"type":"Feature","properties":{"depth":15,"source":"DDM 2024 coarse contour","resolution":"0.005 degree sampled grid","scope":"denmark","tileSource":"contours-denmark-coarse.geojson"},"geometry":{"type":"LineString","coordinates":[[11.239999,55.193546],[11.272402,55.175],[11.275,55.151154],[11.239999,55.152224]]}},{"type":"Feature","properties":{"depth":20,"source":"DDM 2024 coarse contour","resolution":"0.005 degree sampled grid","scope":"denmark","tileSource":"contours-denmark-coarse.geojson"},"geometry":{"type":"LineString","coordinates":[[11.239999,55.19634],[11.274853,55.175],[11.278448,55.155],[11.273333,55.145],[11.292292,55.13],[11.303056,55.13],[11.295,55.137857],[11.283288,55.165],[11.289216,55.175],[11.239999,55.208144]]}},{"type":"Feature","properties":{"depth":20,"source":"DDM 2024 coarse contour","resolution":"0.005 degree sampled grid","scope":"denmark","tileSource":"contours-denmark-coarse.geojson"},"geometry":{"type":"LineString","coordinates":[[11.239999,55.145983],[11.253491,55.145],[11.24,55.145641],[11.239999,55.145642]]}},{"type":"Feature","properties":{"depth":30,"source":"DDM 2024 coarse contour","resolution":"0.005 degree sampled grid","scope":"denmark","tileSource":"contours-denmark-coarse.geojson"},"geometry":{"type":"LineString","coordinates":[[11.245,55.200424],[11.24,55.204603],[11.239999,55.2046]]}},{"type":"Feature","properties":{"depth":30,"source":"DDM 2024 coarse contour","resolution":"0.005 degree sampled grid","scope":"denmark","tileSource":"contours-denmark-coarse.geojson"},"geometry":{"type":"LineString","coordinates":[[11.239999,55.199357],[11.252424,55.195],[11.245,55.195],[11.245,55.200424]]}}]}