{"type":"FeatureCollection","name":"DDM contour tile r01_c13","bbox":[13.64,54.83,14.115,55.305],"metadata":{"schema":"waternav-ddm-contour-tile-v1","version":"v46.0","tileId":"r01_c13","source":"Danmarks Dybdemodel 2024 ddm_50m.dybde.tiff via bundled DDM contour GeoJSON files"},"features":[{"type":"Feature","properties":{"depth":1,"source":"DDM 2024 coarse contour","resolution":"0.005 degree sampled grid","scope":"denmark","tileSource":"contours-denmark-coarse.geojson"},"geometry":{"type":"LineString","coordinates":[[14.115001,55.055224],[14.115,55.055224],[14.1,55.040223],[14.095,55.040224],[14.08,55.025223],[14.075,55.025223],[14.06,55.010223],[14.055,55.010224],[14.04,54.995222],[14.035,54.995222],[13.994781,54.96],[14,54.954782],[14.005,54.954782],[14.025,54.934787],[14.03,54.934788],[14.06,54.904798],[14.065,54.904798],[14.085,54.884807],[14.09,54.884806],[14.115001,54.859819]]}},{"type":"Feature","properties":{"depth":2,"source":"DDM 2024 coarse contour","resolution":"0.005 degree sampled grid","scope":"denmark","tileSource":"contours-denmark-coarse.geojson"},"geometry":{"type":"LineString","coordinates":[[14.115001,55.055219],[14.115,55.055219],[14.1,55.040218],[14.095,55.040219],[14.08,55.025218],[14.075,55.025218],[14.06,55.010218],[14.055,55.010219],[14.04,54.995217],[14.035,54.995217],[13.994786,54.96],[14,54.954787],[14.005,54.954787],[14.025,54.934792],[14.03,54.934793],[14.06,54.904803],[14.065,54.904803],[14.085,54.884812],[14.09,54.884811],[14.115001,54.859824]]}},{"type":"Feature","properties":{"depth":3,"source":"DDM 2024 coarse contour","resolution":"0.005 degree sampled grid","scope":"denmark","tileSource":"contours-denmark-coarse.geojson"},"geometry":{"type":"LineString","coordinates":[[14.115001,55.055214],[14.115,55.055214],[14.1,55.040214],[14.095,55.040214],[14.08,55.025214],[14.075,55.025213],[14.06,55.010213],[14.055,55.010214],[14.04,54.995213],[14.035,54.995213],[13.994791,54.96],[14,54.954792],[14.005,54.954792],[14.025,54.934797],[14.03,54.934798],[14.06,54.904808],[14.065,54.904808],[14.085,54.884816],[14.09,54.884816],[14.115001,54.859829]]}},{"type":"Feature","properties":{"depth":5,"source":"DDM 2024 coarse contour","resolution":"0.005 degree sampled grid","scope":"denmark","tileSource":"contours-denmark-coarse.geojson"},"geometry":{"type":"LineString","coordinates":[[14.115001,55.055204],[14.115,55.055204],[14.1,55.040204],[14.095,55.040204],[14.08,55.025204],[14.075,55.025204],[14.06,55.010204],[14.055,55.010204],[14.04,54.995203],[14.035,54.995203],[13.9948,54.96],[14,54.954801],[14.005,54.954801],[14.025,54.934806],[14.03,54.934808],[14.06,54.904818],[14.065,54.904818],[14.085,54.884826],[14.09,54.884826],[14.115001,54.859839]]}},{"type":"Feature","properties":{"depth":10,"source":"DDM 2024 coarse contour","resolution":"0.005 degree sampled grid","scope":"denmark","tileSource":"contours-denmark-coarse.geojson"},"geometry":{"type":"LineString","coordinates":[[14.115001,55.055175],[14.035,54.995179],[13.994824,54.96],[14.03,54.934831],[14.06,54.904842],[14.09,54.88485],[14.115001,54.862991]]}},{"type":"Feature","properties":{"depth":15,"source":"DDM 2024 coarse contour","resolution":"0.005 degree sampled grid","scope":"denmark","tileSource":"contours-denmark-coarse.geojson"},"geometry":{"type":"LineString","coordinates":[[14.115001,55.055151],[14.035,54.995155],[13.994848,54.96],[14.03,54.934855],[14.06,54.904866],[14.09,54.884874],[14.115001,54.863016]]}},{"type":"Feature","properties":{"depth":20,"source":"DDM 2024 coarse contour","resolution":"0.005 degree sampled grid","scope":"denmark","tileSource":"contours-denmark-coarse.geojson"},"geometry":{"type":"LineString","coordinates":[[14.115001,55.055127],[14.035,54.995131],[13.994872,54.96],[14.03,54.934879],[14.06,54.90489],[14.09,54.884898],[14.115001,54.86304]]}},{"type":"Feature","properties":{"depth":30,"source":"DDM 2024 coarse contour","resolution":"0.005 degree sampled grid","scope":"denmark","tileSource":"contours-denmark-coarse.geojson"},"geometry":{"type":"LineString","coordinates":[[14.115001,55.05508],[14.035,54.995084],[13.99492,54.96],[14.115001,54.86248]]}}]}