{"type":"FeatureCollection","name":"DDM contour tile r02_c14","bbox":[14.12,55.31,14.595,55.785],"metadata":{"schema":"waternav-ddm-contour-tile-v1","version":"v45.9","tileId":"r02_c14","source":"Danmarks Dybdemodel 2024 ddm_50m.dybde.tiff via bundled DDM contour GeoJSON files"},"features":[{"type":"Feature","properties":{"depth":1,"source":"DDM 2024 coarse contour","resolution":"0.005 degree sampled grid","scope":"denmark","tileSource":"contours-denmark-coarse.geojson"},"geometry":{"type":"LineString","coordinates":[[14.595001,55.398347],[14.585,55.390349],[14.57,55.385321],[14.545,55.365297],[14.54,55.365305],[14.53,55.355297],[14.525,55.355295],[14.515,55.345279],[14.51,55.345294],[14.5,55.335251],[14.495,55.335252],[14.485,55.325226],[14.48,55.325229],[14.47,55.315208],[14.465,55.315211],[14.45979,55.309999]]}},{"type":"Feature","properties":{"depth":2,"source":"DDM 2024 coarse contour","resolution":"0.005 degree sampled grid","scope":"denmark","tileSource":"contours-denmark-coarse.geojson"},"geometry":{"type":"LineString","coordinates":[[14.595001,55.398342],[14.585,55.390344],[14.57,55.385317],[14.545,55.365293],[14.54,55.3653],[14.53,55.355293],[14.525,55.35529],[14.515,55.345274],[14.51,55.345289],[14.5,55.335246],[14.495,55.335247],[14.485,55.325222],[14.48,55.325224],[14.47,55.315203],[14.465,55.315206],[14.459795,55.309999]]}},{"type":"Feature","properties":{"depth":3,"source":"DDM 2024 coarse contour","resolution":"0.005 degree sampled grid","scope":"denmark","tileSource":"contours-denmark-coarse.geojson"},"geometry":{"type":"LineString","coordinates":[[14.595001,55.398338],[14.585,55.39034],[14.57,55.385312],[14.545,55.365288],[14.54,55.365295],[14.53,55.355288],[14.525,55.355286],[14.515,55.345269],[14.51,55.345284],[14.5,55.335241],[14.495,55.335242],[14.485,55.325217],[14.48,55.325219],[14.47,55.315198],[14.465,55.315201],[14.4598,55.309999]]}},{"type":"Feature","properties":{"depth":5,"source":"DDM 2024 coarse contour","resolution":"0.005 degree sampled grid","scope":"denmark","tileSource":"contours-denmark-coarse.geojson"},"geometry":{"type":"LineString","coordinates":[[14.595001,55.398328],[14.585,55.39033],[14.57,55.385303],[14.545,55.365278],[14.54,55.365286],[14.53,55.355278],[14.525,55.355276],[14.515,55.34526],[14.51,55.345275],[14.5,55.335232],[14.495,55.335233],[14.485,55.325207],[14.48,55.325209],[14.47,55.315188],[14.465,55.315192],[14.459809,55.309999]]}},{"type":"Feature","properties":{"depth":10,"source":"DDM 2024 coarse contour","resolution":"0.005 degree sampled grid","scope":"denmark","tileSource":"contours-denmark-coarse.geojson"},"geometry":{"type":"LineString","coordinates":[[14.595001,55.397228],[14.585,55.390307],[14.57,55.385279],[14.457213,55.309999]]}},{"type":"Feature","properties":{"depth":15,"source":"DDM 2024 coarse contour","resolution":"0.005 degree sampled grid","scope":"denmark","tileSource":"contours-denmark-coarse.geojson"},"geometry":{"type":"LineString","coordinates":[[14.595001,55.397205],[14.585,55.390284],[14.57,55.385256],[14.457248,55.309999]]}},{"type":"Feature","properties":{"depth":20,"source":"DDM 2024 coarse contour","resolution":"0.005 degree sampled grid","scope":"denmark","tileSource":"contours-denmark-coarse.geojson"},"geometry":{"type":"LineString","coordinates":[[14.595001,55.397181],[14.585,55.39026],[14.57,55.385233],[14.457284,55.309999]]}},{"type":"Feature","properties":{"depth":30,"source":"DDM 2024 coarse contour","resolution":"0.005 degree sampled grid","scope":"denmark","tileSource":"contours-denmark-coarse.geojson"},"geometry":{"type":"LineString","coordinates":[[14.595001,55.397135],[14.585,55.390214],[14.57,55.385186],[14.457355,55.309999]]}},{"type":"Feature","properties":{"depth":50,"source":"DDM 2024 coarse contour","resolution":"0.005 degree sampled grid","scope":"denmark","tileSource":"contours-denmark-coarse.geojson"},"geometry":{"type":"LineString","coordinates":[[14.595001,55.400045],[14.489992,55.33],[14.49,55.326],[14.51,55.326667],[14.545,55.344295],[14.555,55.343211],[14.565,55.351],[14.575,55.348621],[14.583276,55.355],[14.592091,55.355],[14.584535,55.34],[14.59,55.329432],[14.585,55.332826],[14.58,55.32601],[14.575,55.333235],[14.565,55.312],[14.560382,55.309999]]}}]}