{"type":"FeatureCollection","name":"DDM contour tile r04_c01","bbox":[7.88,56.27,8.355,56.745],"metadata":{"schema":"waternav-ddm-contour-tile-v1","version":"v45.9","tileId":"r04_c01","source":"Danmarks Dybdemodel 2024 ddm_50m.dybde.tiff via bundled DDM contour GeoJSON files"},"features":[{"type":"Feature","properties":{"depth":1,"source":"DDM 2024 coarse contour","resolution":"0.005 degree sampled grid","scope":"denmark","tileSource":"contours-denmark-coarse.geojson"},"geometry":{"type":"LineString","coordinates":[[8.125006,56.269999],[8.125,56.282308],[8.120012,56.29],[8.120001,56.32],[8.115016,56.325],[8.120002,56.33],[8.11875,56.345],[8.115011,56.35],[8.118636,56.355],[8.115015,56.36],[8.115001,56.375],[8.115014,56.42],[8.12,56.426667],[8.120003,56.49],[8.115017,56.495],[8.115022,56.52],[8.110029,56.525],[8.115013,56.53],[8.115014,56.545],[8.120007,56.55],[8.120019,56.56],[8.130007,56.575],[8.130013,56.585],[8.145007,56.61],[8.145027,56.62],[8.165002,56.655],[8.165014,56.66],[8.18,56.675147],[8.180016,56.68],[8.21,56.709978],[8.22,56.709972],[8.234954,56.685],[8.219996,56.67],[8.225,56.655],[8.23,56.650104],[8.235278,56.65],[8.235,56.645],[8.223333,56.64],[8.226429,56.63],[8.24375,56.625],[8.236111,56.615],[8.255,56.6],[8.3,56.59999],[8.309993,56.59],[8.305,56.585015],[8.285667,56.585],[8.286111,56.58],[8.299991,56.565],[8.3,56.554992],[8.305013,56.555],[8.300007,56.56],[8.305,56.565],[8.305003,56.57],[8.32,56.579987],[8.355001,56.579986]]}},{"type":"Feature","properties":{"depth":1,"source":"DDM 2024 coarse contour","resolution":"0.005 degree sampled grid","scope":"denmark","tileSource":"contours-denmark-coarse.geojson"},"geometry":{"type":"LineString","coordinates":[[8.355001,56.675013],[8.355,56.675013],[8.350013,56.68],[8.35,56.689459],[8.345,56.690017],[8.325,56.710008],[8.32,56.710017],[8.305008,56.725],[8.305,56.730011],[8.29,56.726667],[8.2875,56.73],[8.29,56.731667],[8.3,56.7325],[8.300001,56.745001]]}},{"type":"Feature","properties":{"depth":1,"source":"DDM 2024 coarse contour","resolution":"0.005 degree sampled grid","scope":"denmark","tileSource":"contours-denmark-coarse.geojson"},"geometry":{"type":"LineString","coordinates":[[8.265713,56.745001],[8.265714,56.745],[8.26,56.735],[8.262,56.725],[8.251,56.72],[8.255833,56.715],[8.255,56.708333],[8.25,56.712632],[8.249994,56.705],[8.245,56.700004],[8.24,56.70001],[8.230037,56.715],[8.230015,56.72],[8.225,56.720031],[8.220004,56.725],[8.220014,56.745001]]}},{"type":"Feature","properties":{"depth":2,"source":"DDM 2024 coarse contour","resolution":"0.005 degree sampled grid","scope":"denmark","tileSource":"contours-denmark-coarse.geojson"},"geometry":{"type":"LineString","coordinates":[[8.125002,56.269999],[8.125,56.275],[8.120007,56.29],[8.118939,56.32],[8.115011,56.325],[8.118696,56.33],[8.113704,56.375],[8.115009,56.42],[8.12,56.429444],[8.1175,56.44],[8.12,56.4475],[8.12,56.487857],[8.115012,56.495],[8.115017,56.52],[8.110024,56.525],[8.115008,56.53],[8.115009,56.545],[8.120002,56.55],[8.120014,56.56],[8.130002,56.575],[8.130008,56.585],[8.145002,56.61],[8.145022,56.62],[8.150006,56.625],[8.165009,56.66],[8.18,56.676618],[8.180011,56.68],[8.21,56.709983],[8.22,56.709977],[8.224979,56.705],[8.224966,56.7],[8.234959,56.685],[8.229969,56.68],[8.23,56.675079],[8.235,56.6775],[8.25,56.671],[8.254545,56.675],[8.255,56.681429],[8.275,56.685625],[8.279375,56.69],[8.28,56.695],[8.275,56.698333],[8.245,56.694667],[8.244231,56.7],[8.24,56.700005],[8.23506,56.705],[8.23001,56.72],[8.225,56.720026],[8.219667,56.725],[8.219943,56.745001]]}},{"type":"Feature","properties":{"depth":2,"source":"DDM 2024 coarse contour","resolution":"0.005 degree sampled grid","scope":"denmark","tileSource":"contours-denmark-coarse.geojson"},"geometry":{"type":"LineString","coordinates":[[8.355001,56.675008],[8.355,56.675008],[8.350008,56.68],[8.348205,56.69],[8.34,56.694079],[8.325,56.710003],[8.32,56.710012],[8.315,56.715004],[8.3105,56.715],[8.311667,56.71],[8.320313,56.705],[8.306154,56.695],[8.305417,56.685],[8.297143,56.68],[8.29875,56.675],[8.305769,56.67],[8.29,56.6588],[8.28,56.66],[8.2775,56.655],[8.27,56.652941],[8.255,56.653333],[8.25,56.658462],[8.24,56.655],[8.235,56.663788],[8.23,56.663913],[8.229868,56.675],[8.225,56.675018],[8.220417,56.67],[8.23,56.651146],[8.235,56.650859],[8.24,56.655],[8.24,56.6475],[8.256471,56.645],[8.245,56.640833],[8.242857,56.635],[8.260833,56.62],[8.25,56.620714],[8.24125,56.615],[8.256389,56.6],[8.284348,56.6],[8.29,56.603421],[8.3,56.599995],[8.309998,56.59],[8.305,56.58501],[8.289,56.585],[8.288889,56.58],[8.299996,56.565],[8.3,56.554997],[8.305008,56.555],[8.300002,56.56],[8.305,56.571667],[8.32,56.579992],[8.355001,56.580506]]}},{"type":"Feature","properties":{"depth":2,"source":"DDM 2024 coarse contour","resolution":"0.005 degree sampled grid","scope":"denmark","tileSource":"contours-denmark-coarse.geojson"},"geometry":{"type":"LineString","coordinates":[[8.255,56.705556],[8.25,56.71],[8.245909,56.7],[8.25,56.6955],[8.255,56.705556]]}},{"type":"Feature","properties":{"depth":2,"source":"DDM 2024 coarse contour","resolution":"0.005 degree sampled grid","scope":"denmark","tileSource":"contours-denmark-coarse.geojson"},"geometry":{"type":"LineString","coordinates":[[8.275,56.719167],[8.27,56.719149],[8.265,56.7115],[8.26,56.714306],[8.256702,56.71],[8.26,56.705811],[8.27,56.705357],[8.279082,56.715],[8.275,56.719167]]}},{"type":"Feature","properties":{"depth":2,"source":"DDM 2024 coarse contour","resolution":"0.005 degree sampled grid","scope":"denmark","tileSource":"contours-denmark-coarse.geojson"},"geometry":{"type":"LineString","coordinates":[[8.295,56.745001],[8.295,56.741818],[8.29,56.74],[8.3,56.736875],[8.29944,56.745001]]}},{"type":"Feature","properties":{"depth":3,"source":"DDM 2024 coarse contour","resolution":"0.005 degree sampled grid","scope":"denmark","tileSource":"contours-denmark-coarse.geojson"},"geometry":{"type":"LineString","coordinates":[[8.124726,56.269999],[8.115006,56.325],[8.115,56.366818],[8.111852,56.375],[8.115,56.381176],[8.115004,56.42],[8.118857,56.43],[8.115577,56.44],[8.12,56.460893],[8.12,56.479615],[8.115007,56.495],[8.11287,56.515],[8.115012,56.52],[8.110019,56.525],[8.115003,56.53],[8.115004,56.545],[8.120009,56.56],[8.12501,56.565],[8.130003,56.585],[8.145,56.610806],[8.145017,56.62],[8.150001,56.625],[8.15641,56.645],[8.180006,56.68],[8.193947,56.695],[8.21,56.709988],[8.22,56.709982],[8.224984,56.705],[8.235,56.68038],[8.242143,56.68],[8.244545,56.675],[8.25,56.673],[8.252273,56.675],[8.252222,56.685],[8.235055,56.705],[8.230005,56.72],[8.218,56.725],[8.220337,56.745001]]}},{"type":"Feature","properties":{"depth":3,"source":"DDM 2024 coarse contour","resolution":"0.005 degree sampled grid","scope":"denmark","tileSource":"contours-denmark-coarse.geojson"},"geometry":{"type":"LineString","coordinates":[[8.33,56.705008],[8.325,56.708125],[8.32,56.700417],[8.31,56.695],[8.308333,56.68],[8.311,56.675],[8.305,56.665385],[8.28,56.651818],[8.27,56.65],[8.275833,56.64],[8.275,56.635],[8.27,56.6375],[8.249,56.635],[8.275,56.615],[8.29,56.61],[8.299706,56.6],[8.313333,56.595],[8.319286,56.585],[8.315,56.582273],[8.31,56.588235],[8.305,56.585005],[8.2935,56.585],[8.293676,56.575],[8.3,56.56625],[8.303571,56.575],[8.31,56.578529],[8.33,56.582],[8.355001,56.580833]]}},{"type":"Feature","properties":{"depth":3,"source":"DDM 2024 coarse contour","resolution":"0.005 degree sampled grid","scope":"denmark","tileSource":"contours-denmark-coarse.geojson"},"geometry":{"type":"LineString","coordinates":[[8.355001,56.675003],[8.355,56.675003],[8.350003,56.68],[8.35,56.686757],[8.34,56.692763],[8.33,56.705008]]}},{"type":"Feature","properties":{"depth":3,"source":"DDM 2024 coarse contour","resolution":"0.005 degree sampled grid","scope":"denmark","tileSource":"contours-denmark-coarse.geojson"},"geometry":{"type":"LineString","coordinates":[[8.26,56.616333],[8.246,56.615],[8.257778,56.6],[8.282174,56.6],[8.283333,56.605],[8.28,56.606333],[8.265,56.605714],[8.26,56.61],[8.262222,56.615],[8.26,56.616333]]}},{"type":"Feature","properties":{"depth":3,"source":"DDM 2024 coarse contour","resolution":"0.005 degree sampled grid","scope":"denmark","tileSource":"contours-denmark-coarse.geojson"},"geometry":{"type":"LineString","coordinates":[[8.25,56.656538],[8.2406,56.65],[8.245,56.647027],[8.255,56.65],[8.262,56.645],[8.265,56.65],[8.255,56.65],[8.25,56.656538]]}},{"type":"Feature","properties":{"depth":3,"source":"DDM 2024 coarse contour","resolution":"0.005 degree sampled grid","scope":"denmark","tileSource":"contours-denmark-coarse.geojson"},"geometry":{"type":"LineString","coordinates":[[8.225,56.675013],[8.221378,56.665],[8.227128,56.655],[8.235,56.651641],[8.239057,56.655],[8.237344,56.66],[8.23,56.661739],[8.228553,56.675],[8.225,56.675013]]}},{"type":"Feature","properties":{"depth":3,"source":"DDM 2024 coarse contour","resolution":"0.005 degree sampled grid","scope":"denmark","tileSource":"contours-denmark-coarse.geojson"},"geometry":{"type":"LineString","coordinates":[[8.275,56.718125],[8.266848,56.715],[8.27,56.708929],[8.278061,56.715],[8.275,56.718125]]}},{"type":"Feature","properties":{"depth":5,"source":"DDM 2024 coarse contour","resolution":"0.005 degree sampled grid","scope":"denmark","tileSource":"contours-denmark-coarse.geojson"},"geometry":{"type":"LineString","coordinates":[[8.119201,56.269999],[8.1192,56.27],[8.116957,56.3],[8.113095,56.305],[8.109694,56.36],[8.1126,56.365],[8.108077,56.37],[8.112143,56.39],[8.11,56.40125],[8.115,56.399444],[8.115,56.4085],[8.108966,56.415],[8.116,56.43],[8.110278,56.44],[8.113913,56.46],[8.12,56.464464],[8.12,56.475769],[8.115,56.476667],[8.113684,56.48],[8.111019,56.515],[8.115002,56.52],[8.110009,56.525],[8.115,56.551667],[8.125,56.565],[8.12303,56.575],[8.145,56.614032],[8.149623,56.64],[8.177941,56.68],[8.196184,56.7],[8.215,56.711641],[8.224994,56.705],[8.235,56.681646],[8.246923,56.685],[8.23,56.718864],[8.214615,56.725],[8.22,56.729],[8.218696,56.745],[8.218696,56.745001]]}},{"type":"Feature","properties":{"depth":5,"source":"DDM 2024 coarse contour","resolution":"0.005 degree sampled grid","scope":"denmark","tileSource":"contours-denmark-coarse.geojson"},"geometry":{"type":"LineString","coordinates":[[8.33,56.686],[8.3275,56.68],[8.336667,56.665],[8.305,56.6475],[8.295556,56.63],[8.3,56.62375],[8.325,56.609091],[8.335,56.609],[8.34,56.614615],[8.345,56.615455],[8.35,56.61],[8.355001,56.61]]}},{"type":"Feature","properties":{"depth":5,"source":"DDM 2024 coarse contour","resolution":"0.005 degree sampled grid","scope":"denmark","tileSource":"contours-denmark-coarse.geojson"},"geometry":{"type":"LineString","coordinates":[[8.355001,56.595002],[8.35,56.585],[8.355,56.582308],[8.355001,56.582308]]}},{"type":"Feature","properties":{"depth":5,"source":"DDM 2024 coarse contour","resolution":"0.005 degree sampled grid","scope":"denmark","tileSource":"contours-denmark-coarse.geojson"},"geometry":{"type":"LineString","coordinates":[[8.355001,56.671818],[8.355,56.671818],[8.34,56.68375],[8.335,56.6825],[8.33,56.686]]}},{"type":"Feature","properties":{"depth":5,"source":"DDM 2024 coarse contour","resolution":"0.005 degree sampled grid","scope":"denmark","tileSource":"contours-denmark-coarse.geojson"},"geometry":{"type":"LineString","coordinates":[[8.34,56.591944],[8.33,56.59375],[8.32625,56.59],[8.335,56.585],[8.345,56.59],[8.34,56.591944]]}},{"type":"Feature","properties":{"depth":10,"source":"DDM 2024 coarse contour","resolution":"0.005 degree sampled grid","scope":"denmark","tileSource":"contours-denmark-coarse.geojson"},"geometry":{"type":"LineString","coordinates":[[8.110671,56.269999],[8.103261,56.305],[8.103,56.36],[8.0996,56.365],[8.103214,56.435],[8.109524,56.465],[8.104362,56.53],[8.106875,56.545],[8.113438,56.57],[8.147396,56.645],[8.175,56.685132],[8.20549,56.71],[8.205,56.716667],[8.192895,56.72],[8.205,56.722],[8.211607,56.735],[8.213688,56.745001]]}},{"type":"Feature","properties":{"depth":10,"source":"DDM 2024 coarse contour","resolution":"0.005 degree sampled grid","scope":"denmark","tileSource":"contours-denmark-coarse.geojson"},"geometry":{"type":"LineString","coordinates":[[8.23,56.7134],[8.230238,56.7],[8.235,56.696774],[8.235,56.707283],[8.23,56.705],[8.23,56.7134]]}},{"type":"Feature","properties":{"depth":15,"source":"DDM 2024 coarse contour","resolution":"0.005 degree sampled grid","scope":"denmark","tileSource":"contours-denmark-coarse.geojson"},"geometry":{"type":"LineString","coordinates":[[8.097975,56.269999],[8.097826,56.285],[8.085,56.335],[8.0875,56.36],[8.079444,56.365],[8.085,56.365],[8.083077,56.385],[8.090435,56.39],[8.085,56.394167],[8.07,56.391],[8.067333,56.395],[8.088,56.405],[8.083182,56.415],[8.092222,56.425],[8.09,56.429],[8.0675,56.425],[8.075,56.426667],[8.093929,56.445],[8.099667,56.47],[8.095625,56.48],[8.098519,56.54],[8.1125,56.585],[8.139118,56.645],[8.174375,56.695],[8.180938,56.72],[8.197778,56.735],[8.1975,56.745],[8.197501,56.745001]]}},{"type":"Feature","properties":{"depth":20,"source":"DDM 2024 coarse contour","resolution":"0.005 degree sampled grid","scope":"denmark","tileSource":"contours-denmark-coarse.geojson"},"geometry":{"type":"LineString","coordinates":[[8.077708,56.269999],[8.080417,56.275],[8.07375,56.28],[8.078889,56.285],[8.075882,56.305],[8.07,56.308571],[8.07,56.32],[8.060714,56.325],[8.066,56.33],[8.055,56.32625],[8.052,56.33],[8.0555,56.34],[8.031111,56.36],[8.034286,56.365],[8.027895,56.37],[8.034286,56.385],[8.0225,56.39],[8.023125,56.4],[8.017857,56.405],[8.025,56.415],[8.022,56.435],[8.0035,56.455],[8.005,56.4675],[7.9925,56.48],[7.965,56.495],[7.948333,56.525],[7.959,56.545],[7.948333,56.565],[7.96125,56.59],[7.958571,56.64],[7.96375,56.655],[7.9775,56.67],[7.975,56.68],[7.985,56.685],[8.006,56.685],[7.995,56.665],[7.995,56.670833],[8,56.66],[8.023333,56.655],[8.02,56.648026],[7.99125,56.645],[7.983333,56.635],[7.993636,56.62],[7.9925,56.595],[7.997,56.585],[7.988,56.56],[7.978333,56.55],[8,56.535],[8.005,56.525],[8.02,56.522381],[8.035,56.53375],[8.04,56.531071],[8.041111,56.52],[8.030833,56.51],[8.0375,56.505],[8.032273,56.5],[8.033846,56.495],[8.055,56.494286],[8.06,56.50375],[8.07,56.506667],[8.086579,56.525],[8.080313,56.53],[8.086875,56.535],[8.088077,56.55],[8.082667,56.555],[8.095,56.565],[8.098529,56.59],[8.115,56.61875],[8.108,56.625],[8.12,56.630769],[8.125,56.63875],[8.130263,56.65],[8.129545,56.665],[8.14,56.68],[8.135,56.68375],[8.125,56.673571],[8.12,56.676429],[8.115,56.6675],[8.095,56.668333],[8.111071,56.69],[8.09,56.695],[8.093333,56.705],[8.1225,56.735],[8.12,56.7425],[8.124392,56.745001]]}},{"type":"Feature","properties":{"depth":20,"source":"DDM 2024 coarse contour","resolution":"0.005 degree sampled grid","scope":"denmark","tileSource":"contours-denmark-coarse.geojson"},"geometry":{"type":"LineString","coordinates":[[8.142311,56.745001],[8.138182,56.735],[8.126667,56.73],[8.134375,56.725],[8.135,56.715],[8.145,56.7175],[8.172083,56.745],[8.172082,56.745001]]}},{"type":"Feature","properties":{"depth":20,"source":"DDM 2024 coarse contour","resolution":"0.005 degree sampled grid","scope":"denmark","tileSource":"contours-denmark-coarse.geojson"},"geometry":{"type":"LineString","coordinates":[[7.96875,56.47],[7.9625,56.455],[7.945,56.455],[7.942692,56.46],[7.95,56.468889],[7.96,56.473571],[7.96875,56.47]]}},{"type":"Feature","properties":{"depth":20,"source":"DDM 2024 coarse contour","resolution":"0.005 degree sampled grid","scope":"denmark","tileSource":"contours-denmark-coarse.geojson"},"geometry":{"type":"LineString","coordinates":[[8.16,56.716538],[8.155,56.716923],[8.145,56.705],[8.15,56.69625],[8.16,56.716538]]}},{"type":"Feature","properties":{"depth":20,"source":"DDM 2024 coarse contour","resolution":"0.005 degree sampled grid","scope":"denmark","tileSource":"contours-denmark-coarse.geojson"},"geometry":{"type":"LineString","coordinates":[[7.97881,56.74],[8,56.716667],[7.96,56.721923],[7.953,56.73],[7.965,56.743077],[7.97881,56.74]]}}]}