{"type":"FeatureCollection","name":"DDM contour tile r04_c08","bbox":[11.24,56.27,11.715,56.745],"metadata":{"schema":"waternav-ddm-contour-tile-v1","version":"v46.0","tileId":"r04_c08","source":"Danmarks Dybdemodel 2024 ddm_50m.dybde.tiff via bundled DDM contour GeoJSON files"},"features":[{"type":"Feature","properties":{"depth":1,"source":"DDM 2024 coarse contour","resolution":"0.005 degree sampled grid","scope":"denmark","tileSource":"contours-denmark-coarse.geojson"},"geometry":{"type":"LineString","coordinates":[[11.661667,56.735],[11.655,56.73002],[11.645,56.729831],[11.63,56.720016],[11.62,56.718714],[11.585,56.690003],[11.578636,56.69],[11.57,56.685008],[11.54,56.685006],[11.520007,56.705],[11.51875,56.71],[11.51,56.710009],[11.505015,56.715],[11.51,56.719998],[11.52,56.724996],[11.52875,56.725],[11.535,56.729995],[11.58,56.725849],[11.585,56.729983],[11.600556,56.73],[11.61,56.734986],[11.629062,56.735],[11.635,56.739977],[11.655,56.739985],[11.661667,56.735]]}},{"type":"Feature","properties":{"depth":1,"source":"DDM 2024 coarse contour","resolution":"0.005 degree sampled grid","scope":"denmark","tileSource":"contours-denmark-coarse.geojson"},"geometry":{"type":"LineString","coordinates":[[11.692273,56.745],[11.68,56.73963],[11.6665,56.74],[11.692273,56.745]]}},{"type":"Feature","properties":{"depth":2,"source":"DDM 2024 coarse contour","resolution":"0.005 degree sampled grid","scope":"denmark","tileSource":"contours-denmark-coarse.geojson"},"geometry":{"type":"LineString","coordinates":[[11.696818,56.745],[11.645,56.728983],[11.615,56.71475],[11.58,56.684375],[11.531667,56.685],[11.535,56.69],[11.53,56.690625],[11.516667,56.71],[11.51,56.710004],[11.50501,56.715],[11.51,56.721923],[11.53,56.731667],[11.58,56.726792],[11.61,56.734991],[11.625937,56.735],[11.635,56.739982],[11.655,56.73999],[11.66,56.737121],[11.679356,56.745001]]}},{"type":"Feature","properties":{"depth":2,"source":"DDM 2024 coarse contour","resolution":"0.005 degree sampled grid","scope":"denmark","tileSource":"contours-denmark-coarse.geojson"},"geometry":{"type":"LineString","coordinates":[[11.696754,56.745001],[11.696818,56.745]]}},{"type":"Feature","properties":{"depth":3,"source":"DDM 2024 coarse contour","resolution":"0.005 degree sampled grid","scope":"denmark","tileSource":"contours-denmark-coarse.geojson"},"geometry":{"type":"LineString","coordinates":[[11.703,56.745],[11.645,56.728136],[11.615,56.7135],[11.595,56.698295],[11.586912,56.69],[11.585,56.682857],[11.577778,56.68],[11.575,56.673333],[11.56,56.6825],[11.545,56.679722],[11.54,56.674667],[11.525,56.675],[11.535,56.675],[11.54,56.68],[11.525,56.682],[11.52,56.69],[11.515,56.6875],[11.51,56.694091],[11.505,56.694286],[11.501667,56.69],[11.505,56.685],[11.5,56.68625],[11.494167,56.69],[11.50375,56.695],[11.487857,56.705],[11.505,56.711875],[11.508571,56.725],[11.505,56.735],[11.51,56.739375],[11.52,56.7375],[11.525,56.741],[11.547778,56.73],[11.58,56.727736],[11.635,56.739987],[11.66,56.738636],[11.676027,56.745001]]}},{"type":"Feature","properties":{"depth":3,"source":"DDM 2024 coarse contour","resolution":"0.005 degree sampled grid","scope":"denmark","tileSource":"contours-denmark-coarse.geojson"},"geometry":{"type":"LineString","coordinates":[[11.702985,56.745001],[11.703,56.745]]}},{"type":"Feature","properties":{"depth":5,"source":"DDM 2024 coarse contour","resolution":"0.005 degree sampled grid","scope":"denmark","tileSource":"contours-denmark-coarse.geojson"},"geometry":{"type":"LineString","coordinates":[[11.53743,56.745001],[11.555,56.736875],[11.565,56.735833],[11.57,56.739],[11.58,56.736786],[11.585,56.74],[11.582778,56.735],[11.585,56.733],[11.605,56.74],[11.6,56.745],[11.605,56.74],[11.625,56.745],[11.625,56.745001]]}},{"type":"Feature","properties":{"depth":5,"source":"DDM 2024 coarse contour","resolution":"0.005 degree sampled grid","scope":"denmark","tileSource":"contours-denmark-coarse.geojson"},"geometry":{"type":"LineString","coordinates":[[11.645,56.745001],[11.645,56.740833],[11.663,56.745],[11.662998,56.745001]]}},{"type":"Feature","properties":{"depth":5,"source":"DDM 2024 coarse contour","resolution":"0.005 degree sampled grid","scope":"denmark","tileSource":"contours-denmark-coarse.geojson"},"geometry":{"type":"LineString","coordinates":[[11.715001,56.74344],[11.665,56.73372],[11.625,56.717034],[11.62,56.709734],[11.615,56.711],[11.594,56.695],[11.589853,56.69],[11.59,56.684634],[11.571167,56.665],[11.57,56.659711],[11.565,56.6618],[11.555,56.659429],[11.54,56.65],[11.532,56.655],[11.545,56.659286],[11.55,56.656667],[11.555,56.665],[11.55,56.674],[11.54,56.667273],[11.525,56.665],[11.515,56.667647],[11.5,56.665],[11.495,56.66875],[11.4925,56.66],[11.51875,56.655],[11.517857,56.65],[11.455,56.65],[11.442,56.66],[11.46375,56.665],[11.45,56.66875],[11.44125,56.675],[11.445,56.6775],[11.455,56.675],[11.45625,56.68],[11.45,56.68625],[11.434,56.69],[11.443333,56.695],[11.441667,56.7],[11.446818,56.705],[11.435,56.71],[11.432,56.715],[11.435,56.725],[11.42,56.74],[11.425,56.7425],[11.43,56.73875],[11.441429,56.74],[11.437619,56.745001]]}},{"type":"Feature","properties":{"depth":5,"source":"DDM 2024 coarse contour","resolution":"0.005 degree sampled grid","scope":"denmark","tileSource":"contours-denmark-coarse.geojson"},"geometry":{"type":"LineString","coordinates":[[11.475,56.679107],[11.465769,56.675],[11.466111,56.67],[11.475,56.665],[11.465,56.66],[11.483333,56.66],[11.4825,56.665],[11.475,56.665],[11.48,56.675],[11.475,56.679107]]}},{"type":"Feature","properties":{"depth":10,"source":"DDM 2024 coarse contour","resolution":"0.005 degree sampled grid","scope":"denmark","tileSource":"contours-denmark-coarse.geojson"},"geometry":{"type":"LineString","coordinates":[[11.326,56.335],[11.329375,56.33],[11.31,56.329],[11.326,56.335]]}},{"type":"Feature","properties":{"depth":10,"source":"DDM 2024 coarse contour","resolution":"0.005 degree sampled grid","scope":"denmark","tileSource":"contours-denmark-coarse.geojson"},"geometry":{"type":"LineString","coordinates":[[11.715001,56.737425],[11.665,56.73172],[11.6,56.696912],[11.587885,56.675],[11.57,56.657645],[11.54,56.648571],[11.395,56.645938],[11.348125,56.67],[11.343571,56.68],[11.345556,56.69],[11.33875,56.695],[11.345,56.71],[11.3525,56.71],[11.350833,56.715],[11.3625,56.72],[11.338889,56.73],[11.35,56.73375],[11.35,56.745],[11.355,56.74],[11.365,56.745],[11.365,56.745001]]}},{"type":"Feature","properties":{"depth":15,"source":"DDM 2024 coarse contour","resolution":"0.005 degree sampled grid","scope":"denmark","tileSource":"contours-denmark-coarse.geojson"},"geometry":{"type":"LineString","coordinates":[[11.715001,56.735102],[11.666667,56.73],[11.6,56.693652],[11.59,56.670882],[11.57,56.655579],[11.54,56.647143],[11.49,56.641404],[11.436364,56.645],[11.4275,56.64],[11.442222,56.625],[11.445,56.62],[11.4375,56.62],[11.44,56.615],[11.445,56.62],[11.445,56.609118],[11.44,56.615],[11.43,56.6125],[11.425,56.6185],[11.365,56.626071],[11.34,56.648158],[11.3075,56.695],[11.303,56.72],[11.315857,56.745001]]}},{"type":"Feature","properties":{"depth":15,"source":"DDM 2024 coarse contour","resolution":"0.005 degree sampled grid","scope":"denmark","tileSource":"contours-denmark-coarse.geojson"},"geometry":{"type":"LineString","coordinates":[[11.239999,56.693001],[11.265,56.665],[11.26,56.66],[11.245,56.67875],[11.239999,56.68125]]}},{"type":"Feature","properties":{"depth":15,"source":"DDM 2024 coarse contour","resolution":"0.005 degree sampled grid","scope":"denmark","tileSource":"contours-denmark-coarse.geojson"},"geometry":{"type":"LineString","coordinates":[[11.247969,56.285],[11.239999,56.275606]]}},{"type":"Feature","properties":{"depth":15,"source":"DDM 2024 coarse contour","resolution":"0.005 degree sampled grid","scope":"denmark","tileSource":"contours-denmark-coarse.geojson"},"geometry":{"type":"LineString","coordinates":[[11.239999,56.284815],[11.245,56.288065],[11.247969,56.285]]}},{"type":"Feature","properties":{"depth":15,"source":"DDM 2024 coarse contour","resolution":"0.005 degree sampled grid","scope":"denmark","tileSource":"contours-denmark-coarse.geojson"},"geometry":{"type":"LineString","coordinates":[[11.705187,56.269999],[11.705185,56.27],[11.705,56.27875],[11.715001,56.285097]]}},{"type":"Feature","properties":{"depth":15,"source":"DDM 2024 coarse contour","resolution":"0.005 degree sampled grid","scope":"denmark","tileSource":"contours-denmark-coarse.geojson"},"geometry":{"type":"LineString","coordinates":[[11.49875,56.31],[11.51125,56.3],[11.5,56.292833],[11.48,56.303333],[11.49875,56.31]]}},{"type":"Feature","properties":{"depth":15,"source":"DDM 2024 coarse contour","resolution":"0.005 degree sampled grid","scope":"denmark","tileSource":"contours-denmark-coarse.geojson"},"geometry":{"type":"LineString","coordinates":[[11.363968,56.34],[11.345,56.327203],[11.305,56.314167],[11.294405,56.315],[11.292885,56.32],[11.305,56.332083],[11.33,56.341786],[11.36,56.344808],[11.363968,56.34]]}},{"type":"Feature","properties":{"depth":20,"source":"DDM 2024 coarse contour","resolution":"0.005 degree sampled grid","scope":"denmark","tileSource":"contours-denmark-coarse.geojson"},"geometry":{"type":"LineString","coordinates":[[11.715001,56.733484],[11.6825,56.73],[11.671667,56.725],[11.66375,56.72],[11.66,56.707188],[11.65,56.711364],[11.6,56.690843],[11.60175,56.685],[11.595,56.669815],[11.58,56.662658],[11.575,56.654796],[11.4975,56.64],[11.459737,56.605],[11.45625,56.6],[11.459091,56.59],[11.45,56.579483],[11.43,56.57625],[11.40375,56.585],[11.395,56.5925],[11.39,56.588077],[11.385833,56.59],[11.392368,56.595],[11.385,56.598839],[11.380114,56.595],[11.383333,56.59],[11.38,56.5775],[11.375,56.584091],[11.35625,56.58],[11.378333,56.565],[11.349286,56.54],[11.35375,56.535],[11.355,56.5175],[11.33,56.517222],[11.325,56.515],[11.335,56.51],[11.3125,56.505],[11.336111,56.5],[11.33,56.495],[11.34,56.485],[11.325,56.492],[11.315,56.49],[11.32,56.485],[11.315,56.49],[11.3125,56.485],[11.335,56.48],[11.34,56.485],[11.345,56.4775],[11.355,56.477],[11.38,56.4875],[11.44,56.475],[11.465,56.4765],[11.460556,56.46],[11.445,56.445833],[11.37,56.419647],[11.35,56.42],[11.28,56.438333],[11.265,56.426],[11.239999,56.42031]]}},{"type":"Feature","properties":{"depth":20,"source":"DDM 2024 coarse contour","resolution":"0.005 degree sampled grid","scope":"denmark","tileSource":"contours-denmark-coarse.geojson"},"geometry":{"type":"LineString","coordinates":[[11.239999,56.410444],[11.26,56.406538],[11.263125,56.4],[11.248333,56.395],[11.239999,56.386278]]}},{"type":"Feature","properties":{"depth":20,"source":"DDM 2024 coarse contour","resolution":"0.005 degree sampled grid","scope":"denmark","tileSource":"contours-denmark-coarse.geojson"},"geometry":{"type":"LineString","coordinates":[[11.239999,56.376471],[11.2425,56.375],[11.239999,56.371955]]}},{"type":"Feature","properties":{"depth":20,"source":"DDM 2024 coarse contour","resolution":"0.005 degree sampled grid","scope":"denmark","tileSource":"contours-denmark-coarse.geojson"},"geometry":{"type":"LineString","coordinates":[[11.455,56.39],[11.4475,56.375],[11.425,56.378],[11.375,56.369],[11.375,56.356667],[11.388571,56.365],[11.4,56.365161],[11.445,56.355714],[11.448571,56.35],[11.443571,56.345],[11.344375,56.32],[11.34,56.315],[11.347,56.31],[11.345,56.306667],[11.325,56.298333],[11.3075,56.28],[11.305,56.275],[11.313752,56.269999]]}},{"type":"Feature","properties":{"depth":20,"source":"DDM 2024 coarse contour","resolution":"0.005 degree sampled grid","scope":"denmark","tileSource":"contours-denmark-coarse.geojson"},"geometry":{"type":"LineString","coordinates":[[11.239999,56.299219],[11.25,56.293051],[11.265,56.301098],[11.275,56.29125],[11.29,56.294167],[11.275,56.300714],[11.274167,56.315],[11.287174,56.315],[11.3,56.339091],[11.316842,56.34],[11.29,56.345667],[11.285,56.35],[11.29,56.361667],[11.342857,56.37],[11.37,56.36875],[11.378,56.375],[11.373095,56.38],[11.388571,56.385],[11.43,56.38625],[11.435,56.39],[11.431667,56.385],[11.435,56.3825],[11.435,56.39],[11.455,56.39]]}},{"type":"Feature","properties":{"depth":20,"source":"DDM 2024 coarse contour","resolution":"0.005 degree sampled grid","scope":"denmark","tileSource":"contours-denmark-coarse.geojson"},"geometry":{"type":"LineString","coordinates":[[11.689021,56.269999],[11.676667,56.28],[11.695,56.31],[11.715001,56.320334]]}},{"type":"Feature","properties":{"depth":20,"source":"DDM 2024 coarse contour","resolution":"0.005 degree sampled grid","scope":"denmark","tileSource":"contours-denmark-coarse.geojson"},"geometry":{"type":"LineString","coordinates":[[11.538333,56.355],[11.54,56.325],[11.55,56.305],[11.545,56.305],[11.54,56.2925],[11.485,56.277917],[11.455,56.275],[11.435,56.285],[11.449375,56.305],[11.45125,56.315],[11.438333,56.315],[11.439792,56.325],[11.4525,56.34],[11.485,56.342778],[11.5,56.338333],[11.498214,56.345],[11.505,56.353333],[11.525,56.3575],[11.538333,56.355]]}},{"type":"Feature","properties":{"depth":20,"source":"DDM 2024 coarse contour","resolution":"0.005 degree sampled grid","scope":"denmark","tileSource":"contours-denmark-coarse.geojson"},"geometry":{"type":"LineString","coordinates":[[11.365,56.3512],[11.354444,56.35],[11.368333,56.35],[11.365,56.3512]]}},{"type":"Feature","properties":{"depth":20,"source":"DDM 2024 coarse contour","resolution":"0.005 degree sampled grid","scope":"denmark","tileSource":"contours-denmark-coarse.geojson"},"geometry":{"type":"LineString","coordinates":[[11.519,56.4],[11.475,56.385],[11.469,56.39],[11.495,56.401667],[11.519,56.4]]}},{"type":"Feature","properties":{"depth":20,"source":"DDM 2024 coarse contour","resolution":"0.005 degree sampled grid","scope":"denmark","tileSource":"contours-denmark-coarse.geojson"},"geometry":{"type":"LineString","coordinates":[[11.416429,56.415],[11.427857,56.41],[11.425,56.4025],[11.415,56.4075],[11.4,56.404091],[11.405,56.411667],[11.416429,56.415]]}},{"type":"Feature","properties":{"depth":20,"source":"DDM 2024 coarse contour","resolution":"0.005 degree sampled grid","scope":"denmark","tileSource":"contours-denmark-coarse.geojson"},"geometry":{"type":"LineString","coordinates":[[11.325,56.655937],[11.314762,56.645],[11.327667,56.63],[11.34,56.617794],[11.38,56.595161],[11.383488,56.6],[11.325,56.655937]]}},{"type":"Feature","properties":{"depth":20,"source":"DDM 2024 coarse contour","resolution":"0.005 degree sampled grid","scope":"denmark","tileSource":"contours-denmark-coarse.geojson"},"geometry":{"type":"LineString","coordinates":[[11.29,56.670625],[11.285,56.674565],[11.280227,56.67],[11.295,56.662778],[11.29,56.670625]]}},{"type":"Feature","properties":{"depth":20,"source":"DDM 2024 coarse contour","resolution":"0.005 degree sampled grid","scope":"denmark","tileSource":"contours-denmark-coarse.geojson"},"geometry":{"type":"LineString","coordinates":[[11.265,56.697222],[11.259091,56.695],[11.262143,56.685],[11.275,56.670333],[11.28,56.6702],[11.284615,56.675],[11.265,56.697222]]}},{"type":"Feature","properties":{"depth":30,"source":"DDM 2024 coarse contour","resolution":"0.005 degree sampled grid","scope":"denmark","tileSource":"contours-denmark-coarse.geojson"},"geometry":{"type":"LineString","coordinates":[[11.715001,56.685447],[11.695,56.677857],[11.66,56.646667],[11.63,56.64],[11.621667,56.63],[11.63,56.629],[11.63,56.621667],[11.61,56.6075],[11.565417,56.56],[11.57,56.556333],[11.61,56.581],[11.615,56.576154],[11.63375,56.58],[11.6315,56.575],[11.625,56.56625],[11.618125,56.565],[11.615,56.5525],[11.61,56.566538],[11.602381,56.555],[11.58,56.538571],[11.57,56.54],[11.56,56.52],[11.59,56.51375],[11.625,56.52],[11.63,56.515],[11.675,56.525],[11.65875,56.51],[11.67,56.495],[11.68,56.49],[11.7,56.493571],[11.715001,56.491428]]}},{"type":"Feature","properties":{"depth":30,"source":"DDM 2024 coarse contour","resolution":"0.005 degree sampled grid","scope":"denmark","tileSource":"contours-denmark-coarse.geojson"},"geometry":{"type":"LineString","coordinates":[[11.65,56.3585],[11.643409,56.34],[11.648333,56.325],[11.635,56.3],[11.64,56.2985],[11.650469,56.315],[11.65,56.3585]]}},{"type":"Feature","properties":{"depth":30,"source":"DDM 2024 coarse contour","resolution":"0.005 degree sampled grid","scope":"denmark","tileSource":"contours-denmark-coarse.geojson"},"geometry":{"type":"LineString","coordinates":[[11.27,56.367267],[11.258393,56.365],[11.26,56.361538],[11.273208,56.365],[11.27,56.367267]]}},{"type":"Feature","properties":{"depth":30,"source":"DDM 2024 coarse contour","resolution":"0.005 degree sampled grid","scope":"denmark","tileSource":"contours-denmark-coarse.geojson"},"geometry":{"type":"LineString","coordinates":[[11.465,56.445702],[11.38,56.420132],[11.366541,56.41],[11.357722,56.385],[11.35,56.379719],[11.27205,56.37],[11.285,56.366435],[11.31,56.373839],[11.355,56.373586],[11.374191,56.39],[11.377277,56.405],[11.39,56.413374],[11.41,56.422303],[11.480667,56.435],[11.465,56.445702]]}},{"type":"Feature","properties":{"depth":30,"source":"DDM 2024 coarse contour","resolution":"0.005 degree sampled grid","scope":"denmark","tileSource":"contours-denmark-coarse.geojson"},"geometry":{"type":"LineString","coordinates":[[11.565,56.5595],[11.56,56.543095],[11.567105,56.55],[11.565,56.5595]]}}]}