{"type":"FeatureCollection","name":"DDM contour tile r04_c03","bbox":[8.84,56.27,9.315,56.745],"metadata":{"schema":"waternav-ddm-contour-tile-v1","version":"v46.0","tileId":"r04_c03","source":"Danmarks Dybdemodel 2024 ddm_50m.dybde.tiff via bundled DDM contour GeoJSON files"},"features":[{"type":"Feature","properties":{"depth":1,"source":"DDM 2024 coarse contour","resolution":"0.005 degree sampled grid","scope":"denmark","tileSource":"contours-denmark-coarse.geojson"},"geometry":{"type":"LineString","coordinates":[[8.839999,56.69],[8.844048,56.69],[8.85,56.695481],[8.865,56.694996],[8.872857,56.705],[8.865,56.710001],[8.86,56.710006],[8.855,56.705023],[8.839999,56.705012]]}},{"type":"Feature","properties":{"depth":1,"source":"DDM 2024 coarse contour","resolution":"0.005 degree sampled grid","scope":"denmark","tileSource":"contours-denmark-coarse.geojson"},"geometry":{"type":"LineString","coordinates":[[8.839999,56.727995],[8.850004,56.74],[8.855014,56.745001]]}},{"type":"Feature","properties":{"depth":1,"source":"DDM 2024 coarse contour","resolution":"0.005 degree sampled grid","scope":"denmark","tileSource":"contours-denmark-coarse.geojson"},"geometry":{"type":"LineString","coordinates":[[9.130138,56.745001],[9.130139,56.745],[9.16,56.724994],[9.175189,56.71],[9.16,56.700046],[9.15,56.699602],[9.14,56.690035],[9.135203,56.69],[9.120149,56.675],[9.119987,56.67],[9.115,56.665015],[9.096667,56.665],[9.10027,56.66],[9.1,56.65],[9.104993,56.645],[9.1,56.640022],[9.095,56.645003],[9.09,56.644565],[9.055,56.625],[9.054993,56.62],[9.045882,56.61],[9.045,56.59],[9.0508,56.58],[9.059988,56.575],[9.055,56.568636],[9.06,56.565],[9.060714,56.56],[9.075,56.56],[9.079211,56.57],[9.089444,56.58],[9.085006,56.59],[9.088125,56.6],[9.105,56.610139],[9.115,56.6104],[9.119792,56.615],[9.106364,56.62],[9.128158,56.63],[9.14,56.6515],[9.15,56.659091],[9.15999,56.65],[9.155,56.645],[9.156346,56.63],[9.165,56.625488],[9.195,56.625875],[9.21,56.634981],[9.216296,56.63],[9.275,56.63],[9.280143,56.625],[9.285,56.624983],[9.3,56.609996],[9.30825,56.62],[9.315001,56.651657]]}},{"type":"Feature","properties":{"depth":1,"source":"DDM 2024 coarse contour","resolution":"0.005 degree sampled grid","scope":"denmark","tileSource":"contours-denmark-coarse.geojson"},"geometry":{"type":"LineString","coordinates":[[9.315001,56.65696],[9.308437,56.675],[9.285,56.694423],[9.265,56.694048],[9.25,56.68501],[9.230208,56.685],[9.215,56.675019],[9.2,56.675004],[9.185,56.665022],[9.17,56.665013],[9.159474,56.675],[9.158571,56.68],[9.17,56.689962],[9.175,56.689989],[9.185,56.699937],[9.2,56.704999],[9.21,56.714977],[9.224024,56.72],[9.225013,56.725],[9.233393,56.73],[9.2395,56.745],[9.2395,56.745001]]}},{"type":"Feature","properties":{"depth":1,"source":"DDM 2024 coarse contour","resolution":"0.005 degree sampled grid","scope":"denmark","tileSource":"contours-denmark-coarse.geojson"},"geometry":{"type":"LineString","coordinates":[[9.29,56.605028],[9.28,56.595004],[9.265,56.588],[9.256364,56.58],[9.266071,56.575],[9.26,56.572273],[9.26,56.567727],[9.27,56.55],[9.295,56.538462],[9.31,56.5375],[9.315,56.532188],[9.315001,56.532189]]}},{"type":"Feature","properties":{"depth":1,"source":"DDM 2024 coarse contour","resolution":"0.005 degree sampled grid","scope":"denmark","tileSource":"contours-denmark-coarse.geojson"},"geometry":{"type":"LineString","coordinates":[[9.315001,56.550008],[9.295,56.550011],[9.285013,56.56],[9.285013,56.575],[9.295,56.596364],[9.29,56.605028]]}},{"type":"Feature","properties":{"depth":1,"source":"DDM 2024 coarse contour","resolution":"0.005 degree sampled grid","scope":"denmark","tileSource":"contours-denmark-coarse.geojson"},"geometry":{"type":"LineString","coordinates":[[9.14,56.615003],[9.12,56.614375],[9.116111,56.61],[9.12,56.609997],[9.13,56.599999],[9.1445,56.61],[9.14375,56.615],[9.14,56.615003]]}},{"type":"Feature","properties":{"depth":1,"source":"DDM 2024 coarse contour","resolution":"0.005 degree sampled grid","scope":"denmark","tileSource":"contours-denmark-coarse.geojson"},"geometry":{"type":"LineString","coordinates":[[8.885,56.713214],[8.876023,56.705],[8.88,56.704983],[8.89,56.694998],[8.905,56.694996],[8.91,56.699991],[8.915003,56.7],[8.915,56.705005],[8.905,56.709314],[8.89,56.705023],[8.885,56.713214]]}},{"type":"Feature","properties":{"depth":1,"source":"DDM 2024 coarse contour","resolution":"0.005 degree sampled grid","scope":"denmark","tileSource":"contours-denmark-coarse.geojson"},"geometry":{"type":"LineString","coordinates":[[9.200214,56.725],[9.195,56.724022],[9.185,56.715037],[9.180005,56.72],[9.19,56.729997],[9.200214,56.725]]}},{"type":"Feature","properties":{"depth":2,"source":"DDM 2024 coarse contour","resolution":"0.005 degree sampled grid","scope":"denmark","tileSource":"contours-denmark-coarse.geojson"},"geometry":{"type":"LineString","coordinates":[[8.839999,56.690959],[8.85,56.696442],[8.864773,56.695],[8.870476,56.705],[8.861111,56.71],[8.855,56.705018],[8.839999,56.70501]]}},{"type":"Feature","properties":{"depth":2,"source":"DDM 2024 coarse contour","resolution":"0.005 degree sampled grid","scope":"denmark","tileSource":"contours-denmark-coarse.geojson"},"geometry":{"type":"LineString","coordinates":[[8.839999,56.729981],[8.855023,56.745001]]}},{"type":"Feature","properties":{"depth":2,"source":"DDM 2024 coarse contour","resolution":"0.005 degree sampled grid","scope":"denmark","tileSource":"contours-denmark-coarse.geojson"},"geometry":{"type":"LineString","coordinates":[[9.131527,56.745001],[9.131528,56.745],[9.174286,56.715],[9.17566,56.71],[9.135878,56.69],[9.115,56.66501],[9.098519,56.665],[9.101622,56.66],[9.101087,56.65],[9.104998,56.645],[9.1,56.640017],[9.095,56.644571],[9.09,56.643478],[9.065,56.630012],[9.059998,56.63],[9.047353,56.61],[9.046346,56.6],[9.05,56.583333],[9.059993,56.575],[9.057187,56.57],[9.065,56.562857],[9.075,56.56625],[9.086667,56.58],[9.085,56.6],[9.101333,56.61],[9.117708,56.615],[9.097727,56.62],[9.125526,56.63],[9.145,56.660686],[9.15,56.660645],[9.159995,56.65],[9.155,56.642917],[9.155,56.636957],[9.158269,56.63],[9.165,56.626707],[9.19,56.626019],[9.21,56.634986],[9.222381,56.63],[9.265,56.6375],[9.27,56.631346],[9.2795,56.63],[9.281571,56.625],[9.285,56.624988],[9.3,56.610089],[9.312167,56.64],[9.313026,56.66],[9.301818,56.68],[9.285,56.6925],[9.265,56.692857],[9.25,56.685005],[9.232292,56.685],[9.215,56.675014],[9.2,56.67473],[9.18,56.663583],[9.17,56.665008],[9.158158,56.675],[9.157143,56.68],[9.17,56.689967],[9.175,56.689994],[9.185,56.699942],[9.199592,56.705],[9.21,56.714982],[9.222805,56.72],[9.231607,56.73],[9.23825,56.745],[9.238249,56.745001]]}},{"type":"Feature","properties":{"depth":2,"source":"DDM 2024 coarse contour","resolution":"0.005 degree sampled grid","scope":"denmark","tileSource":"contours-denmark-coarse.geojson"},"geometry":{"type":"LineString","coordinates":[[9.29,56.605023],[9.275,56.588077],[9.262,56.58],[9.269643,56.575],[9.27125,56.555],[9.285,56.544706],[9.315,56.5405],[9.315001,56.540495]]}},{"type":"Feature","properties":{"depth":2,"source":"DDM 2024 coarse contour","resolution":"0.005 degree sampled grid","scope":"denmark","tileSource":"contours-denmark-coarse.geojson"},"geometry":{"type":"LineString","coordinates":[[9.315001,56.551114],[9.295,56.550006],[9.29,56.5545],[9.283409,56.565],[9.295,56.598636],[9.29,56.605023]]}},{"type":"Feature","properties":{"depth":2,"source":"DDM 2024 coarse contour","resolution":"0.005 degree sampled grid","scope":"denmark","tileSource":"contours-denmark-coarse.geojson"},"geometry":{"type":"LineString","coordinates":[[9.135,56.615002],[9.120833,56.61],[9.13,56.603182],[9.136316,56.605],[9.142,56.61],[9.135,56.615002]]}},{"type":"Feature","properties":{"depth":2,"source":"DDM 2024 coarse contour","resolution":"0.005 degree sampled grid","scope":"denmark","tileSource":"contours-denmark-coarse.geojson"},"geometry":{"type":"LineString","coordinates":[[8.885,56.711429],[8.877159,56.705],[8.89119,56.695],[8.904706,56.695],[8.915,56.704],[8.905,56.708333],[8.89,56.705018],[8.885,56.711429]]}},{"type":"Feature","properties":{"depth":2,"source":"DDM 2024 coarse contour","resolution":"0.005 degree sampled grid","scope":"denmark","tileSource":"contours-denmark-coarse.geojson"},"geometry":{"type":"LineString","coordinates":[[9.195,56.73],[9.2,56.724273],[9.185,56.715032],[9.18,56.72],[9.185026,56.725],[9.185,56.73],[9.195,56.73]]}},{"type":"Feature","properties":{"depth":3,"source":"DDM 2024 coarse contour","resolution":"0.005 degree sampled grid","scope":"denmark","tileSource":"contours-denmark-coarse.geojson"},"geometry":{"type":"LineString","coordinates":[[8.839999,56.690789],[8.84,56.690789],[8.85,56.697404],[8.854464,56.695],[8.865,56.696719],[8.868095,56.705],[8.86,56.708788],[8.855,56.705013],[8.839999,56.705008]]}},{"type":"Feature","properties":{"depth":3,"source":"DDM 2024 coarse contour","resolution":"0.005 degree sampled grid","scope":"denmark","tileSource":"contours-denmark-coarse.geojson"},"geometry":{"type":"LineString","coordinates":[[8.839999,56.728833],[8.849595,56.74],[8.854738,56.745001]]}},{"type":"Feature","properties":{"depth":3,"source":"DDM 2024 coarse contour","resolution":"0.005 degree sampled grid","scope":"denmark","tileSource":"contours-denmark-coarse.geojson"},"geometry":{"type":"LineString","coordinates":[[9.132916,56.745001],[9.132917,56.745],[9.17,56.71709],[9.175,56.715814],[9.179,56.72],[9.184231,56.73],[9.18,56.735063],[9.195,56.730521],[9.200929,56.725],[9.185,56.715027],[9.18,56.719328],[9.175538,56.715],[9.176132,56.71],[9.17,56.705039],[9.152755,56.7],[9.136554,56.69],[9.124994,56.68],[9.115,56.665005],[9.11,56.662838],[9.10125,56.665],[9.102174,56.65],[9.105625,56.645],[9.1,56.640012],[9.09,56.642391],[9.06,56.628684],[9.048824,56.61],[9.048269,56.6],[9.05,56.587143],[9.059998,56.575],[9.06,56.571],[9.07,56.569286],[9.079167,56.575],[9.085,56.603125],[9.1,56.611364],[9.115625,56.615],[9.09,56.62],[9.121667,56.63],[9.145,56.661667],[9.152,56.66],[9.16,56.65],[9.155,56.63913],[9.16,56.630208],[9.165,56.627927],[9.19,56.626944],[9.21,56.634991],[9.22,56.63],[9.244,56.635],[9.249,56.64],[9.265,56.640543],[9.27,56.633269],[9.28,56.631125],[9.283,56.625],[9.3,56.610982],[9.3105,56.64],[9.311711,56.66],[9.299643,56.68],[9.285,56.690577],[9.265,56.691667],[9.24,56.68],[9.234375,56.685],[9.215,56.675009],[9.191724,56.67],[9.18,56.66275],[9.17,56.665003],[9.156842,56.675],[9.155714,56.68],[9.162206,56.685],[9.175,56.689999],[9.185,56.699947],[9.199082,56.705],[9.21,56.714987],[9.221585,56.72],[9.23339,56.735],[9.237,56.745],[9.237,56.745001]]}},{"type":"Feature","properties":{"depth":3,"source":"DDM 2024 coarse contour","resolution":"0.005 degree sampled grid","scope":"denmark","tileSource":"contours-denmark-coarse.geojson"},"geometry":{"type":"LineString","coordinates":[[9.29,56.605018],[9.2775,56.585],[9.27,56.58],[9.276667,56.575],[9.274583,56.57],[9.2775,56.56],[9.285,56.551667],[9.285,56.561458],[9.281136,56.565],[9.292547,56.595],[9.29,56.605018]]}},{"type":"Feature","properties":{"depth":3,"source":"DDM 2024 coarse contour","resolution":"0.005 degree sampled grid","scope":"denmark","tileSource":"contours-denmark-coarse.geojson"},"geometry":{"type":"LineString","coordinates":[[9.135,56.612],[9.123611,56.61],[9.135,56.607778],[9.138333,56.61],[9.135,56.612]]}},{"type":"Feature","properties":{"depth":3,"source":"DDM 2024 coarse contour","resolution":"0.005 degree sampled grid","scope":"denmark","tileSource":"contours-denmark-coarse.geojson"},"geometry":{"type":"LineString","coordinates":[[8.91,56.705012],[8.9,56.707549],[8.89,56.705013],[8.885,56.708],[8.878295,56.705],[8.885,56.703846],[8.893571,56.695],[8.9,56.694997],[8.913636,56.705],[8.91,56.705012]]}},{"type":"Feature","properties":{"depth":5,"source":"DDM 2024 coarse contour","resolution":"0.005 degree sampled grid","scope":"denmark","tileSource":"contours-denmark-coarse.geojson"},"geometry":{"type":"LineString","coordinates":[[8.839999,56.696523],[8.845,56.698472],[8.86,56.697143],[8.865,56.699844],[8.86,56.705758],[8.84,56.705],[8.839999,56.705]]}},{"type":"Feature","properties":{"depth":5,"source":"DDM 2024 coarse contour","resolution":"0.005 degree sampled grid","scope":"denmark","tileSource":"contours-denmark-coarse.geojson"},"geometry":{"type":"LineString","coordinates":[[8.839999,56.729799],[8.848919,56.74],[8.854975,56.745001]]}},{"type":"Feature","properties":{"depth":5,"source":"DDM 2024 coarse contour","resolution":"0.005 degree sampled grid","scope":"denmark","tileSource":"contours-denmark-coarse.geojson"},"geometry":{"type":"LineString","coordinates":[[9.135676,56.745001],[9.17,56.718582],[9.175,56.71814],[9.182692,56.73],[9.17,56.7412],[9.195,56.731562],[9.201643,56.725],[9.185,56.715017],[9.18,56.717836],[9.175,56.707982],[9.154796,56.7],[9.131957,56.685],[9.125,56.678788],[9.12,56.667759],[9.105714,56.655],[9.104348,56.65],[9.108125,56.645],[9.105,56.641429],[9.085,56.64],[9.08,56.635],[9.08,56.63],[9.072143,56.625],[9.075,56.616667],[9.08,56.621667],[9.115294,56.63],[9.145,56.663627],[9.161316,56.655],[9.163654,56.65],[9.159643,56.635],[9.1675,56.63],[9.19,56.628796],[9.205,56.637667],[9.225,56.63402],[9.245,56.643077],[9.265,56.642717],[9.295,56.623125],[9.296212,56.615],[9.3,56.612768],[9.301812,56.615],[9.306818,56.66],[9.3,56.675],[9.29,56.685],[9.26,56.685595],[9.24,56.676],[9.23,56.68],[9.21,56.671176],[9.195833,56.67],[9.18,56.661083],[9.1674,56.665],[9.154268,56.675],[9.153684,56.68],[9.16,56.685325],[9.175,56.690667],[9.185,56.699957],[9.198061,56.705],[9.219444,56.72],[9.231695,56.735],[9.234574,56.745],[9.234574,56.745001]]}},{"type":"Feature","properties":{"depth":5,"source":"DDM 2024 coarse contour","resolution":"0.005 degree sampled grid","scope":"denmark","tileSource":"contours-denmark-coarse.geojson"},"geometry":{"type":"LineString","coordinates":[[8.91,56.705002],[8.888696,56.705],[8.905,56.699559],[8.91,56.705002]]}},{"type":"Feature","properties":{"depth":10,"source":"DDM 2024 coarse contour","resolution":"0.005 degree sampled grid","scope":"denmark","tileSource":"contours-denmark-coarse.geojson"},"geometry":{"type":"LineString","coordinates":[[8.842016,56.745001],[8.842015,56.745],[8.839999,56.743314]]}},{"type":"Feature","properties":{"depth":10,"source":"DDM 2024 coarse contour","resolution":"0.005 degree sampled grid","scope":"denmark","tileSource":"contours-denmark-coarse.geojson"},"geometry":{"type":"LineString","coordinates":[[8.839999,56.730464],[8.854012,56.745001]]}},{"type":"Feature","properties":{"depth":10,"source":"DDM 2024 coarse contour","resolution":"0.005 degree sampled grid","scope":"denmark","tileSource":"contours-denmark-coarse.geojson"},"geometry":{"type":"LineString","coordinates":[[9.153331,56.745001],[9.153333,56.745],[9.155,56.734931],[9.165,56.73125],[9.165696,56.74],[9.175,56.744254],[9.19,56.737899],[9.203429,56.725],[9.195,56.71483],[9.185,56.71],[9.18,56.7125],[9.175,56.705688],[9.159706,56.7],[9.14625,56.685],[9.15,56.682353],[9.18645,56.7],[9.185,56.71],[9.19,56.702703],[9.19551,56.705],[9.221818,56.73],[9.22,56.745],[9.219996,56.745001]]}},{"type":"Feature","properties":{"depth":15,"source":"DDM 2024 coarse contour","resolution":"0.005 degree sampled grid","scope":"denmark","tileSource":"contours-denmark-coarse.geojson"},"geometry":{"type":"LineString","coordinates":[[9.18,56.704583],[9.166452,56.695],[9.1844,56.7],[9.18,56.704583]]}},{"type":"Feature","properties":{"depth":15,"source":"DDM 2024 coarse contour","resolution":"0.005 degree sampled grid","scope":"denmark","tileSource":"contours-denmark-coarse.geojson"},"geometry":{"type":"LineString","coordinates":[[9.21,56.726364],[9.199492,56.715],[9.2,56.71],[9.210217,56.72],[9.21,56.726364]]}}]}