{"type":"FeatureCollection","name":"DDM contour tile r05_c07","bbox":[10.76,56.75,11.235,57.225],"metadata":{"schema":"waternav-ddm-contour-tile-v1","version":"v46.0","tileId":"r05_c07","source":"Danmarks Dybdemodel 2024 ddm_50m.dybde.tiff via bundled DDM contour GeoJSON files"},"features":[{"type":"Feature","properties":{"depth":1,"source":"DDM 2024 coarse contour","resolution":"0.005 degree sampled grid","scope":"denmark","tileSource":"contours-denmark-coarse.geojson"},"geometry":{"type":"LineString","coordinates":[[11.127,57.225001],[11.127,57.225],[11.131667,57.22],[11.125,57.21875],[11.12,57.209286],[11.11,57.216923],[11.090833,57.195],[11.07,57.185],[11.065,57.185625],[11.06,57.179773],[11.035,57.172143],[11.005,57.171667],[11,57.176],[10.995,57.17],[10.98,57.172895],[10.975,57.168824],[10.965,57.169],[10.96,57.164524],[10.935,57.170833],[10.92,57.176667],[10.915833,57.205],[10.902166,57.225001]]}},{"type":"Feature","properties":{"depth":2,"source":"DDM 2024 coarse contour","resolution":"0.005 degree sampled grid","scope":"denmark","tileSource":"contours-denmark-coarse.geojson"},"geometry":{"type":"LineString","coordinates":[[11.150002,57.225001],[11.15,57.225],[11.145909,57.215],[11.14,57.214231],[11.13,57.206071],[11.125,57.208182],[11.12,57.201667],[11.105,57.198462],[11.06,57.1775],[11.056563,57.175],[11.06,57.17],[11.05,57.173333],[11.046087,57.17],[11.050833,57.165],[11.045,57.168214],[11.025,57.159333],[11.023,57.16],[11.025,57.165],[11.02,57.167667],[11.01,57.159167],[10.985,57.164],[10.985,57.171458],[10.96,57.162143],[10.94,57.164063],[10.915,57.173333],[10.915667,57.19],[10.91,57.2],[10.9105,57.205],[10.895,57.224],[10.89,57.22],[10.894167,57.225],[10.894167,57.225001]]}},{"type":"Feature","properties":{"depth":2,"source":"DDM 2024 coarse contour","resolution":"0.005 degree sampled grid","scope":"denmark","tileSource":"contours-denmark-coarse.geojson"},"geometry":{"type":"LineString","coordinates":[[11.17125,57.2],[11.175417,57.195],[11.175,57.19],[11.17,57.196667],[11.165,57.19],[11.175,57.18],[11.1425,57.175],[11.143333,57.18],[11.152917,57.19],[11.149444,57.195],[11.165,57.2025],[11.17125,57.2]]}},{"type":"Feature","properties":{"depth":3,"source":"DDM 2024 coarse contour","resolution":"0.005 degree sampled grid","scope":"denmark","tileSource":"contours-denmark-coarse.geojson"},"geometry":{"type":"LineString","coordinates":[[11.166667,57.225001],[11.166667,57.225],[11.166652,57.225001]]}},{"type":"Feature","properties":{"depth":3,"source":"DDM 2024 coarse contour","resolution":"0.005 degree sampled grid","scope":"denmark","tileSource":"contours-denmark-coarse.geojson"},"geometry":{"type":"LineString","coordinates":[[11.159792,57.225001],[11.1575,57.22],[11.16,57.215],[11.165,57.216667],[11.18,57.21],[11.18,57.194167],[11.19,57.1975],[11.192143,57.195],[11.19,57.18],[11.185,57.182273],[11.1825,57.18],[11.185,57.169],[11.175,57.165],[11.16,57.1675],[11.155,57.165],[11.1225,57.17],[11.135,57.1725],[11.136923,57.175],[11.133182,57.18],[11.147857,57.19],[11.143333,57.195],[11.156875,57.205],[11.156111,57.21],[11.16,57.215],[11.155,57.219],[11.129286,57.2],[11.115,57.197647],[11.11,57.193333],[11.1,57.192308],[11.075,57.181154],[11.077143,57.17],[11.065,57.164333],[11.015,57.151818],[11.005,57.153333],[11,57.14875],[10.995,57.152],[10.975,57.15125],[10.97,57.14625],[10.925,57.153571],[10.915,57.165],[10.91,57.185],[10.89125,57.2],[10.887857,57.21],[10.8775,57.215],[10.875,57.225],[10.87,57.225],[10.88,57.225],[10.88,57.225001]]}},{"type":"Feature","properties":{"depth":3,"source":"DDM 2024 coarse contour","resolution":"0.005 degree sampled grid","scope":"denmark","tileSource":"contours-denmark-coarse.geojson"},"geometry":{"type":"LineString","coordinates":[[10.955,57.160263],[10.937,57.16],[10.95,57.1575],[10.96,57.151667],[10.9625,57.155],[10.96,57.158333],[10.955,57.155],[10.9575,57.16],[10.955,57.160263]]}},{"type":"Feature","properties":{"depth":5,"source":"DDM 2024 coarse contour","resolution":"0.005 degree sampled grid","scope":"denmark","tileSource":"contours-denmark-coarse.geojson"},"geometry":{"type":"LineString","coordinates":[[11.140455,57.04],[11.145,57.031667],[11.151667,57.03],[11.14,57.024],[11.13,57.035],[11.135,57.03],[11.140455,57.04]]}},{"type":"Feature","properties":{"depth":5,"source":"DDM 2024 coarse contour","resolution":"0.005 degree sampled grid","scope":"denmark","tileSource":"contours-denmark-coarse.geojson"},"geometry":{"type":"LineString","coordinates":[[11.0225,57.065],[11.0325,57.055],[11.025,57.0475],[11.023571,57.05],[11.027857,57.055],[11.025,57.057857],[11.02,57.058889],[11.015,57.055],[11.005833,57.06],[11.005,57.065],[11.0225,57.065]]}},{"type":"Feature","properties":{"depth":5,"source":"DDM 2024 coarse contour","resolution":"0.005 degree sampled grid","scope":"denmark","tileSource":"contours-denmark-coarse.geojson"},"geometry":{"type":"LineString","coordinates":[[11.235001,57.196249],[11.23,57.2],[11.235,57.195],[11.235001,57.195002]]}},{"type":"Feature","properties":{"depth":5,"source":"DDM 2024 coarse contour","resolution":"0.005 degree sampled grid","scope":"denmark","tileSource":"contours-denmark-coarse.geojson"},"geometry":{"type":"LineString","coordinates":[[11.235001,57.200666],[11.225,57.203333],[11.223125,57.185],[11.225,57.1825],[11.235,57.185],[11.235001,57.184995]]}},{"type":"Feature","properties":{"depth":5,"source":"DDM 2024 coarse contour","resolution":"0.005 degree sampled grid","scope":"denmark","tileSource":"contours-denmark-coarse.geojson"},"geometry":{"type":"LineString","coordinates":[[11.235001,57.156482],[11.23,57.155],[11.22,57.144444],[11.215,57.145],[11.22,57.15],[11.195,57.163571],[11.189706,57.155],[11.186786,57.135],[11.181111,57.13],[11.175,57.116],[11.17,57.1125],[11.165,57.125833],[11.1575,57.12],[11.1625,57.115],[11.15625,57.11],[11.16,57.105],[11.154,57.11],[11.158333,57.115],[11.15,57.121667],[11.135,57.108333],[11.125,57.114444],[11.1325,57.125],[11.125,57.129167],[11.11,57.125],[11.114,57.135],[11.11,57.138333],[11.105833,57.13],[11.11,57.125],[11.105,57.128333],[11.1,57.1275],[11.0975,57.13],[11.1,57.135],[11.09,57.135],[11.093889,57.15],[11.09,57.1535],[11.085,57.148],[11.08,57.151923],[11.075,57.148077],[11.07,57.152],[11.065,57.1375],[11.055,57.1345],[11.05,57.136429],[11.045,57.127667],[11.03,57.123333],[11.026667,57.125],[11.028125,57.13],[11.025,57.135],[11.02,57.124167],[11.015,57.132222],[11.01,57.128333],[11.005,57.131111],[11,57.126765],[10.995,57.128889],[10.99,57.1245],[10.975,57.123571],[10.97,57.1195],[10.96,57.1225],[10.955,57.12],[10.925,57.122857],[10.92,57.131053],[10.915,57.125625],[10.9,57.127],[10.895,57.131818],[10.89,57.13],[10.891818,57.135],[10.885,57.1375],[10.88,57.144167],[10.8745,57.14],[10.8775,57.145],[10.875,57.165],[10.865,57.175],[10.86,57.195],[10.845,57.211875],[10.84125,57.21],[10.8415,57.2],[10.845,57.195],[10.835,57.196],[10.833571,57.2],[10.838182,57.205],[10.83875,57.21],[10.835,57.215],[10.837222,57.22],[10.845175,57.225001]]}},{"type":"Feature","properties":{"depth":5,"source":"DDM 2024 coarse contour","resolution":"0.005 degree sampled grid","scope":"denmark","tileSource":"contours-denmark-coarse.geojson"},"geometry":{"type":"LineString","coordinates":[[11.2075,57.12],[11.205,57.115],[11.195,57.115],[11.195,57.12],[11.2075,57.12]]}},{"type":"Feature","properties":{"depth":5,"source":"DDM 2024 coarse contour","resolution":"0.005 degree sampled grid","scope":"denmark","tileSource":"contours-denmark-coarse.geojson"},"geometry":{"type":"LineString","coordinates":[[11.04,57.141364],[11.025,57.135],[11.035,57.131538],[11.042,57.135],[11.04,57.141364]]}},{"type":"Feature","properties":{"depth":5,"source":"DDM 2024 coarse contour","resolution":"0.005 degree sampled grid","scope":"denmark","tileSource":"contours-denmark-coarse.geojson"},"geometry":{"type":"LineString","coordinates":[[11.115,57.14625],[11.10875,57.145],[11.12,57.13125],[11.124,57.14],[11.115,57.14625]]}},{"type":"Feature","properties":{"depth":5,"source":"DDM 2024 coarse contour","resolution":"0.005 degree sampled grid","scope":"denmark","tileSource":"contours-denmark-coarse.geojson"},"geometry":{"type":"LineString","coordinates":[[10.84625,57.19],[10.846429,57.185],[10.84,57.175],[10.838636,57.19],[10.845,57.195],[10.84625,57.19]]}},{"type":"Feature","properties":{"depth":5,"source":"DDM 2024 coarse contour","resolution":"0.005 degree sampled grid","scope":"denmark","tileSource":"contours-denmark-coarse.geojson"},"geometry":{"type":"LineString","coordinates":[[10.811429,57.22],[10.81,57.2125],[10.805,57.213333],[10.805,57.221667],[10.81,57.223333],[10.811429,57.22]]}},{"type":"Feature","properties":{"depth":10,"source":"DDM 2024 coarse contour","resolution":"0.005 degree sampled grid","scope":"denmark","tileSource":"contours-denmark-coarse.geojson"},"geometry":{"type":"LineString","coordinates":[[10.992143,56.785],[11.015,56.76675],[11.022702,56.749999]]}},{"type":"Feature","properties":{"depth":10,"source":"DDM 2024 coarse contour","resolution":"0.005 degree sampled grid","scope":"denmark","tileSource":"contours-denmark-coarse.geojson"},"geometry":{"type":"LineString","coordinates":[[11.018543,56.749999],[10.973333,56.785],[10.992143,56.785]]}},{"type":"Feature","properties":{"depth":10,"source":"DDM 2024 coarse contour","resolution":"0.005 degree sampled grid","scope":"denmark","tileSource":"contours-denmark-coarse.geojson"},"geometry":{"type":"LineString","coordinates":[[11.235001,56.965],[11.22375,56.96],[11.215714,56.945],[11.22,56.94],[11.21,56.948333],[11.205,56.94625],[11.208,56.94],[11.2,56.93],[11.195,56.937143],[11.188333,56.93],[11.193125,56.925],[11.19,56.921429],[11.18,56.92875],[11.17,56.926538],[11.155,56.935667],[11.135,56.937083],[11.13,56.944167],[11.1,56.91875],[11.095,56.926154],[11.07,56.913421],[11.045,56.912857],[11.025,56.905],[11,56.907857],[10.995,56.91875],[10.975,56.927857],[10.965,56.9275],[10.985,56.94],[10.979706,56.965],[10.98375,56.98],[10.98,56.9875],[10.956538,57],[10.948889,57.015],[10.935,57.024286],[10.93,57.03375],[10.935,57.03875],[10.95,57.038333],[10.950909,57.05],[10.925,57.048333],[10.9286,57.065],[10.925,57.0695],[10.915,57.067143],[10.905,57.078333],[10.885,57.078],[10.875,57.086667],[10.85,57.083333],[10.84,57.074444],[10.830625,57.1],[10.825,57.1],[10.82,57.112],[10.81,57.115],[10.801818,57.14],[10.806111,57.145],[10.8,57.14625],[10.76275,57.19],[10.78,57.223269],[10.781738,57.225001]]}},{"type":"Feature","properties":{"depth":10,"source":"DDM 2024 coarse contour","resolution":"0.005 degree sampled grid","scope":"denmark","tileSource":"contours-denmark-coarse.geojson"},"geometry":{"type":"LineString","coordinates":[[10.764,56.995],[10.784375,56.98],[10.793,56.96],[10.805909,56.95],[10.805,56.9225],[10.8,56.924],[10.800417,56.915],[10.795,56.909091],[10.77,56.911667],[10.759999,56.922581]]}},{"type":"Feature","properties":{"depth":10,"source":"DDM 2024 coarse contour","resolution":"0.005 degree sampled grid","scope":"denmark","tileSource":"contours-denmark-coarse.geojson"},"geometry":{"type":"LineString","coordinates":[[10.759999,56.997223],[10.764,56.995]]}},{"type":"Feature","properties":{"depth":10,"source":"DDM 2024 coarse contour","resolution":"0.005 degree sampled grid","scope":"denmark","tileSource":"contours-denmark-coarse.geojson"},"geometry":{"type":"LineString","coordinates":[[10.88,56.915],[10.86625,56.91],[10.875,56.92],[10.88,56.915]]}},{"type":"Feature","properties":{"depth":10,"source":"DDM 2024 coarse contour","resolution":"0.005 degree sampled grid","scope":"denmark","tileSource":"contours-denmark-coarse.geojson"},"geometry":{"type":"LineString","coordinates":[[10.92,57],[10.935833,56.99],[10.9442,56.97],[10.946136,56.96],[10.939286,56.935],[10.935,56.931842],[10.925,56.935],[10.925,56.945],[10.91,56.944667],[10.91125,56.95],[10.905,56.953333],[10.89,56.923571],[10.875,56.92],[10.887857,56.945],[10.895,56.985],[10.902692,57],[10.92,57]]}},{"type":"Feature","properties":{"depth":10,"source":"DDM 2024 coarse contour","resolution":"0.005 degree sampled grid","scope":"denmark","tileSource":"contours-denmark-coarse.geojson"},"geometry":{"type":"LineString","coordinates":[[11,56.967],[10.994286,56.96],[10.993929,56.945],[11.005,56.9295],[11.015,56.94],[11.017857,56.955],[11,56.967]]}},{"type":"Feature","properties":{"depth":10,"source":"DDM 2024 coarse contour","resolution":"0.005 degree sampled grid","scope":"denmark","tileSource":"contours-denmark-coarse.geojson"},"geometry":{"type":"LineString","coordinates":[[11.15,56.956667],[11.155,56.955],[11.155,56.943824],[11.155,56.955],[11.15,56.956667]]}},{"type":"Feature","properties":{"depth":10,"source":"DDM 2024 coarse contour","resolution":"0.005 degree sampled grid","scope":"denmark","tileSource":"contours-denmark-coarse.geojson"},"geometry":{"type":"LineString","coordinates":[[11.235001,56.942501],[11.235,56.9425],[11.235001,56.942502]]}},{"type":"Feature","properties":{"depth":10,"source":"DDM 2024 coarse contour","resolution":"0.005 degree sampled grid","scope":"denmark","tileSource":"contours-denmark-coarse.geojson"},"geometry":{"type":"LineString","coordinates":[[10.7925,57.03],[10.805,57.01625],[10.818,57.015],[10.829062,57.005],[10.827917,56.99],[10.815,56.977727],[10.804667,56.99],[10.799375,57.02],[10.78,57.035],[10.7925,57.03]]}},{"type":"Feature","properties":{"depth":10,"source":"DDM 2024 coarse contour","resolution":"0.005 degree sampled grid","scope":"denmark","tileSource":"contours-denmark-coarse.geojson"},"geometry":{"type":"LineString","coordinates":[[11.005,56.986364],[10.996875,56.985],[11,56.9755],[11.0075,56.98],[11.005,56.986364]]}},{"type":"Feature","properties":{"depth":15,"source":"DDM 2024 coarse contour","resolution":"0.005 degree sampled grid","scope":"denmark","tileSource":"contours-denmark-coarse.geojson"},"geometry":{"type":"LineString","coordinates":[[10.759999,57.106993],[10.761667,57.1],[10.777778,57.07],[10.79,57.056111],[10.796875,57.055],[10.775,57.110625],[10.767656,57.16],[10.759999,57.180456]]}},{"type":"Feature","properties":{"depth":15,"source":"DDM 2024 coarse contour","resolution":"0.005 degree sampled grid","scope":"denmark","tileSource":"contours-denmark-coarse.geojson"},"geometry":{"type":"LineString","coordinates":[[10.759999,57.201419],[10.76,57.201429],[10.769615,57.225],[10.769616,57.225001]]}},{"type":"Feature","properties":{"depth":15,"source":"DDM 2024 coarse contour","resolution":"0.005 degree sampled grid","scope":"denmark","tileSource":"contours-denmark-coarse.geojson"},"geometry":{"type":"LineString","coordinates":[[11.235001,56.826667],[11.235,56.826667],[11.228333,56.835],[11.235001,56.845347]]}},{"type":"Feature","properties":{"depth":15,"source":"DDM 2024 coarse contour","resolution":"0.005 degree sampled grid","scope":"denmark","tileSource":"contours-denmark-coarse.geojson"},"geometry":{"type":"LineString","coordinates":[[11.235001,56.885417],[11.225,56.882083],[11.222222,56.88],[11.2265,56.875],[11.22,56.873],[11.215,56.862333],[11.2,56.85],[11.195,56.835],[11.181667,56.835],[11.1875,56.845],[11.18,56.84875],[11.1725,56.845],[11.1775,56.835],[11.175,56.83],[11.165,56.83],[11.162,56.825],[11.166875,56.77],[11.18679,56.749999]]}},{"type":"Feature","properties":{"depth":15,"source":"DDM 2024 coarse contour","resolution":"0.005 degree sampled grid","scope":"denmark","tileSource":"contours-denmark-coarse.geojson"},"geometry":{"type":"LineString","coordinates":[[11.170977,56.749999],[11.153333,56.765],[11.135,56.767],[11.129615,56.76],[11.146,56.75],[11.146,56.749999]]}},{"type":"Feature","properties":{"depth":15,"source":"DDM 2024 coarse contour","resolution":"0.005 degree sampled grid","scope":"denmark","tileSource":"contours-denmark-coarse.geojson"},"geometry":{"type":"LineString","coordinates":[[11.095,56.749999],[11.095,56.75],[11.087,56.75],[11.087,56.749999]]}},{"type":"Feature","properties":{"depth":15,"source":"DDM 2024 coarse contour","resolution":"0.005 degree sampled grid","scope":"denmark","tileSource":"contours-denmark-coarse.geojson"},"geometry":{"type":"LineString","coordinates":[[11.055,56.798333],[11.035,56.795],[11.055,56.7925],[11.059,56.795],[11.055,56.798333]]}},{"type":"Feature","properties":{"depth":15,"source":"DDM 2024 coarse contour","resolution":"0.005 degree sampled grid","scope":"denmark","tileSource":"contours-denmark-coarse.geojson"},"geometry":{"type":"LineString","coordinates":[[11.005,56.8315],[10.995,56.830625],[10.995,56.825],[11.01,56.812692],[11.045,56.80125],[11.0775,56.8],[11.07,56.8],[11.07,56.807143],[11.05,56.81],[11.04,56.818333],[11.005,56.8315]]}},{"type":"Feature","properties":{"depth":15,"source":"DDM 2024 coarse contour","resolution":"0.005 degree sampled grid","scope":"denmark","tileSource":"contours-denmark-coarse.geojson"},"geometry":{"type":"LineString","coordinates":[[11.145,56.887],[11.1175,56.885],[11.122,56.88],[11.111667,56.875],[11.115,56.865],[11.105,56.86375],[11.1,56.87],[11.077,56.855],[11.08125,56.85],[11.078333,56.845],[11.115,56.836667],[11.13,56.84],[11.15,56.834167],[11.16,56.8365],[11.175,56.85375],[11.18,56.851667],[11.181667,56.86],[11.17,56.861],[11.16,56.88],[11.145,56.887]]}},{"type":"Feature","properties":{"depth":20,"source":"DDM 2024 coarse contour","resolution":"0.005 degree sampled grid","scope":"denmark","tileSource":"contours-denmark-coarse.geojson"},"geometry":{"type":"LineString","coordinates":[[10.76,57.176071],[10.759999,57.176068]]}},{"type":"Feature","properties":{"depth":20,"source":"DDM 2024 coarse contour","resolution":"0.005 degree sampled grid","scope":"denmark","tileSource":"contours-denmark-coarse.geojson"},"geometry":{"type":"LineString","coordinates":[[10.759999,57.156365],[10.76,57.156364],[10.76,57.176071]]}}]}