{"type":"FeatureCollection","name":"DDM contour tile r01_c17","bbox":[15.56,54.83,16.035,55.305],"metadata":{"schema":"waternav-ddm-contour-tile-v1","version":"v45.6","tileId":"r01_c17","source":"Danmarks Dybdemodel 2024 ddm_50m.dybde.tiff via bundled DDM contour GeoJSON files"},"features":[{"type":"Feature","properties":{"depth":1,"source":"DDM 2024 coarse contour","resolution":"0.005 degree sampled grid","scope":"denmark","tileSource":"contours-denmark-coarse.geojson"},"geometry":{"type":"LineString","coordinates":[[15.840322,54.829999],[15.840323,54.83],[15.840325,54.835],[15.870336,54.87],[15.870337,54.875],[15.915344,54.925],[15.915345,54.93],[15.940348,54.955],[15.94035,54.96],[15.970353,54.99],[15.960334,55.005],[15.960318,55.02],[15.955325,55.025],[15.955339,55.045],[15.950347,55.05],[15.950362,55.075],[15.94537,55.08],[15.945381,55.1],[15.940388,55.105],[15.940404,55.135],[15.965407,55.165],[15.965407,55.17],[15.980408,55.185],[15.980408,55.19],[15.995409,55.205],[15.995409,55.21],[16.010411,55.225],[16.010411,55.23],[16.020412,55.24],[16.020414,55.25],[16.025,55.254585],[16.035,55.254592],[16.035001,55.254593]]}},{"type":"Feature","properties":{"depth":2,"source":"DDM 2024 coarse contour","resolution":"0.005 degree sampled grid","scope":"denmark","tileSource":"contours-denmark-coarse.geojson"},"geometry":{"type":"LineString","coordinates":[[15.840317,54.829999],[15.840318,54.83],[15.84032,54.835],[15.870331,54.87],[15.870332,54.875],[15.915339,54.925],[15.91534,54.93],[15.940344,54.955],[15.940345,54.96],[15.970349,54.99],[15.960329,55.005],[15.960314,55.02],[15.955321,55.025],[15.955334,55.045],[15.950342,55.05],[15.950357,55.075],[15.945365,55.08],[15.945376,55.1],[15.940384,55.105],[15.9404,55.135],[15.965402,55.165],[15.965402,55.17],[15.980404,55.185],[15.980404,55.19],[15.995405,55.205],[15.995405,55.21],[16.010407,55.225],[16.010407,55.23],[16.020407,55.24],[16.020409,55.25],[16.025,55.25459],[16.035,55.254597],[16.035001,55.254598]]}},{"type":"Feature","properties":{"depth":3,"source":"DDM 2024 coarse contour","resolution":"0.005 degree sampled grid","scope":"denmark","tileSource":"contours-denmark-coarse.geojson"},"geometry":{"type":"LineString","coordinates":[[15.840313,54.829999],[15.840314,54.83],[15.840316,54.835],[15.870326,54.87],[15.870327,54.875],[15.915335,54.925],[15.915336,54.93],[15.940339,54.955],[15.94034,54.96],[15.970344,54.99],[15.960325,55.005],[15.960309,55.02],[15.955316,55.025],[15.95533,55.045],[15.950337,55.05],[15.950353,55.075],[15.94536,55.08],[15.945372,55.1],[15.940379,55.105],[15.940395,55.135],[15.965398,55.165],[15.965398,55.17],[15.980399,55.185],[15.980399,55.19],[15.9954,55.205],[15.9954,55.21],[16.010402,55.225],[16.010402,55.23],[16.020403,55.24],[16.020405,55.25],[16.025,55.254595],[16.035,55.254601],[16.035001,55.254602]]}},{"type":"Feature","properties":{"depth":5,"source":"DDM 2024 coarse contour","resolution":"0.005 degree sampled grid","scope":"denmark","tileSource":"contours-denmark-coarse.geojson"},"geometry":{"type":"LineString","coordinates":[[15.840303,54.829999],[15.840304,54.83],[15.840306,54.835],[15.870317,54.87],[15.870318,54.875],[15.915325,54.925],[15.915326,54.93],[15.94033,54.955],[15.940331,54.96],[15.970335,54.99],[15.960315,55.005],[15.9603,55.02],[15.955307,55.025],[15.95532,55.045],[15.950328,55.05],[15.950343,55.075],[15.945351,55.08],[15.945363,55.1],[15.94037,55.105],[15.940386,55.135],[15.965389,55.165],[15.965389,55.17],[15.98039,55.185],[15.98039,55.19],[15.995391,55.205],[15.995391,55.21],[16.010393,55.225],[16.010393,55.23],[16.020394,55.24],[16.020395,55.25],[16.025,55.254604],[16.035,55.254611],[16.035001,55.254612]]}},{"type":"Feature","properties":{"depth":10,"source":"DDM 2024 coarse contour","resolution":"0.005 degree sampled grid","scope":"denmark","tileSource":"contours-denmark-coarse.geojson"},"geometry":{"type":"LineString","coordinates":[[15.840281,54.829999],[15.870295,54.875],[15.970311,54.99],[15.960292,55.005],[15.960276,55.02],[15.955283,55.025],[15.95032,55.075],[15.945328,55.08],[15.945339,55.1],[15.940347,55.105],[15.940363,55.135],[16.01037,55.225],[16.020371,55.24],[16.020372,55.25],[16.035001,55.257183]]}},{"type":"Feature","properties":{"depth":15,"source":"DDM 2024 coarse contour","resolution":"0.005 degree sampled grid","scope":"denmark","tileSource":"contours-denmark-coarse.geojson"},"geometry":{"type":"LineString","coordinates":[[15.840257,54.829999],[15.870271,54.875],[15.970288,54.99],[15.960269,55.005],[15.960253,55.02],[15.95526,55.025],[15.950297,55.075],[15.945305,55.08],[15.945316,55.1],[15.940324,55.105],[15.94034,55.135],[16.010347,55.225],[16.020348,55.24],[16.020349,55.25],[16.035001,55.257203]]}},{"type":"Feature","properties":{"depth":20,"source":"DDM 2024 coarse contour","resolution":"0.005 degree sampled grid","scope":"denmark","tileSource":"contours-denmark-coarse.geojson"},"geometry":{"type":"LineString","coordinates":[[15.840234,54.829999],[15.870248,54.875],[15.970265,54.99],[15.960245,55.005],[15.960229,55.02],[15.955237,55.025],[15.950274,55.075],[15.945282,55.08],[15.945293,55.1],[15.940301,55.105],[15.940317,55.135],[16.010324,55.225],[16.020325,55.24],[16.020327,55.25],[16.035001,55.257223]]}},{"type":"Feature","properties":{"depth":30,"source":"DDM 2024 coarse contour","resolution":"0.005 degree sampled grid","scope":"denmark","tileSource":"contours-denmark-coarse.geojson"},"geometry":{"type":"LineString","coordinates":[[15.840187,54.829999],[15.870201,54.875],[15.970218,54.99],[15.960199,55.005],[15.960183,55.02],[15.95519,55.025],[15.950227,55.075],[15.945235,55.08],[15.945247,55.1],[15.940255,55.105],[15.940271,55.135],[16.010278,55.225],[16.020279,55.24],[16.020281,55.25],[16.035001,55.257263]]}},{"type":"Feature","properties":{"depth":50,"source":"DDM 2024 coarse contour","resolution":"0.005 degree sampled grid","scope":"denmark","tileSource":"contours-denmark-coarse.geojson"},"geometry":{"type":"LineString","coordinates":[[15.840093,54.829999],[15.870108,54.875],[15.970125,54.99],[15.960105,55.005],[15.960089,55.02],[15.955096,55.025],[15.950135,55.075],[15.945143,55.08],[15.945155,55.1],[15.940162,55.105],[15.940179,55.135],[16.010186,55.225],[16.020187,55.24],[16.020189,55.25],[16.035001,55.257344]]}}]}