{"type":"FeatureCollection","name":"DDM contour tile r01_c14","bbox":[14.12,54.83,14.595,55.305],"metadata":{"schema":"waternav-ddm-contour-tile-v1","version":"v45.6","tileId":"r01_c14","source":"Danmarks Dybdemodel 2024 ddm_50m.dybde.tiff via bundled DDM contour GeoJSON files"},"features":[{"type":"Feature","properties":{"depth":1,"source":"DDM 2024 coarse contour","resolution":"0.005 degree sampled grid","scope":"denmark","tileSource":"contours-denmark-coarse.geojson"},"geometry":{"type":"LineString","coordinates":[[14.449773,55.305001],[14.435,55.290203],[14.43,55.290206],[14.415,55.275204],[14.41,55.275208],[14.395,55.260202],[14.39,55.260203],[14.355,55.230204],[14.35,55.230202],[14.34,55.220204],[14.335,55.220204],[14.3,55.190216],[14.295,55.190217],[14.28,55.175217],[14.275,55.175217],[14.26,55.160218],[14.255,55.160218],[14.24,55.145218],[14.235,55.145218],[14.22,55.130219],[14.215,55.130218],[14.2,55.11522],[14.195,55.115219],[14.18,55.100222],[14.175,55.100221],[14.16,55.085222],[14.155,55.085222],[14.14,55.070223],[14.135,55.070223],[14.12,55.055223],[14.119999,55.055223]]}},{"type":"Feature","properties":{"depth":1,"source":"DDM 2024 coarse contour","resolution":"0.005 degree sampled grid","scope":"denmark","tileSource":"contours-denmark-coarse.geojson"},"geometry":{"type":"LineString","coordinates":[[14.119999,54.854824],[14.12,54.854823],[14.125,54.854824],[14.145,54.834844],[14.15,54.834844],[14.154849,54.829999]]}},{"type":"Feature","properties":{"depth":2,"source":"DDM 2024 coarse contour","resolution":"0.005 degree sampled grid","scope":"denmark","tileSource":"contours-denmark-coarse.geojson"},"geometry":{"type":"LineString","coordinates":[[14.449778,55.305001],[14.435,55.290199],[14.43,55.290201],[14.415,55.275199],[14.41,55.275204],[14.395,55.260198],[14.39,55.260198],[14.355,55.230199],[14.35,55.230197],[14.34,55.2202],[14.335,55.2202],[14.3,55.190211],[14.295,55.190212],[14.28,55.175212],[14.275,55.175212],[14.26,55.160213],[14.255,55.160213],[14.24,55.145213],[14.235,55.145213],[14.22,55.130214],[14.215,55.130213],[14.2,55.115216],[14.195,55.115215],[14.18,55.100217],[14.175,55.100216],[14.16,55.085217],[14.155,55.085217],[14.14,55.070218],[14.135,55.070218],[14.12,55.055218],[14.119999,55.055218]]}},{"type":"Feature","properties":{"depth":2,"source":"DDM 2024 coarse contour","resolution":"0.005 degree sampled grid","scope":"denmark","tileSource":"contours-denmark-coarse.geojson"},"geometry":{"type":"LineString","coordinates":[[14.119999,54.854829],[14.12,54.854828],[14.125,54.854829],[14.145,54.834849],[14.15,54.834848],[14.154853,54.829999]]}},{"type":"Feature","properties":{"depth":3,"source":"DDM 2024 coarse contour","resolution":"0.005 degree sampled grid","scope":"denmark","tileSource":"contours-denmark-coarse.geojson"},"geometry":{"type":"LineString","coordinates":[[14.449782,55.305001],[14.435,55.290194],[14.43,55.290197],[14.415,55.275194],[14.41,55.275199],[14.395,55.260193],[14.39,55.260193],[14.355,55.230194],[14.35,55.230192],[14.34,55.220195],[14.335,55.220195],[14.3,55.190207],[14.295,55.190208],[14.28,55.175208],[14.275,55.175208],[14.26,55.160208],[14.255,55.160208],[14.24,55.145208],[14.235,55.145208],[14.22,55.130209],[14.215,55.130208],[14.2,55.115211],[14.195,55.11521],[14.18,55.100212],[14.175,55.100211],[14.16,55.085212],[14.155,55.085213],[14.14,55.070214],[14.135,55.070214],[14.12,55.055214],[14.119999,55.055214]]}},{"type":"Feature","properties":{"depth":3,"source":"DDM 2024 coarse contour","resolution":"0.005 degree sampled grid","scope":"denmark","tileSource":"contours-denmark-coarse.geojson"},"geometry":{"type":"LineString","coordinates":[[14.119999,54.854834],[14.12,54.854833],[14.125,54.854834],[14.145,54.834854],[14.15,54.834853],[14.154858,54.829999]]}},{"type":"Feature","properties":{"depth":5,"source":"DDM 2024 coarse contour","resolution":"0.005 degree sampled grid","scope":"denmark","tileSource":"contours-denmark-coarse.geojson"},"geometry":{"type":"LineString","coordinates":[[14.449792,55.305001],[14.435,55.290184],[14.43,55.290187],[14.415,55.275185],[14.41,55.275189],[14.395,55.260183],[14.39,55.260184],[14.355,55.230185],[14.35,55.230183],[14.34,55.220185],[14.335,55.220185],[14.3,55.190197],[14.295,55.190198],[14.28,55.175198],[14.275,55.175198],[14.26,55.160198],[14.255,55.160198],[14.24,55.145199],[14.235,55.145199],[14.22,55.1302],[14.215,55.130199],[14.2,55.115201],[14.195,55.1152],[14.18,55.100203],[14.175,55.100202],[14.16,55.085203],[14.155,55.085203],[14.14,55.070204],[14.135,55.070204],[14.12,55.055204],[14.119999,55.055204]]}},{"type":"Feature","properties":{"depth":5,"source":"DDM 2024 coarse contour","resolution":"0.005 degree sampled grid","scope":"denmark","tileSource":"contours-denmark-coarse.geojson"},"geometry":{"type":"LineString","coordinates":[[14.119999,54.854844],[14.12,54.854843],[14.125,54.854844],[14.145,54.834863],[14.15,54.834863],[14.154868,54.829999]]}},{"type":"Feature","properties":{"depth":10,"source":"DDM 2024 coarse contour","resolution":"0.005 degree sampled grid","scope":"denmark","tileSource":"contours-denmark-coarse.geojson"},"geometry":{"type":"LineString","coordinates":[[14.449767,55.305001],[14.355,55.230161],[14.335,55.220161],[14.119999,55.058923]]}},{"type":"Feature","properties":{"depth":10,"source":"DDM 2024 coarse contour","resolution":"0.005 degree sampled grid","scope":"denmark","tileSource":"contours-denmark-coarse.geojson"},"geometry":{"type":"LineString","coordinates":[[14.119999,54.858621],[14.152736,54.829999]]}},{"type":"Feature","properties":{"depth":15,"source":"DDM 2024 coarse contour","resolution":"0.005 degree sampled grid","scope":"denmark","tileSource":"contours-denmark-coarse.geojson"},"geometry":{"type":"LineString","coordinates":[[14.449797,55.305001],[14.355,55.230137],[14.335,55.220137],[14.119999,55.058899]]}},{"type":"Feature","properties":{"depth":15,"source":"DDM 2024 coarse contour","resolution":"0.005 degree sampled grid","scope":"denmark","tileSource":"contours-denmark-coarse.geojson"},"geometry":{"type":"LineString","coordinates":[[14.119999,54.858646],[14.152764,54.829999]]}},{"type":"Feature","properties":{"depth":15,"source":"DDM 2024 coarse contour","resolution":"0.005 degree sampled grid","scope":"denmark","tileSource":"contours-denmark-coarse.geojson"},"geometry":{"type":"LineString","coordinates":[[14.516364,54.865],[14.52,54.858036],[14.53,54.865],[14.53,54.858438],[14.533125,54.86],[14.53,54.865],[14.56,54.852692],[14.568125,54.855],[14.568333,54.85],[14.553043,54.84],[14.568,54.835],[14.545,54.83],[14.54375,54.835],[14.525,54.846818],[14.52,54.849],[14.515,54.844167],[14.518889,54.85],[14.515,54.852059],[14.496333,54.855],[14.505,54.862273],[14.51,54.858182],[14.51125,54.865],[14.516364,54.865]]}},{"type":"Feature","properties":{"depth":20,"source":"DDM 2024 coarse contour","resolution":"0.005 degree sampled grid","scope":"denmark","tileSource":"contours-denmark-coarse.geojson"},"geometry":{"type":"LineString","coordinates":[[14.449828,55.305001],[14.355,55.230113],[14.335,55.220113],[14.119999,55.058875]]}},{"type":"Feature","properties":{"depth":20,"source":"DDM 2024 coarse contour","resolution":"0.005 degree sampled grid","scope":"denmark","tileSource":"contours-denmark-coarse.geojson"},"geometry":{"type":"LineString","coordinates":[[14.119999,54.85867],[14.152792,54.829999]]}},{"type":"Feature","properties":{"depth":20,"source":"DDM 2024 coarse contour","resolution":"0.005 degree sampled grid","scope":"denmark","tileSource":"contours-denmark-coarse.geojson"},"geometry":{"type":"LineString","coordinates":[[14.31223,54.829999],[14.32,54.838125],[14.344286,54.84],[14.33,54.84],[14.3315,54.845],[14.349444,54.85],[14.344667,54.855],[14.35,54.860682],[14.36,54.86175],[14.37,54.853],[14.375,54.8545],[14.376667,54.86],[14.366071,54.87],[14.39,54.882],[14.41,54.885455],[14.435,54.9],[14.43375,54.895],[14.445,54.894333],[14.47,54.903333],[14.495,54.902],[14.4975,54.905],[14.490833,54.915],[14.504167,54.92],[14.506875,54.935],[14.5,54.94],[14.525,54.9525],[14.528125,54.945],[14.5225,54.94],[14.53,54.932917],[14.535,54.935],[14.533077,54.925],[14.54,54.924],[14.532,54.945],[14.545455,54.955],[14.538,54.96],[14.535,54.97],[14.545,54.961739],[14.553929,54.965],[14.542368,54.975],[14.549063,54.98],[14.535,54.99069],[14.57,54.984091],[14.565,54.996538],[14.545,55.004375],[14.546905,55.01],[14.54125,55.015],[14.575,55.022273],[14.595001,55.020758]]}},{"type":"Feature","properties":{"depth":20,"source":"DDM 2024 coarse contour","resolution":"0.005 degree sampled grid","scope":"denmark","tileSource":"contours-denmark-coarse.geojson"},"geometry":{"type":"LineString","coordinates":[[14.41,54.845294],[14.395,54.84875],[14.392,54.845],[14.409099,54.829999]]}},{"type":"Feature","properties":{"depth":20,"source":"DDM 2024 coarse contour","resolution":"0.005 degree sampled grid","scope":"denmark","tileSource":"contours-denmark-coarse.geojson"},"geometry":{"type":"LineString","coordinates":[[14.4575,54.829999],[14.4575,54.83],[14.43,54.8425],[14.41,54.845294]]}},{"type":"Feature","properties":{"depth":20,"source":"DDM 2024 coarse contour","resolution":"0.005 degree sampled grid","scope":"denmark","tileSource":"contours-denmark-coarse.geojson"},"geometry":{"type":"LineString","coordinates":[[14.575,54.927778],[14.57,54.93],[14.544318,54.915],[14.55,54.913333],[14.565,54.892],[14.575,54.894091],[14.595,54.888],[14.595001,54.888001]]}},{"type":"Feature","properties":{"depth":20,"source":"DDM 2024 coarse contour","resolution":"0.005 degree sampled grid","scope":"denmark","tileSource":"contours-denmark-coarse.geojson"},"geometry":{"type":"LineString","coordinates":[[14.595001,54.894285],[14.595,54.894286],[14.575,54.909167],[14.578571,54.925],[14.575,54.927778]]}},{"type":"Feature","properties":{"depth":20,"source":"DDM 2024 coarse contour","resolution":"0.005 degree sampled grid","scope":"denmark","tileSource":"contours-denmark-coarse.geojson"},"geometry":{"type":"LineString","coordinates":[[14.585,54.932857],[14.577857,54.93],[14.585,54.926667],[14.59,54.93],[14.59,54.9225],[14.59,54.93],[14.585,54.932857]]}},{"type":"Feature","properties":{"depth":20,"source":"DDM 2024 coarse contour","resolution":"0.005 degree sampled grid","scope":"denmark","tileSource":"contours-denmark-coarse.geojson"},"geometry":{"type":"LineString","coordinates":[[14.595,54.956667],[14.585,54.958571],[14.581875,54.955],[14.595001,54.94977]]}},{"type":"Feature","properties":{"depth":20,"source":"DDM 2024 coarse contour","resolution":"0.005 degree sampled grid","scope":"denmark","tileSource":"contours-denmark-coarse.geojson"},"geometry":{"type":"LineString","coordinates":[[14.595001,54.956665],[14.595,54.956667]]}},{"type":"Feature","properties":{"depth":30,"source":"DDM 2024 coarse contour","resolution":"0.005 degree sampled grid","scope":"denmark","tileSource":"contours-denmark-coarse.geojson"},"geometry":{"type":"LineString","coordinates":[[14.449887,55.305001],[14.355,55.230065],[14.335,55.220065],[14.119999,55.058828]]}},{"type":"Feature","properties":{"depth":30,"source":"DDM 2024 coarse contour","resolution":"0.005 degree sampled grid","scope":"denmark","tileSource":"contours-denmark-coarse.geojson"},"geometry":{"type":"LineString","coordinates":[[14.119999,54.858421],[14.154996,54.829999]]}},{"type":"Feature","properties":{"depth":30,"source":"DDM 2024 coarse contour","resolution":"0.005 degree sampled grid","scope":"denmark","tileSource":"contours-denmark-coarse.geojson"},"geometry":{"type":"LineString","coordinates":[[14.155007,54.829999],[14.22,54.8575],[14.275,54.870417],[14.313333,54.9],[14.377727,54.935],[14.505625,55.02],[14.525,55.030429],[14.575,55.045],[14.595001,55.064481]]}},{"type":"Feature","properties":{"depth":50,"source":"DDM 2024 coarse contour","resolution":"0.005 degree sampled grid","scope":"denmark","tileSource":"contours-denmark-coarse.geojson"},"geometry":{"type":"LineString","coordinates":[[14.548849,55.305001],[14.545,55.303333],[14.533,55.29],[14.5265,55.27],[14.545,55.261667],[14.55,55.265],[14.555,55.26],[14.565,55.269375],[14.575,55.269333],[14.595,55.28],[14.595001,55.280002]]}},{"type":"Feature","properties":{"depth":50,"source":"DDM 2024 coarse contour","resolution":"0.005 degree sampled grid","scope":"denmark","tileSource":"contours-denmark-coarse.geojson"},"geometry":{"type":"LineString","coordinates":[[14.54,55.26],[14.533571,55.255],[14.532222,55.245],[14.540312,55.25],[14.54,55.26]]}}]}