{"type":"FeatureCollection","name":"DDM contour tile r05_c02","bbox":[8.36,56.75,8.835,57.225],"metadata":{"schema":"waternav-ddm-contour-tile-v1","version":"v45.6","tileId":"r05_c02","source":"Danmarks Dybdemodel 2024 ddm_50m.dybde.tiff via bundled DDM contour GeoJSON files"},"features":[{"type":"Feature","properties":{"depth":1,"source":"DDM 2024 coarse contour","resolution":"0.005 degree sampled grid","scope":"denmark","tileSource":"contours-denmark-coarse.geojson"},"geometry":{"type":"LineString","coordinates":[[8.835001,56.991161],[8.826607,56.99],[8.835001,56.985758]]}},{"type":"Feature","properties":{"depth":1,"source":"DDM 2024 coarse contour","resolution":"0.005 degree sampled grid","scope":"denmark","tileSource":"contours-denmark-coarse.geojson"},"geometry":{"type":"LineString","coordinates":[[8.835001,56.9695],[8.835,56.9695],[8.83,56.965008],[8.81,56.964231],[8.805,56.960016],[8.795417,56.96],[8.775,56.945033],[8.735,56.945041],[8.73,56.950003],[8.725,56.949951],[8.72,56.945045],[8.715,56.950006],[8.67,56.950031],[8.65998,56.94],[8.66,56.93],[8.664989,56.925],[8.66,56.92001],[8.644996,56.915],[8.640283,56.91],[8.640101,56.9],[8.629994,56.89],[8.629988,56.875],[8.624999,56.87],[8.63,56.869976],[8.634938,56.865],[8.625,56.855039],[8.620511,56.855],[8.575,56.815011],[8.535,56.815009],[8.535769,56.805],[8.52,56.805005],[8.515,56.800026],[8.4868,56.795],[8.469999,56.78],[8.5,56.755],[8.495108,56.749999]]}},{"type":"Feature","properties":{"depth":1,"source":"DDM 2024 coarse contour","resolution":"0.005 degree sampled grid","scope":"denmark","tileSource":"contours-denmark-coarse.geojson"},"geometry":{"type":"LineString","coordinates":[[8.359999,56.95998],[8.365,56.964981],[8.37,56.960976],[8.385,56.96998],[8.39,56.969999],[8.4,56.979985],[8.404167,56.98],[8.41,56.989975],[8.41463,56.99],[8.445,57.01998],[8.455,57.024995],[8.45502,57.03],[8.475,57.049972],[8.48,57.044994],[8.495,57.044997],[8.51,57.054987],[8.515,57.054989],[8.53,57.069977],[8.535,57.069992],[8.56,57.094977],[8.565,57.094994],[8.570022,57.105],[8.575,57.109979],[8.58001,57.11],[8.580018,57.115],[8.59,57.124999],[8.6,57.124989],[8.605,57.129974],[8.61,57.124998],[8.615,57.129974],[8.62,57.129971],[8.625,57.125364],[8.645,57.124977],[8.65,57.12],[8.675,57.119975],[8.68,57.115273],[8.69,57.114986],[8.695,57.109999],[8.71,57.109984],[8.717143,57.105],[8.735,57.104986],[8.74,57.1],[8.761111,57.1],[8.77,57.104981],[8.8,57.104995],[8.805,57.10998],[8.825,57.109992],[8.83,57.11498],[8.835001,57.114983]]}},{"type":"Feature","properties":{"depth":1,"source":"DDM 2024 coarse contour","resolution":"0.005 degree sampled grid","scope":"denmark","tileSource":"contours-denmark-coarse.geojson"},"geometry":{"type":"LineString","coordinates":[[8.835001,56.87004],[8.83,56.867143],[8.835001,56.861066]]}},{"type":"Feature","properties":{"depth":1,"source":"DDM 2024 coarse contour","resolution":"0.005 degree sampled grid","scope":"denmark","tileSource":"contours-denmark-coarse.geojson"},"geometry":{"type":"LineString","coordinates":[[8.521634,56.749999],[8.522692,56.75],[8.54,56.759991],[8.553261,56.76],[8.550018,56.765],[8.550006,56.775],[8.543462,56.785],[8.55,56.794994],[8.555,56.789999],[8.569474,56.79],[8.585,56.79999],[8.605,56.799991],[8.61,56.795],[8.62,56.794983],[8.625,56.794995],[8.63,56.799966],[8.635,56.795882],[8.65,56.804977],[8.66,56.804997],[8.664697,56.81],[8.663974,56.815],[8.64,56.815018],[8.63,56.819934],[8.61,56.820002],[8.605009,56.825],[8.62,56.834973],[8.6435,56.835],[8.635,56.835014],[8.630004,56.84],[8.645002,56.855],[8.645011,56.87],[8.640046,56.875],[8.640042,56.88],[8.635,56.880061],[8.63005,56.885],[8.635,56.889931],[8.665,56.890278],[8.67,56.89498],[8.68,56.889993],[8.7,56.890455],[8.705,56.894966],[8.73,56.894969],[8.735,56.890047],[8.75,56.899974],[8.78,56.899998],[8.785,56.904977],[8.815,56.904994],[8.825002,56.915],[8.825013,56.93],[8.835001,56.936496]]}},{"type":"Feature","properties":{"depth":2,"source":"DDM 2024 coarse contour","resolution":"0.005 degree sampled grid","scope":"denmark","tileSource":"contours-denmark-coarse.geojson"},"geometry":{"type":"LineString","coordinates":[[8.359999,56.959985],[8.365,56.964986],[8.37,56.962195],[8.38,56.964998],[8.402778,56.98],[8.41,56.98998],[8.413704,56.99],[8.445,57.019985],[8.455,57.025],[8.455015,57.03],[8.475,57.049977],[8.48,57.044999],[8.492143,57.045],[8.51,57.054992],[8.515,57.054994],[8.53,57.069982],[8.535,57.069997],[8.56,57.094982],[8.565,57.094999],[8.570017,57.105],[8.575,57.109984],[8.580005,57.11],[8.580013,57.115],[8.58934,57.125],[8.6,57.124994],[8.605,57.129979],[8.61,57.125556],[8.615,57.129979],[8.62,57.129976],[8.625,57.126273],[8.645,57.124982],[8.65,57.120926],[8.675,57.11998],[8.695,57.111],[8.71,57.109989],[8.719524,57.105],[8.76,57.100952],[8.77,57.104986],[8.8,57.105],[8.805,57.109985],[8.825,57.109997],[8.83,57.114985],[8.835001,57.114988]]}},{"type":"Feature","properties":{"depth":2,"source":"DDM 2024 coarse contour","resolution":"0.005 degree sampled grid","scope":"denmark","tileSource":"contours-denmark-coarse.geojson"},"geometry":{"type":"LineString","coordinates":[[8.835001,56.990497],[8.828393,56.99],[8.835001,56.988007]]}},{"type":"Feature","properties":{"depth":2,"source":"DDM 2024 coarse contour","resolution":"0.005 degree sampled grid","scope":"denmark","tileSource":"contours-denmark-coarse.geojson"},"geometry":{"type":"LineString","coordinates":[[8.835001,56.967261],[8.83,56.965003],[8.7975,56.96],[8.775,56.945028],[8.735,56.945036],[8.73,56.94977],[8.72,56.94504],[8.715,56.950001],[8.67,56.950026],[8.659985,56.94],[8.66,56.9325],[8.664994,56.925],[8.66,56.920005],[8.645058,56.915],[8.641226,56.91],[8.640606,56.9],[8.629999,56.89],[8.629993,56.875],[8.62587,56.87],[8.634943,56.865],[8.625,56.855034],[8.62108,56.855],[8.575,56.815006],[8.535,56.815004],[8.539167,56.81],[8.537692,56.805],[8.52,56.805],[8.515,56.800021],[8.4888,56.795],[8.475469,56.785],[8.477571,56.775],[8.498214,56.76],[8.50075,56.755],[8.496026,56.749999]]}},{"type":"Feature","properties":{"depth":2,"source":"DDM 2024 coarse contour","resolution":"0.005 degree sampled grid","scope":"denmark","tileSource":"contours-denmark-coarse.geojson"},"geometry":{"type":"LineString","coordinates":[[8.835001,56.866945],[8.830625,56.865],[8.835001,56.860331]]}},{"type":"Feature","properties":{"depth":2,"source":"DDM 2024 coarse contour","resolution":"0.005 degree sampled grid","scope":"denmark","tileSource":"contours-denmark-coarse.geojson"},"geometry":{"type":"LineString","coordinates":[[8.510043,56.749999],[8.525,56.752105],[8.54,56.759996],[8.551087,56.76],[8.550001,56.775],[8.541538,56.785],[8.542727,56.79],[8.55,56.794999],[8.557857,56.79],[8.565,56.789988],[8.585,56.799995],[8.605,56.799996],[8.611875,56.795],[8.625,56.795],[8.63,56.799971],[8.635,56.796863],[8.65,56.804982],[8.66,56.8058],[8.662692,56.815],[8.61,56.819561],[8.605004,56.825],[8.61,56.82996],[8.624231,56.835],[8.644786,56.855],[8.645006,56.87],[8.640041,56.875],[8.640037,56.88],[8.635,56.880056],[8.630045,56.885],[8.635,56.889936],[8.665,56.890741],[8.675,56.895112],[8.678824,56.89],[8.7,56.891212],[8.705,56.894971],[8.73,56.894974],[8.735,56.890519],[8.75,56.899979],[8.78,56.900411],[8.785,56.904982],[8.815,56.904999],[8.825,56.916389],[8.825008,56.93],[8.835001,56.938561]]}},{"type":"Feature","properties":{"depth":2,"source":"DDM 2024 coarse contour","resolution":"0.005 degree sampled grid","scope":"denmark","tileSource":"contours-denmark-coarse.geojson"},"geometry":{"type":"LineString","coordinates":[[8.64,56.835002],[8.63,56.838889],[8.627667,56.835],[8.64,56.835002]]}},{"type":"Feature","properties":{"depth":3,"source":"DDM 2024 coarse contour","resolution":"0.005 degree sampled grid","scope":"denmark","tileSource":"contours-denmark-coarse.geojson"},"geometry":{"type":"LineString","coordinates":[[8.359999,56.95999],[8.365,56.964991],[8.3788,56.965],[8.401389,56.98],[8.453594,57.025],[8.45501,57.03],[8.475,57.049982],[8.48,57.046053],[8.495,57.046556],[8.515,57.054999],[8.56,57.094987],[8.563971,57.095],[8.575,57.109989],[8.58,57.11],[8.580008,57.115],[8.588396,57.125],[8.6,57.124999],[8.605,57.129984],[8.61,57.126667],[8.62,57.129981],[8.66,57.12],[8.675,57.119985],[8.725385,57.105],[8.76,57.102143],[8.825,57.110606],[8.83,57.11499],[8.835001,57.114993]]}},{"type":"Feature","properties":{"depth":3,"source":"DDM 2024 coarse contour","resolution":"0.005 degree sampled grid","scope":"denmark","tileSource":"contours-denmark-coarse.geojson"},"geometry":{"type":"LineString","coordinates":[[8.835001,56.866196],[8.832187,56.865],[8.835001,56.86222]]}},{"type":"Feature","properties":{"depth":3,"source":"DDM 2024 coarse contour","resolution":"0.005 degree sampled grid","scope":"denmark","tileSource":"contours-denmark-coarse.geojson"},"geometry":{"type":"LineString","coordinates":[[8.63,56.889551],[8.629998,56.875],[8.626957,56.87],[8.634948,56.865],[8.575,56.815001],[8.541053,56.815],[8.544286,56.81],[8.539615,56.805],[8.523571,56.805],[8.515,56.800016],[8.491111,56.795],[8.477031,56.785],[8.479,56.775],[8.5,56.76],[8.501583,56.755],[8.495252,56.749999]]}},{"type":"Feature","properties":{"depth":3,"source":"DDM 2024 coarse contour","resolution":"0.005 degree sampled grid","scope":"denmark","tileSource":"contours-denmark-coarse.geojson"},"geometry":{"type":"LineString","coordinates":[[8.510003,56.749999],[8.535,56.759167],[8.55,56.76119],[8.55,56.769706],[8.538,56.79],[8.55,56.795389],[8.566842,56.79],[8.585,56.8],[8.605,56.800075],[8.613958,56.795],[8.623125,56.795],[8.63,56.799976],[8.635,56.797843],[8.66,56.8078],[8.66141,56.815],[8.605833,56.82],[8.604945,56.825],[8.61,56.829965],[8.623269,56.835],[8.644359,56.855],[8.645001,56.87],[8.640036,56.875],[8.640032,56.88],[8.635,56.880051],[8.63004,56.885],[8.63,56.889551]]}},{"type":"Feature","properties":{"depth":3,"source":"DDM 2024 coarse contour","resolution":"0.005 degree sampled grid","scope":"denmark","tileSource":"contours-denmark-coarse.geojson"},"geometry":{"type":"LineString","coordinates":[[8.835001,56.966558],[8.83,56.964545],[8.799583,56.96],[8.775,56.945023],[8.735,56.945031],[8.73,56.949195],[8.72,56.945035],[8.714079,56.95],[8.67,56.950021],[8.65999,56.94],[8.664999,56.925],[8.66,56.92],[8.64564,56.915],[8.641111,56.9],[8.630312,56.89],[8.665,56.891204],[8.675,56.895674],[8.68,56.89125],[8.73,56.894979],[8.735,56.890991],[8.75,56.899984],[8.815,56.905795],[8.825,56.919167],[8.825003,56.93],[8.835001,56.940208]]}},{"type":"Feature","properties":{"depth":5,"source":"DDM 2024 coarse contour","resolution":"0.005 degree sampled grid","scope":"denmark","tileSource":"contours-denmark-coarse.geojson"},"geometry":{"type":"LineString","coordinates":[[8.359999,56.96357],[8.36,56.963571],[8.375,56.965278],[8.385,56.97],[8.435,57.009999],[8.475,57.049992],[8.5,57.05],[8.52,57.062],[8.545,57.079997],[8.59,57.126321],[8.62,57.129991],[8.73,57.107667],[8.76,57.104524],[8.835001,57.116131]]}},{"type":"Feature","properties":{"depth":5,"source":"DDM 2024 coarse contour","resolution":"0.005 degree sampled grid","scope":"denmark","tileSource":"contours-denmark-coarse.geojson"},"geometry":{"type":"LineString","coordinates":[[8.63,56.888427],[8.62913,56.87],[8.634958,56.865],[8.609259,56.84],[8.592443,56.83],[8.575,56.813534],[8.557353,56.815],[8.555,56.811667],[8.55,56.812778],[8.54,56.803714],[8.525,56.80371],[8.51,56.796981],[8.5,56.79619],[8.480333,56.785],[8.483611,56.775],[8.502857,56.76],[8.50325,56.755],[8.499837,56.749999]]}},{"type":"Feature","properties":{"depth":5,"source":"DDM 2024 coarse contour","resolution":"0.005 degree sampled grid","scope":"denmark","tileSource":"contours-denmark-coarse.geojson"},"geometry":{"type":"LineString","coordinates":[[8.508235,56.749999],[8.51,56.752143],[8.535,56.76375],[8.545,56.765],[8.5458,56.77],[8.540227,56.78],[8.533065,56.785],[8.535,56.791111],[8.55,56.7965],[8.565,56.790625],[8.58,56.801103],[8.585,56.801538],[8.61,56.800862],[8.62,56.795658],[8.645,56.802162],[8.658043,56.81],[8.657353,56.815],[8.645,56.812571],[8.62,56.817538],[8.603111,56.815],[8.603846,56.825],[8.621346,56.835],[8.643504,56.855],[8.64419,56.87],[8.640022,56.88],[8.635,56.880041],[8.63,56.888427]]}},{"type":"Feature","properties":{"depth":5,"source":"DDM 2024 coarse contour","resolution":"0.005 degree sampled grid","scope":"denmark","tileSource":"contours-denmark-coarse.geojson"},"geometry":{"type":"LineString","coordinates":[[8.52125,56.785],[8.525,56.78],[8.513289,56.785],[8.52125,56.785]]}},{"type":"Feature","properties":{"depth":5,"source":"DDM 2024 coarse contour","resolution":"0.005 degree sampled grid","scope":"denmark","tileSource":"contours-denmark-coarse.geojson"},"geometry":{"type":"LineString","coordinates":[[8.835001,56.964755],[8.8,56.956897],[8.775,56.945013],[8.755,56.942947],[8.73,56.948046],[8.72,56.945025],[8.711447,56.95],[8.695,56.947576],[8.67,56.950011],[8.66,56.94],[8.666154,56.925],[8.66,56.918649],[8.646802,56.915],[8.642121,56.9],[8.631094,56.89],[8.653265,56.89],[8.675,56.896798],[8.7,56.893485],[8.73,56.894989],[8.735,56.891934],[8.75,56.899994],[8.815,56.908068],[8.81925,56.91],[8.825,56.925],[8.825,56.935],[8.835001,56.944792]]}},{"type":"Feature","properties":{"depth":10,"source":"DDM 2024 coarse contour","resolution":"0.005 degree sampled grid","scope":"denmark","tileSource":"contours-denmark-coarse.geojson"},"geometry":{"type":"LineString","coordinates":[[8.359999,56.968498],[8.41,56.999714],[8.467917,57.05],[8.515,57.06875],[8.555417,57.1],[8.565,57.113548],[8.6,57.131739],[8.81,57.145],[8.83,57.135],[8.835001,57.134727]]}},{"type":"Feature","properties":{"depth":10,"source":"DDM 2024 coarse contour","resolution":"0.005 degree sampled grid","scope":"denmark","tileSource":"contours-denmark-coarse.geojson"},"geometry":{"type":"LineString","coordinates":[[8.585,56.816944],[8.575,56.8091],[8.56,56.808365],[8.5395,56.8],[8.565,56.796739],[8.585,56.806389],[8.613,56.81],[8.585,56.816944]]}},{"type":"Feature","properties":{"depth":10,"source":"DDM 2024 coarse contour","resolution":"0.005 degree sampled grid","scope":"denmark","tileSource":"contours-denmark-coarse.geojson"},"geometry":{"type":"LineString","coordinates":[[8.635,56.880016],[8.631827,56.88],[8.632769,56.86],[8.61,56.837273],[8.590294,56.825],[8.58641,56.82],[8.59,56.815],[8.641368,56.855],[8.639342,56.88],[8.635,56.880016]]}},{"type":"Feature","properties":{"depth":10,"source":"DDM 2024 coarse contour","resolution":"0.005 degree sampled grid","scope":"denmark","tileSource":"contours-denmark-coarse.geojson"},"geometry":{"type":"LineString","coordinates":[[8.73,56.945172],[8.6825,56.945],[8.6825,56.94],[8.668571,56.935],[8.669359,56.925],[8.66,56.91527],[8.649709,56.915],[8.648333,56.905],[8.633047,56.89],[8.665,56.894444],[8.67,56.899902],[8.725,56.899189],[8.735,56.894292],[8.75,56.90319],[8.792778,56.91],[8.78,56.915],[8.768333,56.93],[8.767,56.94],[8.74,56.940476],[8.73,56.945172]]}},{"type":"Feature","properties":{"depth":15,"source":"DDM 2024 coarse contour","resolution":"0.005 degree sampled grid","scope":"denmark","tileSource":"contours-denmark-coarse.geojson"},"geometry":{"type":"LineString","coordinates":[[8.359999,56.976192],[8.375,56.99],[8.425,57.019722],[8.465,57.053673],[8.525,57.087692],[8.522,57.1],[8.5275,57.1],[8.525714,57.095],[8.53,57.0925],[8.54,57.094429],[8.533333,57.1],[8.536875,57.105],[8.565,57.121333],[8.635,57.144032],[8.7,57.1545],[8.73,57.1762],[8.775,57.1725],[8.796667,57.18],[8.793571,57.195],[8.8,57.200714],[8.835001,57.198791]]}},{"type":"Feature","properties":{"depth":15,"source":"DDM 2024 coarse contour","resolution":"0.005 degree sampled grid","scope":"denmark","tileSource":"contours-denmark-coarse.geojson"},"geometry":{"type":"LineString","coordinates":[[8.51625,57.095],[8.51,57.089125],[8.501667,57.09],[8.51625,57.095]]}},{"type":"Feature","properties":{"depth":15,"source":"DDM 2024 coarse contour","resolution":"0.005 degree sampled grid","scope":"denmark","tileSource":"contours-denmark-coarse.geojson"},"geometry":{"type":"LineString","coordinates":[[8.697,57.17],[8.665,57.162368],[8.655227,57.165],[8.656667,57.17],[8.665,57.172353],[8.697,57.17]]}},{"type":"Feature","properties":{"depth":20,"source":"DDM 2024 coarse contour","resolution":"0.005 degree sampled grid","scope":"denmark","tileSource":"contours-denmark-coarse.geojson"},"geometry":{"type":"LineString","coordinates":[[8.359999,56.990693],[8.394615,57.01],[8.39,57.014615],[8.359999,57.000905]]}},{"type":"Feature","properties":{"depth":20,"source":"DDM 2024 coarse contour","resolution":"0.005 degree sampled grid","scope":"denmark","tileSource":"contours-denmark-coarse.geojson"},"geometry":{"type":"LineString","coordinates":[[8.359999,57.028926],[8.37,57.037353],[8.3875,57.04],[8.395,57.046667],[8.45,57.066818],[8.545,57.122381],[8.659667,57.155],[8.643333,57.165],[8.655,57.177586],[8.68,57.182895],[8.71,57.180357],[8.7475,57.19],[8.752143,57.195],[8.745,57.2025],[8.72,57.196316],[8.7025,57.2],[8.728571,57.22],[8.745,57.2075],[8.79,57.21625],[8.835001,57.2155]]}},{"type":"Feature","properties":{"depth":20,"source":"DDM 2024 coarse contour","resolution":"0.005 degree sampled grid","scope":"denmark","tileSource":"contours-denmark-coarse.geojson"},"geometry":{"type":"LineString","coordinates":[[8.43,57.0376],[8.417273,57.03],[8.416765,57.025],[8.433611,57.035],[8.43,57.0376]]}},{"type":"Feature","properties":{"depth":20,"source":"DDM 2024 coarse contour","resolution":"0.005 degree sampled grid","scope":"denmark","tileSource":"contours-denmark-coarse.geojson"},"geometry":{"type":"LineString","coordinates":[[8.41,57.039],[8.403,57.035],[8.405,57.028125],[8.41,57.039]]}},{"type":"Feature","properties":{"depth":20,"source":"DDM 2024 coarse contour","resolution":"0.005 degree sampled grid","scope":"denmark","tileSource":"contours-denmark-coarse.geojson"},"geometry":{"type":"LineString","coordinates":[[8.45,57.063667],[8.445,57.063889],[8.43,57.05],[8.436333,57.045],[8.435,57.036923],[8.458,57.055],[8.45,57.063667]]}},{"type":"Feature","properties":{"depth":20,"source":"DDM 2024 coarse contour","resolution":"0.005 degree sampled grid","scope":"denmark","tileSource":"contours-denmark-coarse.geojson"},"geometry":{"type":"LineString","coordinates":[[8.494706,57.12],[8.436316,57.09],[8.426667,57.09],[8.4,57.076818],[8.385,57.076047],[8.38,57.069211],[8.365,57.068718],[8.359999,57.065455]]}},{"type":"Feature","properties":{"depth":20,"source":"DDM 2024 coarse contour","resolution":"0.005 degree sampled grid","scope":"denmark","tileSource":"contours-denmark-coarse.geojson"},"geometry":{"type":"LineString","coordinates":[[8.359999,57.076463],[8.36,57.076463],[8.37,57.072273],[8.375294,57.08],[8.44,57.102447],[8.45,57.110591],[8.47,57.114231],[8.48,57.120926],[8.494706,57.12]]}},{"type":"Feature","properties":{"depth":20,"source":"DDM 2024 coarse contour","resolution":"0.005 degree sampled grid","scope":"denmark","tileSource":"contours-denmark-coarse.geojson"},"geometry":{"type":"LineString","coordinates":[[8.48,57.0762],[8.475,57.079167],[8.475,57.068],[8.48375,57.075],[8.48,57.0762]]}},{"type":"Feature","properties":{"depth":20,"source":"DDM 2024 coarse contour","resolution":"0.005 degree sampled grid","scope":"denmark","tileSource":"contours-denmark-coarse.geojson"},"geometry":{"type":"LineString","coordinates":[[8.407143,57.13],[8.404,57.125],[8.396,57.125],[8.398125,57.13],[8.407143,57.13]]}},{"type":"Feature","properties":{"depth":20,"source":"DDM 2024 coarse contour","resolution":"0.005 degree sampled grid","scope":"denmark","tileSource":"contours-denmark-coarse.geojson"},"geometry":{"type":"LineString","coordinates":[[8.492667,57.155],[8.445,57.14],[8.453158,57.15],[8.475,57.156643],[8.48,57.15075],[8.485,57.157],[8.492667,57.155]]}},{"type":"Feature","properties":{"depth":20,"source":"DDM 2024 coarse contour","resolution":"0.005 degree sampled grid","scope":"denmark","tileSource":"contours-denmark-coarse.geojson"},"geometry":{"type":"LineString","coordinates":[[8.627632,57.16],[8.605,57.159894],[8.59,57.153562],[8.55625,57.15],[8.565,57.155385],[8.61,57.1639],[8.627632,57.16]]}},{"type":"Feature","properties":{"depth":20,"source":"DDM 2024 coarse contour","resolution":"0.005 degree sampled grid","scope":"denmark","tileSource":"contours-denmark-coarse.geojson"},"geometry":{"type":"LineString","coordinates":[[8.398182,57.21],[8.399091,57.205],[8.365,57.193125],[8.359999,57.193125]]}},{"type":"Feature","properties":{"depth":20,"source":"DDM 2024 coarse contour","resolution":"0.005 degree sampled grid","scope":"denmark","tileSource":"contours-denmark-coarse.geojson"},"geometry":{"type":"LineString","coordinates":[[8.359999,57.200375],[8.38,57.208125],[8.398182,57.21]]}},{"type":"Feature","properties":{"depth":20,"source":"DDM 2024 coarse contour","resolution":"0.005 degree sampled grid","scope":"denmark","tileSource":"contours-denmark-coarse.geojson"},"geometry":{"type":"LineString","coordinates":[[8.5625,57.21],[8.555,57.206786],[8.546176,57.21],[8.555,57.214091],[8.5625,57.21]]}},{"type":"Feature","properties":{"depth":30,"source":"DDM 2024 coarse contour","resolution":"0.005 degree sampled grid","scope":"denmark","tileSource":"contours-denmark-coarse.geojson"},"geometry":{"type":"LineString","coordinates":[[8.495,57.142059],[8.443462,57.125],[8.425,57.1125],[8.492,57.13],[8.4985,57.14],[8.495,57.142059]]}},{"type":"Feature","properties":{"depth":30,"source":"DDM 2024 coarse contour","resolution":"0.005 degree sampled grid","scope":"denmark","tileSource":"contours-denmark-coarse.geojson"},"geometry":{"type":"LineString","coordinates":[[8.62,57.182241],[8.555,57.172917],[8.535,57.154853],[8.498704,57.145],[8.535,57.144808],[8.565,57.162963],[8.615,57.17371],[8.623611,57.18],[8.62,57.182241]]}},{"type":"Feature","properties":{"depth":30,"source":"DDM 2024 coarse contour","resolution":"0.005 degree sampled grid","scope":"denmark","tileSource":"contours-denmark-coarse.geojson"},"geometry":{"type":"LineString","coordinates":[[8.405,57.191429],[8.39,57.192647],[8.36,57.178261],[8.359999,57.178261]]}},{"type":"Feature","properties":{"depth":30,"source":"DDM 2024 coarse contour","resolution":"0.005 degree sampled grid","scope":"denmark","tileSource":"contours-denmark-coarse.geojson"},"geometry":{"type":"LineString","coordinates":[[8.359999,57.170001],[8.36,57.17],[8.385,57.168077],[8.39,57.176],[8.395,57.171667],[8.406176,57.175],[8.410833,57.185],[8.405,57.191429]]}},{"type":"Feature","properties":{"depth":30,"source":"DDM 2024 coarse contour","resolution":"0.005 degree sampled grid","scope":"denmark","tileSource":"contours-denmark-coarse.geojson"},"geometry":{"type":"LineString","coordinates":[[8.57,57.193906],[8.545,57.19125],[8.53325,57.185],[8.56,57.183824],[8.575,57.19],[8.57,57.193906]]}},{"type":"Feature","properties":{"depth":30,"source":"DDM 2024 coarse contour","resolution":"0.005 degree sampled grid","scope":"denmark","tileSource":"contours-denmark-coarse.geojson"},"geometry":{"type":"LineString","coordinates":[[8.645,57.20629],[8.575,57.195],[8.585,57.190806],[8.645,57.198421],[8.64875,57.2],[8.645,57.20629]]}}]}