{"type":"FeatureCollection","name":"DDM contour tile r00_c10","bbox":[12.2,54.35,12.675,54.825],"metadata":{"schema":"waternav-ddm-contour-tile-v1","version":"v45.5","tileId":"r00_c10","source":"Danmarks Dybdemodel 2024 ddm_50m.dybde.tiff via bundled DDM contour GeoJSON files"},"features":[{"type":"Feature","properties":{"depth":1,"source":"DDM 2024 coarse contour","resolution":"0.005 degree sampled grid","scope":"denmark","tileSource":"contours-denmark-coarse.geojson"},"geometry":{"type":"LineString","coordinates":[[12.199999,54.489907],[12.2,54.489908],[12.205,54.489905],[12.23,54.514905],[12.235,54.514906],[12.26,54.539887],[12.265,54.539879],[12.295,54.569889],[12.3,54.56989],[12.325,54.594906],[12.33,54.594908],[12.385,54.644918],[12.39,54.644918],[12.41,54.664917],[12.415,54.664917],[12.44,54.689916],[12.45,54.689916],[12.455,54.694916],[12.47,54.694916],[12.475,54.699915],[12.49,54.699916],[12.495,54.704916],[12.51,54.704917],[12.515,54.709917],[12.53,54.709918],[12.535,54.714918],[12.55,54.714919],[12.555,54.719919],[12.57,54.719919],[12.575,54.724919],[12.59,54.724918],[12.595,54.729917],[12.61,54.729915],[12.615,54.734914],[12.63,54.734912],[12.635,54.739915],[12.65,54.739914],[12.655,54.744919],[12.67,54.744918],[12.675,54.749919],[12.675001,54.749919]]}},{"type":"Feature","properties":{"depth":2,"source":"DDM 2024 coarse contour","resolution":"0.005 degree sampled grid","scope":"denmark","tileSource":"contours-denmark-coarse.geojson"},"geometry":{"type":"LineString","coordinates":[[12.199999,54.489912],[12.2,54.489913],[12.205,54.48991],[12.23,54.51491],[12.235,54.514911],[12.26,54.539892],[12.265,54.539884],[12.295,54.569894],[12.3,54.569895],[12.325,54.594911],[12.33,54.594913],[12.385,54.644923],[12.39,54.644923],[12.41,54.664922],[12.415,54.664922],[12.44,54.689921],[12.45,54.689921],[12.455,54.694921],[12.47,54.694921],[12.475,54.69992],[12.49,54.699921],[12.495,54.704921],[12.51,54.704922],[12.515,54.709922],[12.53,54.709923],[12.535,54.714923],[12.55,54.714924],[12.555,54.719924],[12.57,54.719924],[12.575,54.724924],[12.59,54.724923],[12.595,54.729922],[12.61,54.72992],[12.615,54.734919],[12.63,54.734917],[12.635,54.73992],[12.65,54.739918],[12.655,54.744924],[12.67,54.744923],[12.675,54.749924],[12.675001,54.749924]]}},{"type":"Feature","properties":{"depth":3,"source":"DDM 2024 coarse contour","resolution":"0.005 degree sampled grid","scope":"denmark","tileSource":"contours-denmark-coarse.geojson"},"geometry":{"type":"LineString","coordinates":[[12.199999,54.489917],[12.2,54.489918],[12.205,54.489915],[12.23,54.514915],[12.235,54.514916],[12.26,54.539896],[12.265,54.539889],[12.295,54.569899],[12.3,54.5699],[12.325,54.594916],[12.33,54.594918],[12.385,54.644928],[12.39,54.644928],[12.41,54.664927],[12.415,54.664927],[12.44,54.689926],[12.45,54.689926],[12.455,54.694926],[12.47,54.694926],[12.475,54.699925],[12.49,54.699926],[12.495,54.704926],[12.51,54.704927],[12.515,54.709927],[12.53,54.709928],[12.535,54.714928],[12.55,54.714929],[12.555,54.719929],[12.57,54.719929],[12.575,54.724929],[12.59,54.724928],[12.595,54.729927],[12.61,54.729925],[12.615,54.734924],[12.63,54.734922],[12.635,54.739925],[12.65,54.739923],[12.655,54.744929],[12.67,54.744928],[12.675,54.749929],[12.675001,54.749929]]}},{"type":"Feature","properties":{"depth":5,"source":"DDM 2024 coarse contour","resolution":"0.005 degree sampled grid","scope":"denmark","tileSource":"contours-denmark-coarse.geojson"},"geometry":{"type":"LineString","coordinates":[[12.199999,54.489927],[12.2,54.489928],[12.205,54.489925],[12.23,54.514924],[12.235,54.514926],[12.26,54.539906],[12.265,54.539899],[12.295,54.569909],[12.3,54.56991],[12.325,54.594925],[12.33,54.594927],[12.385,54.644938],[12.39,54.644938],[12.41,54.664937],[12.415,54.664937],[12.44,54.689936],[12.45,54.689936],[12.455,54.694936],[12.47,54.694936],[12.475,54.699935],[12.49,54.699936],[12.495,54.704936],[12.51,54.704937],[12.515,54.709937],[12.53,54.709938],[12.535,54.714938],[12.55,54.714939],[12.555,54.719939],[12.57,54.719939],[12.575,54.724939],[12.59,54.724938],[12.595,54.729937],[12.61,54.729935],[12.615,54.734934],[12.63,54.734932],[12.635,54.739935],[12.65,54.739933],[12.655,54.744939],[12.67,54.744938],[12.675,54.749939],[12.675001,54.749939]]}},{"type":"Feature","properties":{"depth":10,"source":"DDM 2024 coarse contour","resolution":"0.005 degree sampled grid","scope":"denmark","tileSource":"contours-denmark-coarse.geojson"},"geometry":{"type":"LineString","coordinates":[[12.199999,54.489951],[12.2,54.489952],[12.205,54.489949],[12.23,54.514949],[12.235,54.51495],[12.26,54.539931],[12.265,54.539923],[12.385,54.644963],[12.415,54.664962],[12.44,54.68996],[12.49,54.699961],[12.495,54.704961],[12.51,54.704961],[12.515,54.709962],[12.53,54.709963],[12.535,54.714963],[12.55,54.714964],[12.555,54.719963],[12.57,54.719963],[12.575,54.724963],[12.59,54.724962],[12.595,54.729962],[12.61,54.729959],[12.615,54.734959],[12.63,54.734956],[12.635,54.739959],[12.65,54.739958],[12.655,54.744963],[12.67,54.744963],[12.675,54.749964],[12.675001,54.749964]]}},{"type":"Feature","properties":{"depth":10,"source":"DDM 2024 coarse contour","resolution":"0.005 degree sampled grid","scope":"denmark","tileSource":"contours-denmark-coarse.geojson"},"geometry":{"type":"LineString","coordinates":[[12.212667,54.825001],[12.212667,54.825],[12.200714,54.82],[12.2045,54.815],[12.2,54.8105],[12.199999,54.8105]]}},{"type":"Feature","properties":{"depth":15,"source":"DDM 2024 coarse contour","resolution":"0.005 degree sampled grid","scope":"denmark","tileSource":"contours-denmark-coarse.geojson"},"geometry":{"type":"LineString","coordinates":[[12.232279,54.825001],[12.211,54.805],[12.212424,54.8],[12.206538,54.795],[12.209022,54.79],[12.199999,54.78541]]}},{"type":"Feature","properties":{"depth":15,"source":"DDM 2024 coarse contour","resolution":"0.005 degree sampled grid","scope":"denmark","tileSource":"contours-denmark-coarse.geojson"},"geometry":{"type":"LineString","coordinates":[[12.199999,54.783976],[12.203125,54.78],[12.199999,54.778333]]}},{"type":"Feature","properties":{"depth":15,"source":"DDM 2024 coarse contour","resolution":"0.005 degree sampled grid","scope":"denmark","tileSource":"contours-denmark-coarse.geojson"},"geometry":{"type":"LineString","coordinates":[[12.199999,54.486923],[12.205,54.489974],[12.44,54.689985],[12.49,54.699985],[12.495,54.704985],[12.51,54.704986],[12.515,54.709986],[12.53,54.709987],[12.535,54.714987],[12.55,54.714988],[12.555,54.719988],[12.57,54.719988],[12.575,54.724988],[12.59,54.724987],[12.595,54.729986],[12.61,54.729984],[12.615,54.734983],[12.63,54.734981],[12.635,54.739984],[12.65,54.739982],[12.655,54.744988],[12.67,54.744987],[12.675,54.749988],[12.675001,54.749988]]}},{"type":"Feature","properties":{"depth":20,"source":"DDM 2024 coarse contour","resolution":"0.005 degree sampled grid","scope":"denmark","tileSource":"contours-denmark-coarse.geojson"},"geometry":{"type":"LineString","coordinates":[[12.31,54.615833],[12.295,54.6175],[12.275,54.6],[12.235,54.527],[12.222308,54.52],[12.225,54.515],[12.235,54.515],[12.3275,54.595],[12.325,54.605],[12.315,54.603571],[12.3075,54.61],[12.31,54.615833]]}},{"type":"Feature","properties":{"depth":20,"source":"DDM 2024 coarse contour","resolution":"0.005 degree sampled grid","scope":"denmark","tileSource":"contours-denmark-coarse.geojson"},"geometry":{"type":"LineString","coordinates":[[12.262778,54.825001],[12.262778,54.825],[12.2475,54.81],[12.256667,54.795],[12.244211,54.78],[12.265667,54.77],[12.245,54.76],[12.256,54.745],[12.252143,54.73],[12.255,54.725],[12.244545,54.725],[12.255,54.725],[12.26,54.715],[12.285,54.718333],[12.3,54.73],[12.32,54.72875],[12.345,54.745],[12.35,54.755],[12.375,54.7625],[12.385,54.75],[12.465,54.795],[12.545,54.8075],[12.575,54.80125],[12.577143,54.805],[12.571,54.81],[12.545,54.81125],[12.532482,54.825001]]}}]}