{"type":"FeatureCollection","name":"DDM contour tile r01_c00","bbox":[7.4,54.83,7.875,55.305],"metadata":{"schema":"waternav-ddm-contour-tile-v1","version":"v45.5","tileId":"r01_c00","source":"Danmarks Dybdemodel 2024 ddm_50m.dybde.tiff via bundled DDM contour GeoJSON files"},"features":[{"type":"Feature","properties":{"depth":1,"source":"DDM 2024 coarse contour","resolution":"0.005 degree sampled grid","scope":"denmark","tileSource":"contours-denmark-coarse.geojson"},"geometry":{"type":"LineString","coordinates":[[7.4,55.199892],[7.41,55.199892],[7.415,55.194891],[7.435,55.19489],[7.44,55.189889],[7.46,55.189886],[7.465,55.184888],[7.485,55.184882],[7.49,55.179886],[7.51,55.17989],[7.515,55.174892],[7.535,55.174894],[7.54,55.169895],[7.565,55.169895],[7.57,55.164896],[7.6,55.164898],[7.605,55.159899],[7.635,55.1599],[7.64,55.154899],[7.675,55.154899],[7.68,55.149898],[7.71,55.149895],[7.715,55.144898],[7.745,55.144901],[7.75,55.139902],[7.78,55.139904],[7.785,55.134905],[7.815,55.134907],[7.82,55.129908],[7.855,55.129909],[7.86,55.124909],[7.875001,55.124909]]}},{"type":"Feature","properties":{"depth":2,"source":"DDM 2024 coarse contour","resolution":"0.005 degree sampled grid","scope":"denmark","tileSource":"contours-denmark-coarse.geojson"},"geometry":{"type":"LineString","coordinates":[[7.4,55.199897],[7.41,55.199897],[7.415,55.194896],[7.435,55.194895],[7.44,55.189894],[7.46,55.189891],[7.465,55.184892],[7.485,55.184887],[7.49,55.179891],[7.51,55.179895],[7.515,55.174897],[7.535,55.174899],[7.54,55.1699],[7.565,55.1699],[7.57,55.164901],[7.6,55.164903],[7.605,55.159904],[7.635,55.159904],[7.64,55.154904],[7.675,55.154903],[7.68,55.149903],[7.71,55.1499],[7.715,55.144903],[7.745,55.144906],[7.75,55.139907],[7.78,55.139909],[7.785,55.13491],[7.815,55.134912],[7.82,55.129913],[7.855,55.129914],[7.86,55.124914],[7.875001,55.124914]]}},{"type":"Feature","properties":{"depth":3,"source":"DDM 2024 coarse contour","resolution":"0.005 degree sampled grid","scope":"denmark","tileSource":"contours-denmark-coarse.geojson"},"geometry":{"type":"LineString","coordinates":[[7.4,55.199902],[7.41,55.199902],[7.415,55.194901],[7.435,55.1949],[7.44,55.189899],[7.46,55.189896],[7.465,55.184897],[7.485,55.184892],[7.49,55.179896],[7.51,55.1799],[7.515,55.174902],[7.535,55.174904],[7.54,55.169905],[7.565,55.169905],[7.57,55.164906],[7.6,55.164908],[7.605,55.159909],[7.635,55.159909],[7.64,55.154909],[7.675,55.154908],[7.68,55.149908],[7.71,55.149905],[7.715,55.144908],[7.745,55.144911],[7.75,55.139912],[7.78,55.139914],[7.785,55.134915],[7.815,55.134917],[7.82,55.129918],[7.855,55.129919],[7.86,55.124919],[7.875001,55.124919]]}},{"type":"Feature","properties":{"depth":5,"source":"DDM 2024 coarse contour","resolution":"0.005 degree sampled grid","scope":"denmark","tileSource":"contours-denmark-coarse.geojson"},"geometry":{"type":"LineString","coordinates":[[7.4,55.199911],[7.41,55.199911],[7.415,55.194911],[7.435,55.19491],[7.44,55.189909],[7.46,55.189906],[7.465,55.184907],[7.485,55.184902],[7.49,55.179906],[7.51,55.17991],[7.515,55.174912],[7.535,55.174914],[7.54,55.169915],[7.565,55.169915],[7.57,55.164915],[7.6,55.164918],[7.605,55.159919],[7.635,55.159919],[7.64,55.154919],[7.675,55.154918],[7.68,55.149918],[7.71,55.149915],[7.715,55.144918],[7.745,55.144921],[7.75,55.139922],[7.78,55.139923],[7.785,55.134925],[7.815,55.134927],[7.82,55.129928],[7.855,55.129929],[7.86,55.124929],[7.875001,55.124928]]}},{"type":"Feature","properties":{"depth":10,"source":"DDM 2024 coarse contour","resolution":"0.005 degree sampled grid","scope":"denmark","tileSource":"contours-denmark-coarse.geojson"},"geometry":{"type":"LineString","coordinates":[[7.4,55.199936],[7.435,55.194934],[7.44,55.189934],[7.46,55.18993],[7.465,55.184932],[7.485,55.184926],[7.49,55.17993],[7.51,55.179934],[7.515,55.174936],[7.535,55.174938],[7.54,55.169939],[7.565,55.169939],[7.57,55.16494],[7.6,55.164942],[7.605,55.159943],[7.635,55.159944],[7.64,55.154943],[7.675,55.154943],[7.68,55.149942],[7.78,55.139948],[7.785,55.134949],[7.815,55.134951],[7.82,55.129952],[7.855,55.129953],[7.86,55.124953],[7.875001,55.123799]]}},{"type":"Feature","properties":{"depth":15,"source":"DDM 2024 coarse contour","resolution":"0.005 degree sampled grid","scope":"denmark","tileSource":"contours-denmark-coarse.geojson"},"geometry":{"type":"LineString","coordinates":[[7.4,55.19996],[7.435,55.194959],[7.44,55.189958],[7.46,55.189955],[7.465,55.184956],[7.485,55.184951],[7.49,55.179955],[7.51,55.179958],[7.515,55.174961],[7.535,55.174963],[7.54,55.169964],[7.565,55.169964],[7.57,55.164964],[7.6,55.164967],[7.605,55.159968],[7.635,55.159968],[7.64,55.154968],[7.675,55.154967],[7.68,55.149967],[7.78,55.139973],[7.785,55.134974],[7.815,55.134976],[7.82,55.129977],[7.855,55.129978],[7.86,55.124978],[7.875001,55.123824]]}},{"type":"Feature","properties":{"depth":20,"source":"DDM 2024 coarse contour","resolution":"0.005 degree sampled grid","scope":"denmark","tileSource":"contours-denmark-coarse.geojson"},"geometry":{"type":"LineString","coordinates":[[7.4,55.199985],[7.435,55.194983],[7.44,55.189982],[7.46,55.189979],[7.465,55.18498],[7.485,55.184975],[7.49,55.179979],[7.51,55.179983],[7.515,55.174985],[7.535,55.174987],[7.54,55.169988],[7.565,55.169988],[7.57,55.164989],[7.6,55.164991],[7.605,55.159992],[7.635,55.159993],[7.64,55.154992],[7.675,55.154992],[7.68,55.149991],[7.71,55.149988],[7.715,55.144991],[7.745,55.144994],[7.75,55.139996],[7.81,55.135],[7.815,55.14],[7.808333,55.155],[7.81,55.17],[7.815,55.175],[7.81375,55.19],[7.825,55.2],[7.845,55.203636],[7.875001,55.195568]]}}]}