{"type":"FeatureCollection","name":"DDM contour tile r03_c06","bbox":[10.28,55.79,10.755,56.265],"metadata":{"schema":"waternav-ddm-contour-tile-v1","version":"v45.5","tileId":"r03_c06","source":"Danmarks Dybdemodel 2024 ddm_50m.dybde.tiff via bundled DDM contour GeoJSON files"},"features":[{"type":"Feature","properties":{"depth":1,"source":"DDM 2024 coarse contour","resolution":"0.005 degree sampled grid","scope":"denmark","tileSource":"contours-denmark-coarse.geojson"},"geometry":{"type":"LineString","coordinates":[[10.755001,56.231673],[10.75,56.230002],[10.740789,56.22],[10.735,56.200833],[10.739987,56.19],[10.739986,56.175],[10.725612,56.155],[10.724991,56.15],[10.715,56.140016],[10.685,56.140009],[10.675,56.151923],[10.67,56.150008],[10.66,56.159342],[10.645,56.165017],[10.63,56.1825],[10.62,56.189038],[10.62,56.193125],[10.625,56.195385],[10.645,56.195222],[10.66,56.185641],[10.665,56.19],[10.674655,56.2],[10.674559,56.21],[10.665,56.219909],[10.66,56.220018],[10.655,56.225001],[10.6,56.225],[10.595,56.220021],[10.59,56.220008],[10.575,56.200021],[10.560469,56.195],[10.555,56.185022],[10.55,56.185009],[10.545,56.180012],[10.535523,56.17],[10.534992,56.165],[10.554995,56.145],[10.554997,56.135],[10.559999,56.13],[10.55999,56.115],[10.545,56.100021],[10.53,56.100001],[10.525,56.095014],[10.51,56.095092],[10.505042,56.1],[10.505001,56.105],[10.480011,56.135],[10.480001,56.14],[10.49,56.149925],[10.505,56.149945],[10.51,56.145265],[10.515,56.149966],[10.519929,56.15],[10.520015,56.155],[10.525003,56.16],[10.525,56.170012],[10.510638,56.17],[10.51,56.16487],[10.5,56.164676],[10.485,56.170009],[10.48,56.175001],[10.47,56.175044],[10.465,56.179773],[10.445,56.180015],[10.43,56.165017],[10.425,56.165008],[10.42,56.160016],[10.385,56.160022],[10.375005,56.17],[10.37,56.184712],[10.345,56.193125],[10.348421,56.21],[10.365,56.205978],[10.38,56.2105],[10.394342,56.21],[10.41,56.220946],[10.435,56.224957],[10.44,56.220536],[10.445,56.225],[10.443214,56.22],[10.430202,56.21],[10.435,56.204995],[10.45,56.204972],[10.455,56.20037],[10.462727,56.2],[10.465,56.205484],[10.475,56.206458],[10.475,56.214048],[10.46962,56.225],[10.445,56.225],[10.445017,56.23],[10.465,56.244992],[10.48,56.251071],[10.480008,56.26],[10.485,56.264988],[10.485166,56.265001]]}},{"type":"Feature","properties":{"depth":1,"source":"DDM 2024 coarse contour","resolution":"0.005 degree sampled grid","scope":"denmark","tileSource":"contours-denmark-coarse.geojson"},"geometry":{"type":"LineString","coordinates":[[10.474575,56.265001],[10.475,56.264355],[10.474218,56.265001]]}},{"type":"Feature","properties":{"depth":1,"source":"DDM 2024 coarse contour","resolution":"0.005 degree sampled grid","scope":"denmark","tileSource":"contours-denmark-coarse.geojson"},"geometry":{"type":"LineString","coordinates":[[10.355277,56.265001],[10.35,56.260011],[10.34629,56.26],[10.354977,56.25],[10.35,56.245038],[10.345,56.245004],[10.335,56.230028],[10.305,56.223448],[10.279999,56.199753]]}},{"type":"Feature","properties":{"depth":1,"source":"DDM 2024 coarse contour","resolution":"0.005 degree sampled grid","scope":"denmark","tileSource":"contours-denmark-coarse.geojson"},"geometry":{"type":"LineString","coordinates":[[10.279999,56.024996],[10.28,56.024996],[10.284999,56.02],[10.279999,56.016669]]}},{"type":"Feature","properties":{"depth":1,"source":"DDM 2024 coarse contour","resolution":"0.005 degree sampled grid","scope":"denmark","tileSource":"contours-denmark-coarse.geojson"},"geometry":{"type":"LineString","coordinates":[[10.315213,55.8],[10.317632,55.79],[10.317633,55.789999]]}},{"type":"Feature","properties":{"depth":1,"source":"DDM 2024 coarse contour","resolution":"0.005 degree sampled grid","scope":"denmark","tileSource":"contours-denmark-coarse.geojson"},"geometry":{"type":"LineString","coordinates":[[10.299814,55.789999],[10.31,55.802222],[10.315213,55.8]]}},{"type":"Feature","properties":{"depth":1,"source":"DDM 2024 coarse contour","resolution":"0.005 degree sampled grid","scope":"denmark","tileSource":"contours-denmark-coarse.geojson"},"geometry":{"type":"LineString","coordinates":[[10.570882,56.01],[10.57,56.0035],[10.565,56.0035],[10.564994,55.98],[10.569987,55.975],[10.57,55.966154],[10.585,55.944999],[10.605227,55.93],[10.62,55.929967],[10.625,55.925865],[10.64,55.92499],[10.647368,55.92],[10.642273,55.91],[10.645,55.907692],[10.66,55.910577],[10.665,55.921667],[10.67,55.921389],[10.669667,55.935],[10.671842,55.935],[10.679961,55.925],[10.68,55.915714],[10.689991,55.905],[10.685,55.9],[10.68,55.9034],[10.665,55.902],[10.657,55.895],[10.663,55.89],[10.675,55.887381],[10.68,55.891],[10.677273,55.885],[10.679995,55.87],[10.675,55.865015],[10.66,55.86],[10.646098,55.845],[10.644979,55.835],[10.64,55.83],[10.64,55.816875],[10.645714,55.81],[10.644985,55.795],[10.639989,55.79],[10.639989,55.789999]]}},{"type":"Feature","properties":{"depth":1,"source":"DDM 2024 coarse contour","resolution":"0.005 degree sampled grid","scope":"denmark","tileSource":"contours-denmark-coarse.geojson"},"geometry":{"type":"LineString","coordinates":[[10.530001,55.789999],[10.530001,55.79],[10.525022,55.795],[10.5265,55.855],[10.54,55.859998],[10.545,55.864983],[10.56,55.866064],[10.565,55.869978],[10.57,55.8659],[10.58,55.869997],[10.590001,55.88],[10.590012,55.89],[10.599239,55.905],[10.595001,55.915],[10.585,55.925],[10.58,55.925015],[10.563966,55.935],[10.535,55.935036],[10.52003,55.955],[10.520013,55.98],[10.54,55.994984],[10.570882,56.01]]}},{"type":"Feature","properties":{"depth":1,"source":"DDM 2024 coarse contour","resolution":"0.005 degree sampled grid","scope":"denmark","tileSource":"contours-denmark-coarse.geojson"},"geometry":{"type":"LineString","coordinates":[[10.355417,55.845],[10.352368,55.84],[10.355,55.8375],[10.37375,55.83],[10.369,55.825],[10.36,55.820005],[10.355,55.823409],[10.345,55.821667],[10.331111,55.825],[10.3355,55.83],[10.33,55.836111],[10.33,55.842188],[10.335,55.840909],[10.34,55.8458],[10.35,55.84875],[10.355417,55.845]]}},{"type":"Feature","properties":{"depth":1,"source":"DDM 2024 coarse contour","resolution":"0.005 degree sampled grid","scope":"denmark","tileSource":"contours-denmark-coarse.geojson"},"geometry":{"type":"LineString","coordinates":[[10.2925,55.91],[10.2825,55.9],[10.279999,55.900834]]}},{"type":"Feature","properties":{"depth":1,"source":"DDM 2024 coarse contour","resolution":"0.005 degree sampled grid","scope":"denmark","tileSource":"contours-denmark-coarse.geojson"},"geometry":{"type":"LineString","coordinates":[[10.279999,55.905938],[10.28,55.905938],[10.29,55.9125],[10.2925,55.91]]}},{"type":"Feature","properties":{"depth":1,"source":"DDM 2024 coarse contour","resolution":"0.005 degree sampled grid","scope":"denmark","tileSource":"contours-denmark-coarse.geojson"},"geometry":{"type":"LineString","coordinates":[[10.423,55.96],[10.445,55.959988],[10.454996,55.95],[10.44,55.940017],[10.43,55.940015],[10.425,55.94501],[10.41,55.950013],[10.400008,55.96],[10.405,55.964985],[10.41,55.96499],[10.423,55.96]]}},{"type":"Feature","properties":{"depth":1,"source":"DDM 2024 coarse contour","resolution":"0.005 degree sampled grid","scope":"denmark","tileSource":"contours-denmark-coarse.geojson"},"geometry":{"type":"LineString","coordinates":[[10.755001,55.940037],[10.755,55.940037],[10.750015,55.945],[10.755,55.949989],[10.755001,55.949989]]}},{"type":"Feature","properties":{"depth":2,"source":"DDM 2024 coarse contour","resolution":"0.005 degree sampled grid","scope":"denmark","tileSource":"contours-denmark-coarse.geojson"},"geometry":{"type":"LineString","coordinates":[[10.755001,56.230576],[10.746136,56.225],[10.74,56.216],[10.735978,56.2],[10.739992,56.19],[10.739991,56.175],[10.724996,56.15],[10.715,56.140011],[10.685,56.140004],[10.66,56.158026],[10.645,56.165012],[10.62,56.187115],[10.615,56.195056],[10.645,56.196333],[10.66,56.186923],[10.672931,56.2],[10.673824,56.21],[10.67,56.215],[10.652895,56.225],[10.600581,56.225],[10.595,56.220016],[10.59,56.220003],[10.575,56.200016],[10.562031,56.195],[10.555,56.185017],[10.55,56.185004],[10.539995,56.175],[10.534997,56.165],[10.555,56.145],[10.555,56.135536],[10.561061,56.13],[10.559995,56.115],[10.545,56.100016],[10.53,56.098906],[10.525,56.095009],[10.51,56.095087],[10.505037,56.1],[10.505,56.104568],[10.490012,56.12],[10.49,56.125],[10.47875,56.14],[10.49,56.14993],[10.505,56.14995],[10.51,56.145708],[10.519214,56.15],[10.524813,56.16],[10.525,56.170007],[10.511702,56.17],[10.51,56.164435],[10.5,56.164213],[10.479417,56.175],[10.47,56.175039],[10.459125,56.18],[10.445,56.18001],[10.43,56.165012],[10.425,56.165003],[10.42,56.160011],[10.385,56.160017],[10.375,56.17],[10.37,56.18375],[10.345,56.19],[10.341923,56.195],[10.3475,56.205],[10.345789,56.21],[10.35,56.212162],[10.365,56.207065],[10.38,56.212167],[10.393026,56.21],[10.405,56.220595],[10.42,56.225469],[10.425,56.222941],[10.435,56.224962],[10.44,56.221131],[10.45,56.234984],[10.48,56.252857],[10.480003,56.26],[10.487803,56.265001]]}},{"type":"Feature","properties":{"depth":2,"source":"DDM 2024 coarse contour","resolution":"0.005 degree sampled grid","scope":"denmark","tileSource":"contours-denmark-coarse.geojson"},"geometry":{"type":"LineString","coordinates":[[10.477799,56.265001],[10.4778,56.265],[10.475,56.262742],[10.472326,56.265001]]}},{"type":"Feature","properties":{"depth":2,"source":"DDM 2024 coarse contour","resolution":"0.005 degree sampled grid","scope":"denmark","tileSource":"contours-denmark-coarse.geojson"},"geometry":{"type":"LineString","coordinates":[[10.355102,56.265001],[10.347903,56.26],[10.354982,56.25],[10.35,56.245033],[10.345075,56.245],[10.335,56.230023],[10.305,56.221724],[10.29,56.21],[10.284048,56.2],[10.279999,56.197767]]}},{"type":"Feature","properties":{"depth":2,"source":"DDM 2024 coarse contour","resolution":"0.005 degree sampled grid","scope":"denmark","tileSource":"contours-denmark-coarse.geojson"},"geometry":{"type":"LineString","coordinates":[[10.279999,56.023837],[10.285795,56.02],[10.279999,56.016332]]}},{"type":"Feature","properties":{"depth":2,"source":"DDM 2024 coarse contour","resolution":"0.005 degree sampled grid","scope":"denmark","tileSource":"contours-denmark-coarse.geojson"},"geometry":{"type":"LineString","coordinates":[[10.310125,55.82],[10.313125,55.805],[10.321196,55.789999]]}},{"type":"Feature","properties":{"depth":2,"source":"DDM 2024 coarse contour","resolution":"0.005 degree sampled grid","scope":"denmark","tileSource":"contours-denmark-coarse.geojson"},"geometry":{"type":"LineString","coordinates":[[10.297496,55.789999],[10.2975,55.79],[10.3075,55.805],[10.310125,55.82]]}},{"type":"Feature","properties":{"depth":2,"source":"DDM 2024 coarse contour","resolution":"0.005 degree sampled grid","scope":"denmark","tileSource":"contours-denmark-coarse.geojson"},"geometry":{"type":"LineString","coordinates":[[10.572353,56.01],[10.572568,56.005],[10.565,55.9975],[10.5686,55.985],[10.564999,55.98],[10.569992,55.975],[10.57,55.968077],[10.580714,55.95],[10.605985,55.93],[10.635,55.926667],[10.640714,55.93],[10.636875,55.925],[10.65,55.92],[10.645556,55.915],[10.65,55.910088],[10.66,55.9125],[10.664015,55.92],[10.662143,55.925],[10.668968,55.93],[10.67,55.93609],[10.674474,55.935],[10.679966,55.925],[10.68,55.918095],[10.691,55.9],[10.679545,55.885],[10.68,55.87],[10.675,55.86501],[10.660978,55.86],[10.647317,55.845],[10.64,55.8275],[10.641667,55.815],[10.646905,55.81],[10.64499,55.795],[10.639994,55.79],[10.639994,55.789999]]}},{"type":"Feature","properties":{"depth":2,"source":"DDM 2024 coarse contour","resolution":"0.005 degree sampled grid","scope":"denmark","tileSource":"contours-denmark-coarse.geojson"},"geometry":{"type":"LineString","coordinates":[[10.527516,55.789999],[10.525017,55.795],[10.524737,55.845],[10.520769,55.85],[10.521111,55.855],[10.545,55.864988],[10.565,55.869983],[10.57,55.8669],[10.579333,55.87],[10.59,55.88125],[10.590007,55.89],[10.598152,55.905],[10.594615,55.915],[10.585,55.924438],[10.562241,55.935],[10.535,55.935031],[10.520025,55.955],[10.520008,55.98],[10.555,56.004444],[10.57,56.0125],[10.572353,56.01]]}},{"type":"Feature","properties":{"depth":2,"source":"DDM 2024 coarse contour","resolution":"0.005 degree sampled grid","scope":"denmark","tileSource":"contours-denmark-coarse.geojson"},"geometry":{"type":"LineString","coordinates":[[10.3575,55.85],[10.359583,55.845],[10.355,55.84],[10.379444,55.83],[10.375,55.822917],[10.34,55.818958],[10.325556,55.825],[10.330909,55.83],[10.325,55.844167],[10.32,55.8325],[10.314,55.835],[10.311923,55.84],[10.315,55.842857],[10.32,55.841],[10.325,55.845143],[10.335,55.842424],[10.34,55.8478],[10.3575,55.85]]}},{"type":"Feature","properties":{"depth":2,"source":"DDM 2024 coarse contour","resolution":"0.005 degree sampled grid","scope":"denmark","tileSource":"contours-denmark-coarse.geojson"},"geometry":{"type":"LineString","coordinates":[[10.68,55.9014],[10.675,55.896667],[10.661667,55.895],[10.67,55.895],[10.675,55.889762],[10.681429,55.895],[10.68,55.9014]]}},{"type":"Feature","properties":{"depth":2,"source":"DDM 2024 coarse contour","resolution":"0.005 degree sampled grid","scope":"denmark","tileSource":"contours-denmark-coarse.geojson"},"geometry":{"type":"LineString","coordinates":[[10.300556,55.915],[10.29,55.9],[10.279999,55.899687]]}},{"type":"Feature","properties":{"depth":2,"source":"DDM 2024 coarse contour","resolution":"0.005 degree sampled grid","scope":"denmark","tileSource":"contours-denmark-coarse.geojson"},"geometry":{"type":"LineString","coordinates":[[10.279999,55.9075],[10.28,55.9075],[10.29,55.917353],[10.300556,55.915]]}},{"type":"Feature","properties":{"depth":2,"source":"DDM 2024 coarse contour","resolution":"0.005 degree sampled grid","scope":"denmark","tileSource":"contours-denmark-coarse.geojson"},"geometry":{"type":"LineString","coordinates":[[10.427,55.96],[10.445,55.959993],[10.455625,55.955],[10.455435,55.95],[10.44,55.940012],[10.43,55.94001],[10.425,55.945005],[10.41,55.950008],[10.400003,55.96],[10.405,55.96499],[10.41,55.964995],[10.427,55.96]]}},{"type":"Feature","properties":{"depth":2,"source":"DDM 2024 coarse contour","resolution":"0.005 degree sampled grid","scope":"denmark","tileSource":"contours-denmark-coarse.geojson"},"geometry":{"type":"LineString","coordinates":[[10.755001,55.940032],[10.755,55.940032],[10.75001,55.945],[10.755,55.949994],[10.755001,55.949994]]}},{"type":"Feature","properties":{"depth":2,"source":"DDM 2024 coarse contour","resolution":"0.005 degree sampled grid","scope":"denmark","tileSource":"contours-denmark-coarse.geojson"},"geometry":{"type":"LineString","coordinates":[[10.375714,55.96],[10.365,55.957917],[10.357222,55.96],[10.36,55.963571],[10.375,55.965],[10.375714,55.96]]}},{"type":"Feature","properties":{"depth":2,"source":"DDM 2024 coarse contour","resolution":"0.005 degree sampled grid","scope":"denmark","tileSource":"contours-denmark-coarse.geojson"},"geometry":{"type":"LineString","coordinates":[[10.465,56.225031],[10.448571,56.225],[10.430707,56.21],[10.435,56.205],[10.45,56.204977],[10.455,56.201296],[10.46,56.200833],[10.465,56.20629],[10.472927,56.205],[10.475,56.211667],[10.468987,56.225],[10.465,56.225031]]}},{"type":"Feature","properties":{"depth":3,"source":"DDM 2024 coarse contour","resolution":"0.005 degree sampled grid","scope":"denmark","tileSource":"contours-denmark-coarse.geojson"},"geometry":{"type":"LineString","coordinates":[[10.755001,56.230103],[10.747273,56.225],[10.740667,56.215],[10.737065,56.2],[10.739996,56.175],[10.725,56.149583],[10.715,56.140006],[10.69,56.137826],[10.675,56.144103],[10.629583,56.175],[10.62,56.185192],[10.615,56.195618],[10.645,56.197444],[10.66,56.188205],[10.6625,56.195],[10.671207,56.2],[10.673088,56.21],[10.67,56.214038],[10.650263,56.225],[10.601163,56.225],[10.59,56.219753],[10.575,56.200011],[10.563594,56.195],[10.555,56.185012],[10.55,56.184767],[10.54,56.175],[10.535282,56.165],[10.555,56.147143],[10.555,56.137321],[10.562576,56.13],[10.561613,56.12],[10.545,56.100011],[10.525,56.095004],[10.51,56.095082],[10.476964,56.14],[10.49,56.149935],[10.505,56.149955],[10.51,56.14615],[10.5185,56.15],[10.524346,56.16],[10.525,56.170002],[10.512766,56.17],[10.51,56.164],[10.5,56.16375],[10.48,56.171136],[10.478583,56.175],[10.445,56.180005],[10.43,56.165007],[10.42,56.160006],[10.385,56.160012],[10.374167,56.17],[10.37,56.182788],[10.35,56.188125],[10.345,56.186154],[10.34,56.195],[10.346111,56.205],[10.343333,56.21],[10.35,56.213514],[10.365,56.208152],[10.38,56.213833],[10.391711,56.21],[10.402656,56.22],[10.4,56.22425],[10.394375,56.225],[10.405,56.230797],[10.4005,56.225],[10.405,56.221786],[10.42,56.22625],[10.435,56.224967],[10.44,56.221726],[10.45,56.234989],[10.48,56.254643],[10.478182,56.26],[10.471119,56.265001]]}},{"type":"Feature","properties":{"depth":3,"source":"DDM 2024 coarse contour","resolution":"0.005 degree sampled grid","scope":"denmark","tileSource":"contours-denmark-coarse.geojson"},"geometry":{"type":"LineString","coordinates":[[10.356659,56.265001],[10.349516,56.26],[10.354987,56.25],[10.345821,56.245],[10.335,56.230018],[10.31,56.223148],[10.286304,56.2],[10.279999,56.197214]]}},{"type":"Feature","properties":{"depth":3,"source":"DDM 2024 coarse contour","resolution":"0.005 degree sampled grid","scope":"denmark","tileSource":"contours-denmark-coarse.geojson"},"geometry":{"type":"LineString","coordinates":[[10.279999,56.024508],[10.286932,56.02],[10.279999,56.015564]]}},{"type":"Feature","properties":{"depth":3,"source":"DDM 2024 coarse contour","resolution":"0.005 degree sampled grid","scope":"denmark","tileSource":"contours-denmark-coarse.geojson"},"geometry":{"type":"LineString","coordinates":[[10.311375,55.82],[10.31734,55.8],[10.322937,55.789999]]}},{"type":"Feature","properties":{"depth":3,"source":"DDM 2024 coarse contour","resolution":"0.005 degree sampled grid","scope":"denmark","tileSource":"contours-denmark-coarse.geojson"},"geometry":{"type":"LineString","coordinates":[[10.279999,55.79],[10.294,55.79],[10.303077,55.805],[10.304687,55.815],[10.31,55.821618],[10.311375,55.82]]}},{"type":"Feature","properties":{"depth":3,"source":"DDM 2024 coarse contour","resolution":"0.005 degree sampled grid","scope":"denmark","tileSource":"contours-denmark-coarse.geojson"},"geometry":{"type":"LineString","coordinates":[[10.573824,56.01],[10.573919,56.005],[10.569643,56],[10.5725,55.98],[10.57,55.978889],[10.57,55.97],[10.5825,55.95],[10.606742,55.93],[10.625,55.927788],[10.645,55.930952],[10.64,55.925],[10.651064,55.92],[10.646349,55.915],[10.65,55.910965],[10.660517,55.915],[10.663258,55.92],[10.658939,55.925],[10.665,55.926296],[10.67,55.936731],[10.676818,55.935],[10.68,55.930625],[10.685,55.93125],[10.695,55.933571],[10.705,55.942308],[10.715,55.941373],[10.72,55.935],[10.71,55.93],[10.71,55.925],[10.7,55.92875],[10.68,55.929836],[10.68,55.920164],[10.6975,55.92],[10.695,55.914167],[10.69,55.92],[10.686786,55.915],[10.6935,55.9],[10.6925,55.895],[10.681905,55.885],[10.681064,55.87],[10.662065,55.86],[10.648537,55.845],[10.64,55.825],[10.642708,55.815],[10.648095,55.81],[10.644995,55.795],[10.641422,55.789999]]}},{"type":"Feature","properties":{"depth":3,"source":"DDM 2024 coarse contour","resolution":"0.005 degree sampled grid","scope":"denmark","tileSource":"contours-denmark-coarse.geojson"},"geometry":{"type":"LineString","coordinates":[[10.527511,55.789999],[10.525012,55.795],[10.522317,55.825],[10.524535,55.835],[10.516,55.855],[10.55,55.866389],[10.577667,55.87],[10.59,55.883036],[10.591897,55.9],[10.597065,55.905],[10.594066,55.915],[10.585,55.923813],[10.560517,55.935],[10.535,55.935026],[10.52002,55.955],[10.520003,55.98],[10.548929,56],[10.555,56.0075],[10.57,56.014063],[10.573824,56.01]]}},{"type":"Feature","properties":{"depth":3,"source":"DDM 2024 coarse contour","resolution":"0.005 degree sampled grid","scope":"denmark","tileSource":"contours-denmark-coarse.geojson"},"geometry":{"type":"LineString","coordinates":[[10.365833,55.85],[10.367,55.845],[10.361,55.84],[10.375,55.83375],[10.42,55.8304],[10.4325,55.825],[10.425,55.821667],[10.42,55.828333],[10.415,55.828125],[10.395,55.82],[10.385,55.822143],[10.365,55.817353],[10.35,55.819773],[10.34,55.816875],[10.325,55.821538],[10.309,55.835],[10.308864,55.84],[10.304,55.845],[10.305,55.848056],[10.335,55.843939],[10.34,55.8498],[10.35,55.852073],[10.365833,55.85]]}},{"type":"Feature","properties":{"depth":3,"source":"DDM 2024 coarse contour","resolution":"0.005 degree sampled grid","scope":"denmark","tileSource":"contours-denmark-coarse.geojson"},"geometry":{"type":"LineString","coordinates":[[10.385769,55.845],[10.372308,55.845],[10.375,55.847187],[10.385769,55.845]]}},{"type":"Feature","properties":{"depth":3,"source":"DDM 2024 coarse contour","resolution":"0.005 degree sampled grid","scope":"denmark","tileSource":"contours-denmark-coarse.geojson"},"geometry":{"type":"LineString","coordinates":[[10.290714,55.92],[10.306111,55.915],[10.298103,55.91],[10.3,55.904063],[10.29,55.896667],[10.279999,55.897535]]}},{"type":"Feature","properties":{"depth":3,"source":"DDM 2024 coarse contour","resolution":"0.005 degree sampled grid","scope":"denmark","tileSource":"contours-denmark-coarse.geojson"},"geometry":{"type":"LineString","coordinates":[[10.279999,55.909064],[10.28,55.909063],[10.286786,55.915],[10.285,55.919167],[10.279999,55.919792]]}},{"type":"Feature","properties":{"depth":3,"source":"DDM 2024 coarse contour","resolution":"0.005 degree sampled grid","scope":"denmark","tileSource":"contours-denmark-coarse.geojson"},"geometry":{"type":"LineString","coordinates":[[10.279999,55.92],[10.290714,55.92]]}},{"type":"Feature","properties":{"depth":3,"source":"DDM 2024 coarse contour","resolution":"0.005 degree sampled grid","scope":"denmark","tileSource":"contours-denmark-coarse.geojson"},"geometry":{"type":"LineString","coordinates":[[10.4425,55.96],[10.461364,55.955],[10.44,55.940007],[10.43,55.940005],[10.425,55.945],[10.41,55.950003],[10.399866,55.96],[10.405,55.964995],[10.41,55.965],[10.4425,55.96]]}},{"type":"Feature","properties":{"depth":3,"source":"DDM 2024 coarse contour","resolution":"0.005 degree sampled grid","scope":"denmark","tileSource":"contours-denmark-coarse.geojson"},"geometry":{"type":"LineString","coordinates":[[10.755001,55.940027],[10.755,55.940027],[10.750005,55.945],[10.755,55.949999],[10.755001,55.949999]]}},{"type":"Feature","properties":{"depth":3,"source":"DDM 2024 coarse contour","resolution":"0.005 degree sampled grid","scope":"denmark","tileSource":"contours-denmark-coarse.geojson"},"geometry":{"type":"LineString","coordinates":[[10.360833,55.97],[10.38,55.965455],[10.379286,55.96],[10.365,55.956528],[10.343824,55.965],[10.360833,55.97]]}},{"type":"Feature","properties":{"depth":3,"source":"DDM 2024 coarse contour","resolution":"0.005 degree sampled grid","scope":"denmark","tileSource":"contours-denmark-coarse.geojson"},"geometry":{"type":"LineString","coordinates":[[10.451667,56.055],[10.45,56.049167],[10.44,56.049706],[10.438571,56.055],[10.445,56.058333],[10.451667,56.055]]}},{"type":"Feature","properties":{"depth":3,"source":"DDM 2024 coarse contour","resolution":"0.005 degree sampled grid","scope":"denmark","tileSource":"contours-denmark-coarse.geojson"},"geometry":{"type":"LineString","coordinates":[[10.465,56.225026],[10.45,56.224643],[10.431212,56.21],[10.436087,56.205],[10.45,56.204982],[10.455,56.202222],[10.465,56.207097],[10.471707,56.205],[10.4744,56.21],[10.468354,56.225],[10.465,56.225026]]}},{"type":"Feature","properties":{"depth":3,"source":"DDM 2024 coarse contour","resolution":"0.005 degree sampled grid","scope":"denmark","tileSource":"contours-denmark-coarse.geojson"},"geometry":{"type":"LineString","coordinates":[[10.479023,56.265001],[10.48,56.264],[10.48569,56.265],[10.485692,56.265001]]}},{"type":"Feature","properties":{"depth":5,"source":"DDM 2024 coarse contour","resolution":"0.005 degree sampled grid","scope":"denmark","tileSource":"contours-denmark-coarse.geojson"},"geometry":{"type":"LineString","coordinates":[[10.755001,56.230415],[10.754268,56.23],[10.741129,56.21],[10.739239,56.2],[10.7425,56.18],[10.74027,56.17],[10.729694,56.155],[10.729091,56.145],[10.721667,56.14],[10.685,56.136857],[10.66,56.1543],[10.645,56.158684],[10.635,56.17102],[10.6195,56.175],[10.615,56.196742],[10.66,56.200333],[10.665,56.207],[10.67,56.2056],[10.67,56.212115],[10.655,56.221607],[10.645,56.222],[10.64,56.218704],[10.635,56.223804],[10.602326,56.225],[10.59,56.218519],[10.581685,56.21],[10.58,56.199545],[10.57475,56.2],[10.57125,56.195],[10.565,56.194304],[10.56,56.187333],[10.54,56.173246],[10.53669,56.165],[10.546127,56.155],[10.55593,56.15],[10.56,56.141081],[10.57,56.131471],[10.5751,56.13],[10.565,56.125],[10.561563,56.11],[10.54375,56.1],[10.54,56.094603],[10.51,56.095073],[10.475,56.1375],[10.474579,56.14],[10.49,56.149945],[10.505,56.149964],[10.51,56.147035],[10.517071,56.15],[10.523411,56.16],[10.522419,56.17],[10.514894,56.17],[10.512867,56.165],[10.505,56.162386],[10.476154,56.165],[10.476917,56.175],[10.446731,56.18],[10.435,56.166618],[10.422222,56.16],[10.395,56.154934],[10.375,56.166548],[10.37,56.180865],[10.365,56.183571],[10.35,56.183333],[10.34,56.178571],[10.335,56.182778],[10.343947,56.205],[10.338125,56.21],[10.35,56.215333],[10.365,56.210882],[10.397222,56.23],[10.395,56.235],[10.405,56.232246],[10.41,56.226563],[10.43,56.227105],[10.44,56.222917],[10.445,56.230476],[10.458417,56.24],[10.459231,56.245],[10.47413,56.255],[10.466591,56.265001]]}},{"type":"Feature","properties":{"depth":5,"source":"DDM 2024 coarse contour","resolution":"0.005 degree sampled grid","scope":"denmark","tileSource":"contours-denmark-coarse.geojson"},"geometry":{"type":"LineString","coordinates":[[10.376607,56.265001],[10.375,56.263824],[10.35875,56.265],[10.354048,56.26],[10.356714,56.255],[10.354997,56.25],[10.33375,56.23],[10.335549,56.225],[10.31,56.221296],[10.29,56.199706],[10.279999,56.197075]]}},{"type":"Feature","properties":{"depth":5,"source":"DDM 2024 coarse contour","resolution":"0.005 degree sampled grid","scope":"denmark","tileSource":"contours-denmark-coarse.geojson"},"geometry":{"type":"LineString","coordinates":[[10.279999,56.055717],[10.281667,56.055],[10.285,56.049318],[10.295,56.045],[10.281429,56.035],[10.285,56.030982],[10.293387,56.03],[10.289205,56.02],[10.290833,56.015],[10.279999,56.00649]]}},{"type":"Feature","properties":{"depth":5,"source":"DDM 2024 coarse contour","resolution":"0.005 degree sampled grid","scope":"denmark","tileSource":"contours-denmark-coarse.geojson"},"geometry":{"type":"LineString","coordinates":[[10.279999,55.922812],[10.3,55.922632],[10.317414,55.915],[10.315,55.910333],[10.303214,55.91],[10.301296,55.9],[10.305,55.8946],[10.29,55.89125],[10.285,55.894762],[10.279999,55.894425]]}},{"type":"Feature","properties":{"depth":5,"source":"DDM 2024 coarse contour","resolution":"0.005 degree sampled grid","scope":"denmark","tileSource":"contours-denmark-coarse.geojson"},"geometry":{"type":"LineString","coordinates":[[10.279999,55.849396],[10.3,55.837391],[10.304,55.84],[10.3,55.855417],[10.315,55.848],[10.36,55.855106],[10.385,55.8498],[10.39,55.855],[10.395,55.855429],[10.405,55.851],[10.4085,55.84],[10.407,55.835],[10.412143,55.835],[10.415,55.840526],[10.43,55.836346],[10.445,55.838824],[10.47,55.827222],[10.465,55.820714],[10.455,55.819231],[10.451333,55.815],[10.44,55.811364],[10.42,55.816905],[10.4,55.816957],[10.385,55.81175],[10.375,55.815577],[10.37,55.809348],[10.355,55.81375],[10.35,55.809219],[10.345,55.812727],[10.33,55.80875],[10.32,55.81],[10.32,55.799038],[10.325,55.7932],[10.33375,55.79],[10.33375,55.789999]]}},{"type":"Feature","properties":{"depth":5,"source":"DDM 2024 coarse contour","resolution":"0.005 degree sampled grid","scope":"denmark","tileSource":"contours-denmark-coarse.geojson"},"geometry":{"type":"LineString","coordinates":[[10.279999,55.796379],[10.287143,55.8],[10.285,55.805455],[10.295,55.802857],[10.301562,55.815],[10.3,55.82],[10.305,55.818793],[10.312143,55.825],[10.3,55.825],[10.29,55.835],[10.279999,55.837605]]}},{"type":"Feature","properties":{"depth":5,"source":"DDM 2024 coarse contour","resolution":"0.005 degree sampled grid","scope":"denmark","tileSource":"contours-denmark-coarse.geojson"},"geometry":{"type":"LineString","coordinates":[[10.577963,56.025],[10.59,56.017222],[10.605,56.017436],[10.607794,56.015],[10.597857,56.01],[10.600192,56.005],[10.596429,56],[10.575,55.99],[10.58,55.984643],[10.59,55.9862],[10.595,55.980625],[10.577941,55.965],[10.60119,55.935],[10.608258,55.93],[10.63,55.93027],[10.65,55.936364],[10.655,55.940625],[10.665,55.928148],[10.67,55.938013],[10.68,55.940286],[10.69,55.937903],[10.697955,55.945],[10.705,55.946161],[10.734412,55.935],[10.725,55.924375],[10.715789,55.92],[10.705,55.924706],[10.701863,55.92],[10.705238,55.915],[10.704,55.905],[10.70875,55.9],[10.709286,55.89],[10.6885,55.885],[10.683191,55.87],[10.664239,55.86],[10.65,55.843919],[10.645,55.835366],[10.642586,55.82],[10.65087,55.81],[10.6515,55.805],[10.643515,55.789999]]}},{"type":"Feature","properties":{"depth":5,"source":"DDM 2024 coarse contour","resolution":"0.005 degree sampled grid","scope":"denmark","tileSource":"contours-denmark-coarse.geojson"},"geometry":{"type":"LineString","coordinates":[[10.526301,55.789999],[10.5263,55.79],[10.52,55.840714],[10.5041,55.855],[10.505,55.8595],[10.525,55.861731],[10.53,55.86537],[10.54,55.864615],[10.575,55.871176],[10.582353,55.885],[10.583182,55.895],[10.594914,55.905],[10.595,55.911574],[10.59,55.920001],[10.570385,55.93],[10.555,55.92875],[10.535,55.935016],[10.52001,55.955],[10.52,55.981346],[10.545357,56],[10.565,56.020229],[10.575,56.026702],[10.577963,56.025]]}},{"type":"Feature","properties":{"depth":5,"source":"DDM 2024 coarse contour","resolution":"0.005 degree sampled grid","scope":"denmark","tileSource":"contours-denmark-coarse.geojson"},"geometry":{"type":"LineString","coordinates":[[10.315,55.823462],[10.314605,55.815],[10.32,55.81],[10.322857,55.815],[10.315,55.823462]]}},{"type":"Feature","properties":{"depth":5,"source":"DDM 2024 coarse contour","resolution":"0.005 degree sampled grid","scope":"denmark","tileSource":"contours-denmark-coarse.geojson"},"geometry":{"type":"LineString","coordinates":[[10.39,55.84625],[10.382143,55.84],[10.392,55.84],[10.3925,55.845],[10.39,55.84625]]}},{"type":"Feature","properties":{"depth":5,"source":"DDM 2024 coarse contour","resolution":"0.005 degree sampled grid","scope":"denmark","tileSource":"contours-denmark-coarse.geojson"},"geometry":{"type":"LineString","coordinates":[[10.331389,55.915],[10.336316,55.91],[10.327917,55.915],[10.331389,55.915]]}},{"type":"Feature","properties":{"depth":5,"source":"DDM 2024 coarse contour","resolution":"0.005 degree sampled grid","scope":"denmark","tileSource":"contours-denmark-coarse.geojson"},"geometry":{"type":"LineString","coordinates":[[10.655,55.926765],[10.65,55.928816],[10.643571,55.925],[10.653191,55.92],[10.655,55.915526],[10.661742,55.92],[10.655,55.926765]]}},{"type":"Feature","properties":{"depth":5,"source":"DDM 2024 coarse contour","resolution":"0.005 degree sampled grid","scope":"denmark","tileSource":"contours-denmark-coarse.geojson"},"geometry":{"type":"LineString","coordinates":[[10.410422,55.93],[10.405,55.924804],[10.398333,55.93],[10.410422,55.93]]}},{"type":"Feature","properties":{"depth":5,"source":"DDM 2024 coarse contour","resolution":"0.005 degree sampled grid","scope":"denmark","tileSource":"contours-denmark-coarse.geojson"},"geometry":{"type":"LineString","coordinates":[[10.69,55.926818],[10.68,55.928197],[10.68,55.921803],[10.69,55.922778],[10.693077,55.925],[10.69,55.926818]]}},{"type":"Feature","properties":{"depth":5,"source":"DDM 2024 coarse contour","resolution":"0.005 degree sampled grid","scope":"denmark","tileSource":"contours-denmark-coarse.geojson"},"geometry":{"type":"LineString","coordinates":[[10.436563,55.965],[10.455,55.962917],[10.46,55.957875],[10.465,55.96],[10.471455,55.955],[10.47,55.952419],[10.465,55.954118],[10.45,55.93973],[10.435,55.938939],[10.405,55.949868],[10.398973,55.96],[10.41,55.966667],[10.436563,55.965]]}},{"type":"Feature","properties":{"depth":5,"source":"DDM 2024 coarse contour","resolution":"0.005 degree sampled grid","scope":"denmark","tileSource":"contours-denmark-coarse.geojson"},"geometry":{"type":"LineString","coordinates":[[10.747292,55.955],[10.755001,55.953194]]}},{"type":"Feature","properties":{"depth":5,"source":"DDM 2024 coarse contour","resolution":"0.005 degree sampled grid","scope":"denmark","tileSource":"contours-denmark-coarse.geojson"},"geometry":{"type":"LineString","coordinates":[[10.755001,55.940017],[10.755,55.940017],[10.745,55.948699],[10.733448,55.95],[10.747292,55.955]]}},{"type":"Feature","properties":{"depth":5,"source":"DDM 2024 coarse contour","resolution":"0.005 degree sampled grid","scope":"denmark","tileSource":"contours-denmark-coarse.geojson"},"geometry":{"type":"LineString","coordinates":[[10.366,55.975],[10.37,55.972143],[10.385,55.972333],[10.39,55.965],[10.385,55.959742],[10.365,55.9505],[10.340882,55.965],[10.347857,55.97],[10.35,55.975581],[10.366,55.975]]}},{"type":"Feature","properties":{"depth":5,"source":"DDM 2024 coarse contour","resolution":"0.005 degree sampled grid","scope":"denmark","tileSource":"contours-denmark-coarse.geojson"},"geometry":{"type":"LineString","coordinates":[[10.320154,55.97],[10.318182,55.965],[10.3125,55.965],[10.315,55.970694],[10.320154,55.97]]}},{"type":"Feature","properties":{"depth":5,"source":"DDM 2024 coarse contour","resolution":"0.005 degree sampled grid","scope":"denmark","tileSource":"contours-denmark-coarse.geojson"},"geometry":{"type":"LineString","coordinates":[[10.738,55.98],[10.73375,55.975],[10.7275,55.975],[10.735,55.983],[10.738,55.98]]}},{"type":"Feature","properties":{"depth":5,"source":"DDM 2024 coarse contour","resolution":"0.005 degree sampled grid","scope":"denmark","tileSource":"contours-denmark-coarse.geojson"},"geometry":{"type":"LineString","coordinates":[[10.322,56.045],[10.323214,56.035],[10.32,56.025769],[10.313415,56.035],[10.319375,56.04],[10.32,56.0475],[10.322,56.045]]}},{"type":"Feature","properties":{"depth":5,"source":"DDM 2024 coarse contour","resolution":"0.005 degree sampled grid","scope":"denmark","tileSource":"contours-denmark-coarse.geojson"},"geometry":{"type":"LineString","coordinates":[[10.4625,56.06],[10.465,56.053125],[10.47,56.0545],[10.47625,56.05],[10.47,56.041389],[10.44,56.044783],[10.435,56.048571],[10.435,56.05625],[10.44,56.061667],[10.4625,56.06]]}},{"type":"Feature","properties":{"depth":5,"source":"DDM 2024 coarse contour","resolution":"0.005 degree sampled grid","scope":"denmark","tileSource":"contours-denmark-coarse.geojson"},"geometry":{"type":"LineString","coordinates":[[10.581111,56.105],[10.591667,56.1],[10.585,56.099277],[10.581111,56.105]]}},{"type":"Feature","properties":{"depth":5,"source":"DDM 2024 coarse contour","resolution":"0.005 degree sampled grid","scope":"denmark","tileSource":"contours-denmark-coarse.geojson"},"geometry":{"type":"LineString","coordinates":[[10.6002,56.115],[10.59,56.11],[10.593,56.115],[10.6002,56.115]]}},{"type":"Feature","properties":{"depth":5,"source":"DDM 2024 coarse contour","resolution":"0.005 degree sampled grid","scope":"denmark","tileSource":"contours-denmark-coarse.geojson"},"geometry":{"type":"LineString","coordinates":[[10.7,56.12],[10.7,56.1145],[10.69,56.115],[10.687667,56.12],[10.7,56.12]]}},{"type":"Feature","properties":{"depth":5,"source":"DDM 2024 coarse contour","resolution":"0.005 degree sampled grid","scope":"denmark","tileSource":"contours-denmark-coarse.geojson"},"geometry":{"type":"LineString","coordinates":[[10.465,56.225016],[10.45,56.223452],[10.432222,56.21],[10.438261,56.205],[10.455,56.204074],[10.47,56.20875],[10.47051,56.215],[10.465,56.225016]]}},{"type":"Feature","properties":{"depth":10,"source":"DDM 2024 coarse contour","resolution":"0.005 degree sampled grid","scope":"denmark","tileSource":"contours-denmark-coarse.geojson"},"geometry":{"type":"LineString","coordinates":[[10.755001,56.221219],[10.743457,56.205],[10.749687,56.17],[10.740462,56.155],[10.736157,56.135],[10.706597,56.105],[10.69,56.097979],[10.665,56.104643],[10.65314,56.125],[10.655,56.135244],[10.67,56.12768],[10.674327,56.13],[10.666957,56.14],[10.67,56.145067],[10.64,56.1525],[10.630833,56.17],[10.611515,56.175],[10.615893,56.185],[10.610909,56.195],[10.617105,56.2],[10.616875,56.21],[10.625,56.22],[10.630588,56.22],[10.615,56.2235],[10.605,56.224167],[10.59,56.215432],[10.58,56.196705],[10.565,56.191139],[10.564886,56.185],[10.542955,56.17],[10.549648,56.155],[10.56,56.154687],[10.567857,56.14],[10.58,56.141],[10.58,56.131667],[10.587,56.13],[10.576667,56.12],[10.57,56.125833],[10.565,56.10625],[10.54,56.092619],[10.51,56.095048],[10.49,56.111491],[10.480128,56.13],[10.47194,56.135],[10.472243,56.14],[10.49,56.149969],[10.512237,56.15],[10.521075,56.16],[10.52,56.166759],[10.505,56.159149],[10.475,56.163178],[10.47,56.1745],[10.445,56.175083],[10.441786,56.165],[10.466944,56.155],[10.455,56.153056],[10.435,56.16175],[10.4,56.151269],[10.375,56.162431],[10.36,56.179],[10.355,56.173837],[10.35,56.176078],[10.34,56.164105],[10.325556,56.17],[10.327712,56.185],[10.338958,56.205],[10.33,56.207364],[10.33,56.212164],[10.37875,56.225],[10.374133,56.23],[10.378493,56.235],[10.405,56.253571],[10.435,56.250333],[10.441667,56.245],[10.44,56.235],[10.45,56.240625],[10.445,56.2545],[10.405,56.263214],[10.404038,56.265001]]}},{"type":"Feature","properties":{"depth":10,"source":"DDM 2024 coarse contour","resolution":"0.005 degree sampled grid","scope":"denmark","tileSource":"contours-denmark-coarse.geojson"},"geometry":{"type":"LineString","coordinates":[[10.388181,56.265001],[10.355,56.243947],[10.338598,56.225],[10.315,56.217937],[10.295,56.195652],[10.279999,56.192597]]}},{"type":"Feature","properties":{"depth":10,"source":"DDM 2024 coarse contour","resolution":"0.005 degree sampled grid","scope":"denmark","tileSource":"contours-denmark-coarse.geojson"},"geometry":{"type":"LineString","coordinates":[[10.279999,56.18333],[10.285,56.180714],[10.28,56.171848],[10.279999,56.171848]]}},{"type":"Feature","properties":{"depth":10,"source":"DDM 2024 coarse contour","resolution":"0.005 degree sampled grid","scope":"denmark","tileSource":"contours-denmark-coarse.geojson"},"geometry":{"type":"LineString","coordinates":[[10.279999,56.058847],[10.28,56.058846],[10.305435,56.055],[10.297222,56.035],[10.3,56.032917],[10.311463,56.04],[10.315,56.054608],[10.325,56.055989],[10.335109,56.05],[10.326538,56.015],[10.315,56.008415],[10.318214,56.02],[10.31,56.026944],[10.305,56.023636],[10.302222,56.015],[10.293571,56.01],[10.304615,56.005],[10.3015,56],[10.282571,55.99],[10.279999,55.987038]]}},{"type":"Feature","properties":{"depth":10,"source":"DDM 2024 coarse contour","resolution":"0.005 degree sampled grid","scope":"denmark","tileSource":"contours-denmark-coarse.geojson"},"geometry":{"type":"LineString","coordinates":[[10.279999,55.974959],[10.285,55.970833],[10.295,55.970789],[10.3,55.976833],[10.305,55.968875],[10.32,55.976981],[10.33,55.964074],[10.335,55.965098],[10.35,55.986622],[10.36,55.980909],[10.385,55.980303],[10.396271,55.975],[10.385,55.957165],[10.371111,55.95],[10.37,55.935],[10.35,55.936667],[10.341471,55.93],[10.348182,55.925],[10.345,55.914444],[10.355,55.901974],[10.37,55.905345],[10.380758,55.895],[10.375,55.898846],[10.37,55.8942],[10.36,55.896724],[10.351,55.885],[10.355,55.877727],[10.3425,55.875],[10.3475,55.87],[10.3455,55.865],[10.36,55.861538],[10.365,55.8736],[10.375,55.863077],[10.385,55.868],[10.395,55.862571],[10.405,55.866061],[10.415,55.857381],[10.425,55.862361],[10.435,55.847391],[10.445,55.849457],[10.452,55.84],[10.47138,55.83],[10.475157,55.825],[10.47,55.805781],[10.445,55.7945],[10.44,55.803625],[10.43,55.7975],[10.423333,55.8],[10.42,55.794756],[10.405,55.803235],[10.401071,55.8],[10.407857,55.795],[10.405,55.792778],[10.395,55.802174],[10.38,55.796],[10.365,55.803095],[10.362143,55.795],[10.364763,55.789999]]}},{"type":"Feature","properties":{"depth":10,"source":"DDM 2024 coarse contour","resolution":"0.005 degree sampled grid","scope":"denmark","tileSource":"contours-denmark-coarse.geojson"},"geometry":{"type":"LineString","coordinates":[[10.580702,56.045],[10.576548,56.04],[10.59,56.024787],[10.62129,56.02],[10.61881,56.01],[10.61175,56.005],[10.615909,55.995],[10.6025,55.99],[10.612593,55.98],[10.596071,55.96],[10.624783,55.945],[10.625,55.937791],[10.655,55.94375],[10.663857,55.94],[10.665,55.933947],[10.67,55.942969],[10.715,55.951094],[10.737667,55.935],[10.725,55.917917],[10.712083,55.915],[10.720588,55.9],[10.716471,55.89],[10.659457,55.85],[10.650882,55.825],[10.662083,55.82],[10.66,55.805],[10.651045,55.789999]]}},{"type":"Feature","properties":{"depth":10,"source":"DDM 2024 coarse contour","resolution":"0.005 degree sampled grid","scope":"denmark","tileSource":"contours-denmark-coarse.geojson"},"geometry":{"type":"LineString","coordinates":[[10.520979,55.789999],[10.520978,55.79],[10.52,55.808194],[10.514792,55.805],[10.518931,55.82],[10.513636,55.84],[10.498714,55.855],[10.494265,55.87],[10.495,55.875098],[10.51,55.885743],[10.52,55.874868],[10.525,55.877955],[10.54,55.86873],[10.545263,55.87],[10.55875,55.875],[10.558214,55.88],[10.590603,55.905],[10.59022,55.915],[10.585,55.917955],[10.55,55.923068],[10.535,55.933333],[10.519282,55.955],[10.5175,55.97],[10.519474,55.985],[10.568253,56.025],[10.5734,56.045],[10.580702,56.045]]}},{"type":"Feature","properties":{"depth":10,"source":"DDM 2024 coarse contour","resolution":"0.005 degree sampled grid","scope":"denmark","tileSource":"contours-denmark-coarse.geojson"},"geometry":{"type":"LineString","coordinates":[[10.305,55.885909],[10.29,55.88],[10.305,55.87625],[10.305,55.885909]]}},{"type":"Feature","properties":{"depth":10,"source":"DDM 2024 coarse contour","resolution":"0.005 degree sampled grid","scope":"denmark","tileSource":"contours-denmark-coarse.geojson"},"geometry":{"type":"LineString","coordinates":[[10.335,55.896053],[10.321667,55.89],[10.33,55.886154],[10.339,55.895],[10.335,55.896053]]}},{"type":"Feature","properties":{"depth":10,"source":"DDM 2024 coarse contour","resolution":"0.005 degree sampled grid","scope":"denmark","tileSource":"contours-denmark-coarse.geojson"},"geometry":{"type":"LineString","coordinates":[[10.539545,55.91],[10.566071,55.905],[10.565,55.90125],[10.55,55.8995],[10.531154,55.91],[10.539545,55.91]]}},{"type":"Feature","properties":{"depth":10,"source":"DDM 2024 coarse contour","resolution":"0.005 degree sampled grid","scope":"denmark","tileSource":"contours-denmark-coarse.geojson"},"geometry":{"type":"LineString","coordinates":[[10.385325,55.94],[10.395,55.931758],[10.412045,55.93],[10.4,55.91875],[10.397955,55.925],[10.378793,55.935],[10.385325,55.94]]}},{"type":"Feature","properties":{"depth":10,"source":"DDM 2024 coarse contour","resolution":"0.005 degree sampled grid","scope":"denmark","tileSource":"contours-denmark-coarse.geojson"},"geometry":{"type":"LineString","coordinates":[[10.29,55.968548],[10.279999,55.960394]]}},{"type":"Feature","properties":{"depth":10,"source":"DDM 2024 coarse contour","resolution":"0.005 degree sampled grid","scope":"denmark","tileSource":"contours-denmark-coarse.geojson"},"geometry":{"type":"LineString","coordinates":[[10.279999,55.948863],[10.285,55.942317],[10.315,55.928077],[10.33,55.927692],[10.338958,55.935],[10.33,55.953571],[10.325,55.944138],[10.295,55.945],[10.29,55.968548]]}},{"type":"Feature","properties":{"depth":10,"source":"DDM 2024 coarse contour","resolution":"0.005 degree sampled grid","scope":"denmark","tileSource":"contours-denmark-coarse.geojson"},"geometry":{"type":"LineString","coordinates":[[10.415893,55.985],[10.4225,55.975],[10.44,55.983889],[10.475,55.975756],[10.469717,55.96],[10.473727,55.955],[10.457386,55.945],[10.45,55.934235],[10.415,55.939371],[10.396741,55.96],[10.413941,55.975],[10.41,55.9805],[10.415893,55.985]]}},{"type":"Feature","properties":{"depth":10,"source":"DDM 2024 coarse contour","resolution":"0.005 degree sampled grid","scope":"denmark","tileSource":"contours-denmark-coarse.geojson"},"geometry":{"type":"LineString","coordinates":[[10.755001,55.941446],[10.727321,55.95],[10.737348,55.955],[10.735,55.965204],[10.755001,55.958749]]}},{"type":"Feature","properties":{"depth":10,"source":"DDM 2024 coarse contour","resolution":"0.005 degree sampled grid","scope":"denmark","tileSource":"contours-denmark-coarse.geojson"},"geometry":{"type":"LineString","coordinates":[[10.755001,55.973193],[10.75,55.976884],[10.74,55.972246],[10.725,55.973151],[10.726136,55.985],[10.75,55.995234],[10.755001,55.995201]]}},{"type":"Feature","properties":{"depth":10,"source":"DDM 2024 coarse contour","resolution":"0.005 degree sampled grid","scope":"denmark","tileSource":"contours-denmark-coarse.geojson"},"geometry":{"type":"LineString","coordinates":[[10.697,55.97],[10.683083,55.97],[10.685,55.9746],[10.697,55.97]]}},{"type":"Feature","properties":{"depth":10,"source":"DDM 2024 coarse contour","resolution":"0.005 degree sampled grid","scope":"denmark","tileSource":"contours-denmark-coarse.geojson"},"geometry":{"type":"LineString","coordinates":[[10.29,56.007917],[10.284444,56],[10.294118,56.005],[10.29,56.007917]]}},{"type":"Feature","properties":{"depth":10,"source":"DDM 2024 coarse contour","resolution":"0.005 degree sampled grid","scope":"denmark","tileSource":"contours-denmark-coarse.geojson"},"geometry":{"type":"LineString","coordinates":[[10.473125,56.07],[10.480227,56.06],[10.505,56.055],[10.505,56.049397],[10.525,56.046857],[10.535,56.039888],[10.511053,56.035],[10.5066,56.03],[10.5151,56.025],[10.51,56.024286],[10.501923,56.03],[10.509048,56.035],[10.505,56.037742],[10.49,56.036],[10.496429,56.03],[10.492315,56.025],[10.496923,56.015],[10.49,56.007222],[10.482895,56.02],[10.465,56.0344],[10.46,56.0365],[10.455,56.03129],[10.431818,56.045],[10.43399,56.06],[10.44,56.066264],[10.473125,56.07]]}},{"type":"Feature","properties":{"depth":10,"source":"DDM 2024 coarse contour","resolution":"0.005 degree sampled grid","scope":"denmark","tileSource":"contours-denmark-coarse.geojson"},"geometry":{"type":"LineString","coordinates":[[10.318077,56.07],[10.323182,56.065],[10.296667,56.065],[10.31,56.071226],[10.318077,56.07]]}},{"type":"Feature","properties":{"depth":10,"source":"DDM 2024 coarse contour","resolution":"0.005 degree sampled grid","scope":"denmark","tileSource":"contours-denmark-coarse.geojson"},"geometry":{"type":"LineString","coordinates":[[10.350294,56.07],[10.35069,56.065],[10.343358,56.065],[10.345,56.07],[10.350294,56.07]]}},{"type":"Feature","properties":{"depth":10,"source":"DDM 2024 coarse contour","resolution":"0.005 degree sampled grid","scope":"denmark","tileSource":"contours-denmark-coarse.geojson"},"geometry":{"type":"LineString","coordinates":[[10.502917,56.08],[10.495,56.07],[10.489118,56.075],[10.495,56.08046],[10.502917,56.08]]}},{"type":"Feature","properties":{"depth":10,"source":"DDM 2024 coarse contour","resolution":"0.005 degree sampled grid","scope":"denmark","tileSource":"contours-denmark-coarse.geojson"},"geometry":{"type":"LineString","coordinates":[[10.385072,56.085],[10.37,56.079421],[10.364178,56.085],[10.37,56.089091],[10.385072,56.085]]}},{"type":"Feature","properties":{"depth":10,"source":"DDM 2024 coarse contour","resolution":"0.005 degree sampled grid","scope":"denmark","tileSource":"contours-denmark-coarse.geojson"},"geometry":{"type":"LineString","coordinates":[[10.607031,56.115],[10.611866,56.1],[10.605,56.094342],[10.59,56.094111],[10.578182,56.105],[10.59,56.118099],[10.607031,56.115]]}},{"type":"Feature","properties":{"depth":10,"source":"DDM 2024 coarse contour","resolution":"0.005 degree sampled grid","scope":"denmark","tileSource":"contours-denmark-coarse.geojson"},"geometry":{"type":"LineString","coordinates":[[10.71,56.131184],[10.699062,56.13],[10.714091,56.13],[10.71,56.131184]]}},{"type":"Feature","properties":{"depth":10,"source":"DDM 2024 coarse contour","resolution":"0.005 degree sampled grid","scope":"denmark","tileSource":"contours-denmark-coarse.geojson"},"geometry":{"type":"LineString","coordinates":[[10.585238,56.16],[10.58,56.153077],[10.572619,56.16],[10.585238,56.16]]}},{"type":"Feature","properties":{"depth":10,"source":"DDM 2024 coarse contour","resolution":"0.005 degree sampled grid","scope":"denmark","tileSource":"contours-denmark-coarse.geojson"},"geometry":{"type":"LineString","coordinates":[[10.46,56.220156],[10.45,56.220476],[10.434747,56.21],[10.45,56.208469],[10.461591,56.215],[10.46,56.220156]]}},{"type":"Feature","properties":{"depth":15,"source":"DDM 2024 coarse contour","resolution":"0.005 degree sampled grid","scope":"denmark","tileSource":"contours-denmark-coarse.geojson"},"geometry":{"type":"LineString","coordinates":[[10.755001,56.209003],[10.748704,56.2],[10.752386,56.165],[10.742385,56.155],[10.738472,56.135],[10.7,56.096132],[10.675,56.097286],[10.64,56.112222],[10.618333,56.145],[10.62,56.15],[10.63,56.147222],[10.63,56.152381],[10.62,56.15],[10.605,56.16125],[10.598,56.16],[10.605,56.145],[10.602778,56.13],[10.61,56.126364],[10.617353,56.1],[10.6,56.089899],[10.59,56.091333],[10.582734,56.095],[10.576434,56.105],[10.58,56.111481],[10.575,56.112674],[10.55,56.094695],[10.525,56.089897],[10.4867,56.11],[10.48,56.127576],[10.468261,56.135],[10.48,56.147555],[10.500417,56.155],[10.47,56.161154],[10.4739,56.155],[10.47,56.152903],[10.445,56.1509],[10.435,56.155857],[10.42,56.155221],[10.42,56.15],[10.425,56.15],[10.4,56.146887],[10.37,56.158235],[10.335,56.161667],[10.311,56.175],[10.318909,56.19],[10.32,56.205],[10.315,56.21175],[10.308263,56.21],[10.31,56.191778],[10.29,56.173889],[10.31,56.1555],[10.3425,56.14],[10.335,56.135],[10.34,56.13],[10.315,56.125],[10.3125,56.12],[10.3225,56.11],[10.32,56.105],[10.3275,56.095],[10.3175,56.09],[10.32625,56.08],[10.318571,56.075],[10.325,56.0742],[10.3288,56.065],[10.318913,56.06],[10.33,56.058629],[10.34125,56.05],[10.34,56.045],[10.361667,56.035],[10.365,56.025],[10.359286,56.025],[10.365,56.025],[10.377,56],[10.400361,55.975],[10.395,55.97],[10.405,55.969661],[10.411,55.975],[10.407679,55.995],[10.42,56.006591],[10.480064,55.975],[10.472713,55.95],[10.460351,55.945],[10.445,55.929375],[10.415,55.937622],[10.39,55.960726],[10.374924,55.945],[10.413669,55.93],[10.408537,55.91],[10.422031,55.895],[10.414167,55.885],[10.442241,55.86],[10.455,55.8419],[10.485317,55.82],[10.48,55.799005],[10.475,55.79734],[10.47,55.802152],[10.447083,55.79],[10.447084,55.789999]]}},{"type":"Feature","properties":{"depth":15,"source":"DDM 2024 coarse contour","resolution":"0.005 degree sampled grid","scope":"denmark","tileSource":"contours-denmark-coarse.geojson"},"geometry":{"type":"LineString","coordinates":[[10.584,56.05],[10.581667,56.04],[10.595,56.027679],[10.63375,56.02],[10.695,55.990714],[10.701364,55.985],[10.705588,55.965],[10.697429,55.96],[10.72,55.951429],[10.723646,55.955],[10.711429,55.97],[10.720688,55.975],[10.72,56],[10.735,55.992162],[10.755,55.999921],[10.755001,55.999921]]}},{"type":"Feature","properties":{"depth":15,"source":"DDM 2024 coarse contour","resolution":"0.005 degree sampled grid","scope":"denmark","tileSource":"contours-denmark-coarse.geojson"},"geometry":{"type":"LineString","coordinates":[[10.755001,55.907682],[10.750682,55.91],[10.755001,55.911833]]}},{"type":"Feature","properties":{"depth":15,"source":"DDM 2024 coarse contour","resolution":"0.005 degree sampled grid","scope":"denmark","tileSource":"contours-denmark-coarse.geojson"},"geometry":{"type":"LineString","coordinates":[[10.755001,55.93002],[10.755,55.93],[10.7475,55.94],[10.742353,55.935],[10.747326,55.93],[10.74,55.923276],[10.735,55.926776],[10.721176,55.91],[10.729318,55.895],[10.715,55.881429],[10.71,55.882177],[10.671579,55.855],[10.663793,55.84],[10.670775,55.82],[10.664535,55.81],[10.665407,55.8],[10.654342,55.79],[10.654341,55.789999]]}},{"type":"Feature","properties":{"depth":15,"source":"DDM 2024 coarse contour","resolution":"0.005 degree sampled grid","scope":"denmark","tileSource":"contours-denmark-coarse.geojson"},"geometry":{"type":"LineString","coordinates":[[10.509036,55.789999],[10.50425,55.8],[10.515435,55.81],[10.517023,55.82],[10.48822,55.87],[10.5,55.884894],[10.533333,55.895],[10.519259,55.91],[10.53,55.9225],[10.530802,55.935],[10.518045,55.955],[10.517281,55.985],[10.565241,56.025],[10.57,56.048438],[10.584,56.05]]}},{"type":"Feature","properties":{"depth":15,"source":"DDM 2024 coarse contour","resolution":"0.005 degree sampled grid","scope":"denmark","tileSource":"contours-denmark-coarse.geojson"},"geometry":{"type":"LineString","coordinates":[[10.697059,55.825],[10.705,55.815],[10.682027,55.815],[10.69,55.826818],[10.697059,55.825]]}},{"type":"Feature","properties":{"depth":15,"source":"DDM 2024 coarse contour","resolution":"0.005 degree sampled grid","scope":"denmark","tileSource":"contours-denmark-coarse.geojson"},"geometry":{"type":"LineString","coordinates":[[10.709375,55.84],[10.720312,55.83],[10.702778,55.835],[10.705,55.840854],[10.709375,55.84]]}},{"type":"Feature","properties":{"depth":15,"source":"DDM 2024 coarse contour","resolution":"0.005 degree sampled grid","scope":"denmark","tileSource":"contours-denmark-coarse.geojson"},"geometry":{"type":"LineString","coordinates":[[10.431887,55.925],[10.425,55.917222],[10.417277,55.925],[10.425,55.929114],[10.431887,55.925]]}},{"type":"Feature","properties":{"depth":15,"source":"DDM 2024 coarse contour","resolution":"0.005 degree sampled grid","scope":"denmark","tileSource":"contours-denmark-coarse.geojson"},"geometry":{"type":"LineString","coordinates":[[10.74,55.945674],[10.727679,55.945],[10.74,55.936],[10.744324,55.94],[10.74,55.945674]]}},{"type":"Feature","properties":{"depth":15,"source":"DDM 2024 coarse contour","resolution":"0.005 degree sampled grid","scope":"denmark","tileSource":"contours-denmark-coarse.geojson"},"geometry":{"type":"LineString","coordinates":[[10.33,55.9825],[10.327821,55.975],[10.335,55.97],[10.335,55.979],[10.33,55.9825]]}},{"type":"Feature","properties":{"depth":15,"source":"DDM 2024 coarse contour","resolution":"0.005 degree sampled grid","scope":"denmark","tileSource":"contours-denmark-coarse.geojson"},"geometry":{"type":"LineString","coordinates":[[10.515538,56.085],[10.51125,56.075],[10.513793,56.065],[10.506818,56.06],[10.535,56.045753],[10.535,56.037079],[10.526364,56.035],[10.520068,56.025],[10.502,56.015],[10.5006,56.01],[10.507017,56.005],[10.505068,55.99],[10.495,55.987727],[10.49,55.998077],[10.485789,55.995],[10.486591,55.985],[10.48,55.984777],[10.469651,56],[10.474091,56.01],[10.468953,56.015],[10.473158,56.02],[10.47,56.024286],[10.43,56.033235],[10.425,56.04],[10.427373,56.05],[10.431465,56.06],[10.445,56.071833],[10.455,56.075074],[10.48,56.072286],[10.495,56.083333],[10.515538,56.085]]}},{"type":"Feature","properties":{"depth":15,"source":"DDM 2024 coarse contour","resolution":"0.005 degree sampled grid","scope":"denmark","tileSource":"contours-denmark-coarse.geojson"},"geometry":{"type":"LineString","coordinates":[[10.444231,56.025],[10.455,56.022083],[10.4564,56.015],[10.447407,56.015],[10.436765,56.025],[10.444231,56.025]]}},{"type":"Feature","properties":{"depth":15,"source":"DDM 2024 coarse contour","resolution":"0.005 degree sampled grid","scope":"denmark","tileSource":"contours-denmark-coarse.geojson"},"geometry":{"type":"LineString","coordinates":[[10.606452,56.055],[10.615111,56.05],[10.615,56.04],[10.598,56.045],[10.598878,56.055],[10.606452,56.055]]}},{"type":"Feature","properties":{"depth":15,"source":"DDM 2024 coarse contour","resolution":"0.005 degree sampled grid","scope":"denmark","tileSource":"contours-denmark-coarse.geojson"},"geometry":{"type":"LineString","coordinates":[[10.350109,56.075],[10.362188,56.065],[10.35,56.0578],[10.337979,56.07],[10.34,56.075714],[10.350109,56.075]]}},{"type":"Feature","properties":{"depth":15,"source":"DDM 2024 coarse contour","resolution":"0.005 degree sampled grid","scope":"denmark","tileSource":"contours-denmark-coarse.geojson"},"geometry":{"type":"LineString","coordinates":[[10.396481,56.075],[10.411026,56.065],[10.405,56.055455],[10.395,56.061613],[10.388462,56.06],[10.396481,56.075]]}},{"type":"Feature","properties":{"depth":15,"source":"DDM 2024 coarse contour","resolution":"0.005 degree sampled grid","scope":"denmark","tileSource":"contours-denmark-coarse.geojson"},"geometry":{"type":"LineString","coordinates":[[10.6725,56.07],[10.675,56.064444],[10.657054,56.07],[10.6725,56.07]]}},{"type":"Feature","properties":{"depth":15,"source":"DDM 2024 coarse contour","resolution":"0.005 degree sampled grid","scope":"denmark","tileSource":"contours-denmark-coarse.geojson"},"geometry":{"type":"LineString","coordinates":[[10.373542,56.095],[10.388696,56.085],[10.385,56.07575],[10.365,56.078548],[10.356944,56.095],[10.365,56.098485],[10.373542,56.095]]}},{"type":"Feature","properties":{"depth":15,"source":"DDM 2024 coarse contour","resolution":"0.005 degree sampled grid","scope":"denmark","tileSource":"contours-denmark-coarse.geojson"},"geometry":{"type":"LineString","coordinates":[[10.65875,56.085],[10.64,56.076047],[10.63,56.08],[10.64,56.087703],[10.65875,56.085]]}},{"type":"Feature","properties":{"depth":15,"source":"DDM 2024 coarse contour","resolution":"0.005 degree sampled grid","scope":"denmark","tileSource":"contours-denmark-coarse.geojson"},"geometry":{"type":"LineString","coordinates":[[10.740776,56.115],[10.73,56.102532],[10.725,56.104655],[10.73,56.113224],[10.740776,56.115]]}},{"type":"Feature","properties":{"depth":15,"source":"DDM 2024 coarse contour","resolution":"0.005 degree sampled grid","scope":"denmark","tileSource":"contours-denmark-coarse.geojson"},"geometry":{"type":"LineString","coordinates":[[10.35,56.225],[10.331197,56.22],[10.345,56.217593],[10.352364,56.22],[10.35,56.225]]}},{"type":"Feature","properties":{"depth":20,"source":"DDM 2024 coarse contour","resolution":"0.005 degree sampled grid","scope":"denmark","tileSource":"contours-denmark-coarse.geojson"},"geometry":{"type":"LineString","coordinates":[[10.755001,56.194261],[10.752195,56.19],[10.755001,56.169128]]}},{"type":"Feature","properties":{"depth":20,"source":"DDM 2024 coarse contour","resolution":"0.005 degree sampled grid","scope":"denmark","tileSource":"contours-denmark-coarse.geojson"},"geometry":{"type":"LineString","coordinates":[[10.755001,56.164507],[10.744308,56.155],[10.740574,56.135],[10.732687,56.125],[10.740534,56.12],[10.74,56.111053],[10.730549,56.1],[10.725,56.100345],[10.722692,56.105],[10.729444,56.115],[10.725,56.118265],[10.707889,56.1],[10.711,56.095],[10.7075,56.09],[10.68,56.0775],[10.675,56.08],[10.671111,56.075],[10.68,56.074583],[10.681833,56.07],[10.675,56.059914],[10.616136,56.08],[10.645,56.092143],[10.646333,56.095],[10.635,56.097692],[10.63,56.10381],[10.62619,56.1],[10.629706,56.095],[10.62,56.091136],[10.615,56.096329],[10.6,56.087374],[10.582368,56.09],[10.575,56.103043],[10.54,56.089277],[10.515,56.092437],[10.48225,56.11],[10.48,56.125051],[10.475,56.122917],[10.465,56.133438],[10.465273,56.14],[10.483482,56.15],[10.483281,56.155],[10.46,56.145625],[10.453448,56.135],[10.46,56.12],[10.455,56.123696],[10.43,56.115],[10.426429,56.095],[10.4125,56.08],[10.416439,56.065],[10.400167,56.04],[10.400086,56.03],[10.44,56.010063],[10.443824,56.015],[10.413814,56.035],[10.430135,56.065],[10.45,56.078148],[10.475,56.073456],[10.476667,56.08],[10.5,56.08678],[10.516659,56.085],[10.522187,56.065],[10.519841,56.055],[10.537675,56.045],[10.535,56.034496],[10.51,56.010714],[10.508493,55.99],[10.5,55.981486],[10.49,55.982034],[10.481123,55.975],[10.480172,55.965],[10.487,55.96],[10.46,55.940846],[10.454915,55.935],[10.458235,55.93],[10.44,55.928788],[10.437024,55.925],[10.45125,55.915],[10.433718,55.88],[10.436778,55.87],[10.455,55.8444],[10.485,55.822081],[10.487914,55.815],[10.475333,55.789999]]}},{"type":"Feature","properties":{"depth":20,"source":"DDM 2024 coarse contour","resolution":"0.005 degree sampled grid","scope":"denmark","tileSource":"contours-denmark-coarse.geojson"},"geometry":{"type":"LineString","coordinates":[[10.499015,55.789999],[10.501125,55.8],[10.515115,55.82],[10.484241,55.87],[10.515,55.9025],[10.523472,55.925],[10.525,55.94],[10.516807,55.955],[10.512361,55.98],[10.550208,56.015],[10.545143,56.02],[10.555,56.021458],[10.567137,56.035],[10.569338,56.055],[10.565,56.060253],[10.585,56.054694],[10.5875,56.04],[10.595,56.037308],[10.599375,56.04],[10.591892,56.045],[10.592391,56.055],[10.605,56.057265],[10.620638,56.05],[10.624333,56.04],[10.6,56.039844],[10.595811,56.035],[10.6,56.03213],[10.745,56.025],[10.74,56.02],[10.752692,56.005],[10.755001,56.004837]]}},{"type":"Feature","properties":{"depth":20,"source":"DDM 2024 coarse contour","resolution":"0.005 degree sampled grid","scope":"denmark","tileSource":"contours-denmark-coarse.geojson"},"geometry":{"type":"LineString","coordinates":[[10.755001,55.893061],[10.735,55.89328],[10.685,55.860181],[10.685,55.853333],[10.690714,55.855],[10.675833,55.835],[10.668433,55.81],[10.670797,55.805],[10.661288,55.789999]]}},{"type":"Feature","properties":{"depth":20,"source":"DDM 2024 coarse contour","resolution":"0.005 degree sampled grid","scope":"denmark","tileSource":"contours-denmark-coarse.geojson"},"geometry":{"type":"LineString","coordinates":[[10.732083,55.805],[10.737963,55.795],[10.735,55.79],[10.741471,55.79],[10.745,55.803043],[10.755001,55.799198]]}},{"type":"Feature","properties":{"depth":20,"source":"DDM 2024 coarse contour","resolution":"0.005 degree sampled grid","scope":"denmark","tileSource":"contours-denmark-coarse.geojson"},"geometry":{"type":"LineString","coordinates":[[10.72928,55.789999],[10.7265,55.795],[10.718125,55.795],[10.724167,55.79],[10.724166,55.789999]]}},{"type":"Feature","properties":{"depth":20,"source":"DDM 2024 coarse contour","resolution":"0.005 degree sampled grid","scope":"denmark","tileSource":"contours-denmark-coarse.geojson"},"geometry":{"type":"LineString","coordinates":[[10.71694,55.789999],[10.711429,55.795],[10.73,55.807381],[10.732083,55.805]]}},{"type":"Feature","properties":{"depth":20,"source":"DDM 2024 coarse contour","resolution":"0.005 degree sampled grid","scope":"denmark","tileSource":"contours-denmark-coarse.geojson"},"geometry":{"type":"LineString","coordinates":[[10.755,55.87],[10.755001,55.869997]]}},{"type":"Feature","properties":{"depth":20,"source":"DDM 2024 coarse contour","resolution":"0.005 degree sampled grid","scope":"denmark","tileSource":"contours-denmark-coarse.geojson"},"geometry":{"type":"LineString","coordinates":[[10.755001,55.863012],[10.74,55.8475],[10.735,55.853421],[10.718571,55.85],[10.721579,55.84],[10.729487,55.835],[10.708816,55.81],[10.71,55.801591],[10.675883,55.789999]]}},{"type":"Feature","properties":{"depth":20,"source":"DDM 2024 coarse contour","resolution":"0.005 degree sampled grid","scope":"denmark","tileSource":"contours-denmark-coarse.geojson"},"geometry":{"type":"LineString","coordinates":[[10.670709,55.789999],[10.683119,55.825],[10.705,55.854545],[10.755,55.87]]}},{"type":"Feature","properties":{"depth":20,"source":"DDM 2024 coarse contour","resolution":"0.005 degree sampled grid","scope":"denmark","tileSource":"contours-denmark-coarse.geojson"},"geometry":{"type":"LineString","coordinates":[[10.755001,55.923956],[10.75,55.918837],[10.73,55.915],[10.727927,55.91],[10.735,55.904259],[10.755001,55.913192]]}},{"type":"Feature","properties":{"depth":20,"source":"DDM 2024 coarse contour","resolution":"0.005 degree sampled grid","scope":"denmark","tileSource":"contours-denmark-coarse.geojson"},"geometry":{"type":"LineString","coordinates":[[10.395,55.955081],[10.39,55.958081],[10.387613,55.955],[10.39,55.942295],[10.415,55.931324],[10.419808,55.935],[10.405,55.941833],[10.395,55.955081]]}},{"type":"Feature","properties":{"depth":20,"source":"DDM 2024 coarse contour","resolution":"0.005 degree sampled grid","scope":"denmark","tileSource":"contours-denmark-coarse.geojson"},"geometry":{"type":"LineString","coordinates":[[10.45,56.012797],[10.440104,56.01],[10.475,55.980767],[10.478582,55.985],[10.465,56.002542],[10.45,56.012797]]}},{"type":"Feature","properties":{"depth":20,"source":"DDM 2024 coarse contour","resolution":"0.005 degree sampled grid","scope":"denmark","tileSource":"contours-denmark-coarse.geojson"},"geometry":{"type":"LineString","coordinates":[[10.755001,56.025],[10.755,56.025],[10.755001,56.025002]]}},{"type":"Feature","properties":{"depth":20,"source":"DDM 2024 coarse contour","resolution":"0.005 degree sampled grid","scope":"denmark","tileSource":"contours-denmark-coarse.geojson"},"geometry":{"type":"LineString","coordinates":[[10.755001,56.058809],[10.738889,56.06],[10.74,56.068333],[10.755,56.080306],[10.755001,56.080305]]}},{"type":"Feature","properties":{"depth":20,"source":"DDM 2024 coarse contour","resolution":"0.005 degree sampled grid","scope":"denmark","tileSource":"contours-denmark-coarse.geojson"},"geometry":{"type":"LineString","coordinates":[[10.755001,56.096736],[10.753333,56.1],[10.755001,56.101014]]}},{"type":"Feature","properties":{"depth":20,"source":"DDM 2024 coarse contour","resolution":"0.005 degree sampled grid","scope":"denmark","tileSource":"contours-denmark-coarse.geojson"},"geometry":{"type":"LineString","coordinates":[[10.576771,56.085],[10.561607,56.08],[10.57,56.089868],[10.576771,56.085]]}},{"type":"Feature","properties":{"depth":20,"source":"DDM 2024 coarse contour","resolution":"0.005 degree sampled grid","scope":"denmark","tileSource":"contours-denmark-coarse.geojson"},"geometry":{"type":"LineString","coordinates":[[10.4,56.112344],[10.394375,56.11],[10.395,56.104783],[10.402459,56.11],[10.4,56.112344]]}},{"type":"Feature","properties":{"depth":30,"source":"DDM 2024 coarse contour","resolution":"0.005 degree sampled grid","scope":"denmark","tileSource":"contours-denmark-coarse.geojson"},"geometry":{"type":"LineString","coordinates":[[10.47,55.869333],[10.465833,55.86],[10.47,55.853421],[10.485,55.845625],[10.49,55.85],[10.48,55.840469],[10.475,55.842632],[10.472461,55.835],[10.48,55.835],[10.478596,55.83],[10.485,55.828611],[10.492126,55.815],[10.477883,55.789999]]}},{"type":"Feature","properties":{"depth":30,"source":"DDM 2024 coarse contour","resolution":"0.005 degree sampled grid","scope":"denmark","tileSource":"contours-denmark-coarse.geojson"},"geometry":{"type":"LineString","coordinates":[[10.4885,55.789999],[10.4885,55.79],[10.508476,55.82],[10.495313,55.845],[10.47,55.869333]]}},{"type":"Feature","properties":{"depth":30,"source":"DDM 2024 coarse contour","resolution":"0.005 degree sampled grid","scope":"denmark","tileSource":"contours-denmark-coarse.geojson"},"geometry":{"type":"LineString","coordinates":[[10.45,55.867551],[10.45,55.858989],[10.46,55.848529],[10.463226,55.85],[10.45,55.867551]]}},{"type":"Feature","properties":{"depth":30,"source":"DDM 2024 coarse contour","resolution":"0.005 degree sampled grid","scope":"denmark","tileSource":"contours-denmark-coarse.geojson"},"geometry":{"type":"LineString","coordinates":[[10.505,55.976111],[10.487339,55.97],[10.495,55.949667],[10.5,55.94697],[10.507867,55.96],[10.505,55.976111]]}},{"type":"Feature","properties":{"depth":30,"source":"DDM 2024 coarse contour","resolution":"0.005 degree sampled grid","scope":"denmark","tileSource":"contours-denmark-coarse.geojson"},"geometry":{"type":"LineString","coordinates":[[10.55,56.085645],[10.52,56.088182],[10.518901,56.085],[10.539737,56.07],[10.54125,56.065],[10.528538,56.06],[10.530441,56.055],[10.545,56.040498],[10.55,56.043226],[10.555,56.030217],[10.563233,56.035],[10.565701,56.05],[10.555,56.045959],[10.55,56.049714],[10.55,56.062955],[10.58,56.066507],[10.58725,56.075],[10.55,56.079828],[10.55,56.085645]]}},{"type":"Feature","properties":{"depth":30,"source":"DDM 2024 coarse contour","resolution":"0.005 degree sampled grid","scope":"denmark","tileSource":"contours-denmark-coarse.geojson"},"geometry":{"type":"LineString","coordinates":[[10.595,56.072143],[10.587143,56.065],[10.625,56.05343],[10.655,56.051667],[10.658636,56.055],[10.6,56.067424],[10.595,56.072143]]}},{"type":"Feature","properties":{"depth":30,"source":"DDM 2024 coarse contour","resolution":"0.005 degree sampled grid","scope":"denmark","tileSource":"contours-denmark-coarse.geojson"},"geometry":{"type":"LineString","coordinates":[[10.69,56.062069],[10.672812,56.055],[10.68825,56.055],[10.693333,56.06],[10.69,56.062069]]}},{"type":"Feature","properties":{"depth":30,"source":"DDM 2024 coarse contour","resolution":"0.005 degree sampled grid","scope":"denmark","tileSource":"contours-denmark-coarse.geojson"},"geometry":{"type":"LineString","coordinates":[[10.755001,56.158038],[10.751393,56.155],[10.740769,56.13],[10.745543,56.115],[10.735,56.099167],[10.72,56.094111],[10.7055,56.08],[10.703824,56.07],[10.71,56.062759],[10.73,56.073265],[10.747806,56.095],[10.75,56.106543],[10.755001,56.108974]]}},{"type":"Feature","properties":{"depth":30,"source":"DDM 2024 coarse contour","resolution":"0.005 degree sampled grid","scope":"denmark","tileSource":"contours-denmark-coarse.geojson"},"geometry":{"type":"LineString","coordinates":[[10.475,56.11075],[10.454583,56.11],[10.47,56.096615],[10.505,56.09039],[10.507052,56.095],[10.475,56.11075]]}}]}