{"type":"FeatureCollection","name":"DDM contour tile r04_c02","bbox":[8.36,56.27,8.835,56.745],"metadata":{"schema":"waternav-ddm-contour-tile-v1","version":"v45.5","tileId":"r04_c02","source":"Danmarks Dybdemodel 2024 ddm_50m.dybde.tiff via bundled DDM contour GeoJSON files"},"features":[{"type":"Feature","properties":{"depth":1,"source":"DDM 2024 coarse contour","resolution":"0.005 degree sampled grid","scope":"denmark","tileSource":"contours-denmark-coarse.geojson"},"geometry":{"type":"LineString","coordinates":[[8.359999,56.579986],[8.405,56.579985],[8.41,56.574996],[8.425,56.574988],[8.43,56.569997],[8.44,56.569992],[8.445,56.564998],[8.455,56.564995],[8.46,56.560968],[8.49,56.554995],[8.502143,56.545],[8.525,56.544989],[8.555,56.564992],[8.560001,56.57],[8.560094,56.58],[8.565,56.584953],[8.569977,56.58],[8.57,56.561042],[8.579978,56.555],[8.579985,56.55],[8.574994,56.545],[8.58,56.544982],[8.59,56.535638],[8.595,56.52625],[8.609,56.52],[8.585,56.500009],[8.575,56.50407],[8.55,56.50001],[8.54,56.485012],[8.53,56.484999],[8.545,56.484985],[8.545002,56.49],[8.555,56.49999],[8.565,56.499983],[8.571842,56.495],[8.59,56.494995],[8.595,56.499988],[8.604808,56.5],[8.61,56.504991],[8.614993,56.5],[8.615326,56.485],[8.625,56.476034],[8.635,56.474988],[8.64,56.470946],[8.67,56.47],[8.68,56.474986],[8.7025,56.475],[8.724429,56.485],[8.729,56.49],[8.736,56.51],[8.730002,56.53],[8.757895,56.555],[8.748824,56.565],[8.74,56.565009],[8.735,56.570004],[8.725,56.570015],[8.72,56.575002],[8.71,56.575019],[8.695003,56.59],[8.69,56.605008],[8.68,56.605023],[8.675002,56.61],[8.675004,56.62],[8.678571,56.625],[8.685,56.629995],[8.69,56.629997],[8.725,56.624999],[8.73,56.629988],[8.755,56.640543],[8.775,56.66],[8.780008,56.675],[8.785,56.679998],[8.797188,56.685],[8.815,56.699979],[8.82,56.699975],[8.835001,56.690474]]}},{"type":"Feature","properties":{"depth":1,"source":"DDM 2024 coarse contour","resolution":"0.005 degree sampled grid","scope":"denmark","tileSource":"contours-denmark-coarse.geojson"},"geometry":{"type":"LineString","coordinates":[[8.835001,56.705009],[8.83,56.705005],[8.825002,56.71],[8.835001,56.721998]]}},{"type":"Feature","properties":{"depth":1,"source":"DDM 2024 coarse contour","resolution":"0.005 degree sampled grid","scope":"denmark","tileSource":"contours-denmark-coarse.geojson"},"geometry":{"type":"LineString","coordinates":[[8.490218,56.745001],[8.490217,56.745],[8.484999,56.73],[8.476111,56.72],[8.505,56.719972],[8.53,56.706053],[8.545,56.70225],[8.545,56.694839],[8.535,56.695007],[8.53,56.698437],[8.515,56.69],[8.515,56.6825],[8.52,56.675],[8.535,56.685577],[8.575,56.6905],[8.58,56.694992],[8.59,56.681667],[8.595577,56.68],[8.59,56.679808],[8.579999,56.67],[8.57999,56.66],[8.572667,56.655],[8.585,56.644996],[8.595,56.640714],[8.599286,56.645],[8.585004,56.655],[8.595,56.664997],[8.62,56.664991],[8.625,56.660937],[8.635,56.659999],[8.64,56.664967],[8.644996,56.66],[8.631167,56.645],[8.639993,56.64],[8.635,56.634667],[8.634999,56.625],[8.63,56.62001],[8.62,56.630003],[8.615,56.630007],[8.61,56.635],[8.6,56.635006],[8.599987,56.62],[8.594997,56.615],[8.594995,56.605],[8.59,56.60001],[8.549444,56.6],[8.530208,56.59],[8.55,56.584985],[8.555152,56.58],[8.55,56.575028],[8.535,56.575015],[8.52,56.585005],[8.515,56.585011],[8.51002,56.59],[8.51,56.6],[8.505,56.600002],[8.500008,56.605],[8.495006,56.62],[8.485,56.630007],[8.47,56.635005],[8.46,56.645003],[8.435,56.655014],[8.4242,56.665],[8.41,56.665013],[8.405,56.670002],[8.385,56.670011],[8.377333,56.675],[8.359999,56.67501]]}},{"type":"Feature","properties":{"depth":1,"source":"DDM 2024 coarse contour","resolution":"0.005 degree sampled grid","scope":"denmark","tileSource":"contours-denmark-coarse.geojson"},"geometry":{"type":"LineString","coordinates":[[8.666957,56.58],[8.636154,56.555],[8.631167,56.545],[8.639987,56.535],[8.639979,56.525],[8.625,56.515015],[8.620022,56.52],[8.625018,56.525],[8.625015,56.53],[8.615026,56.54],[8.615,56.549886],[8.610008,56.555],[8.64,56.584988],[8.65,56.584992],[8.655,56.578125],[8.66,56.576667],[8.665,56.581452],[8.666957,56.58]]}},{"type":"Feature","properties":{"depth":1,"source":"DDM 2024 coarse contour","resolution":"0.005 degree sampled grid","scope":"denmark","tileSource":"contours-denmark-coarse.geojson"},"geometry":{"type":"LineString","coordinates":[[8.51,56.68],[8.488125,56.68],[8.485714,56.675],[8.49,56.669995],[8.505,56.669993],[8.52,56.675],[8.51,56.68]]}},{"type":"Feature","properties":{"depth":1,"source":"DDM 2024 coarse contour","resolution":"0.005 degree sampled grid","scope":"denmark","tileSource":"contours-denmark-coarse.geojson"},"geometry":{"type":"LineString","coordinates":[[8.830834,56.745001],[8.830833,56.745],[8.834962,56.74],[8.83,56.73504],[8.820806,56.735],[8.81,56.725006],[8.8,56.725005],[8.776875,56.71],[8.774993,56.7],[8.779965,56.695],[8.775,56.690044],[8.76,56.689426],[8.74,56.680028],[8.7,56.680004],[8.695,56.675028],[8.675385,56.675],[8.67,56.670027],[8.65,56.670004],[8.645,56.665026],[8.615004,56.69],[8.62,56.69499],[8.625,56.691143],[8.629219,56.695],[8.625,56.695013],[8.61,56.707667],[8.61,56.715008],[8.6,56.71501],[8.59,56.719231],[8.587381,56.715],[8.591,56.71],[8.585,56.705012],[8.575,56.700022],[8.56,56.699552],[8.557,56.7],[8.558824,56.705],[8.555,56.7105],[8.542059,56.715],[8.540001,56.72],[8.545,56.724992],[8.570006,56.725],[8.560455,56.73],[8.54,56.737955],[8.51,56.720034],[8.505,56.720028],[8.50001,56.725],[8.504359,56.735],[8.500022,56.74],[8.505018,56.745001]]}},{"type":"Feature","properties":{"depth":1,"source":"DDM 2024 coarse contour","resolution":"0.005 degree sampled grid","scope":"denmark","tileSource":"contours-denmark-coarse.geojson"},"geometry":{"type":"LineString","coordinates":[[8.46,56.695003],[8.437143,56.69],[8.434167,56.685],[8.436429,56.68],[8.445,56.684999],[8.477727,56.69],[8.465,56.690006],[8.46,56.695003]]}},{"type":"Feature","properties":{"depth":2,"source":"DDM 2024 coarse contour","resolution":"0.005 degree sampled grid","scope":"denmark","tileSource":"contours-denmark-coarse.geojson"},"geometry":{"type":"LineString","coordinates":[[8.491305,56.745001],[8.491304,56.745],[8.48593,56.73],[8.477963,56.72],[8.505,56.719977],[8.545,56.70475],[8.547895,56.695],[8.545,56.693226],[8.53,56.695312],[8.519091,56.69],[8.52,56.677778],[8.535,56.6875],[8.55,56.687059],[8.58,56.694997],[8.5975,56.68],[8.585,56.675003],[8.58,56.667895],[8.576875,56.655],[8.586667,56.645],[8.595,56.642143],[8.597857,56.645],[8.584167,56.655],[8.595,56.665652],[8.62,56.664996],[8.635,56.660741],[8.64,56.664972],[8.645278,56.66],[8.643929,56.655],[8.635179,56.65],[8.632833,56.645],[8.639998,56.64],[8.635,56.631333],[8.636143,56.625],[8.648125,56.62],[8.63,56.620005],[8.62,56.629118],[8.6,56.635001],[8.599992,56.62],[8.595,56.614],[8.595,56.605],[8.59,56.600005],[8.55,56.598448],[8.537407,56.595],[8.532292,56.59],[8.555,56.582286],[8.55,56.575023],[8.535,56.57501],[8.52,56.585],[8.515,56.585006],[8.510015,56.59],[8.51,56.596786],[8.500003,56.605],[8.495001,56.62],[8.485,56.630002],[8.47,56.635],[8.459091,56.645],[8.435,56.655009],[8.4222,56.665],[8.41,56.665008],[8.402,56.67],[8.385,56.670006],[8.3735,56.675],[8.359999,56.675006]]}},{"type":"Feature","properties":{"depth":2,"source":"DDM 2024 coarse contour","resolution":"0.005 degree sampled grid","scope":"denmark","tileSource":"contours-denmark-coarse.geojson"},"geometry":{"type":"LineString","coordinates":[[8.359999,56.580579],[8.385,56.580946],[8.405,56.57999],[8.41,56.575179],[8.425,56.574993],[8.432143,56.57],[8.475385,56.56],[8.49,56.555],[8.504524,56.545],[8.525,56.544994],[8.555,56.564997],[8.56,56.572353],[8.560089,56.58],[8.565,56.584958],[8.569982,56.58],[8.57,56.563125],[8.579983,56.555],[8.57999,56.55],[8.574999,56.545],[8.58,56.544987],[8.59,56.536702],[8.595,56.527639],[8.611,56.52],[8.6,56.515012],[8.59,56.50375],[8.582187,56.5],[8.59,56.495],[8.595,56.499993],[8.602885,56.5],[8.61,56.504996],[8.614998,56.5],[8.616413,56.485],[8.625,56.477759],[8.64,56.472297],[8.67,56.47125],[8.68,56.474991],[8.698333,56.475],[8.723,56.485],[8.729412,56.5],[8.728421,56.53],[8.755263,56.555],[8.753621,56.56],[8.745882,56.565],[8.698667,56.58],[8.690003,56.605],[8.68,56.605018],[8.674609,56.61],[8.675,56.625],[8.69,56.63087],[8.72,56.625776],[8.735,56.630714],[8.76,56.645135],[8.774063,56.66],[8.784569,56.68],[8.815,56.699984],[8.835001,56.691395]]}},{"type":"Feature","properties":{"depth":2,"source":"DDM 2024 coarse contour","resolution":"0.005 degree sampled grid","scope":"denmark","tileSource":"contours-denmark-coarse.geojson"},"geometry":{"type":"LineString","coordinates":[[8.835001,56.705007],[8.821,56.705],[8.83495,56.72],[8.835001,56.723806]]}},{"type":"Feature","properties":{"depth":2,"source":"DDM 2024 coarse contour","resolution":"0.005 degree sampled grid","scope":"denmark","tileSource":"contours-denmark-coarse.geojson"},"geometry":{"type":"LineString","coordinates":[[8.545,56.489],[8.54,56.485007],[8.532857,56.485],[8.545,56.48499],[8.545,56.489]]}},{"type":"Feature","properties":{"depth":2,"source":"DDM 2024 coarse contour","resolution":"0.005 degree sampled grid","scope":"denmark","tileSource":"contours-denmark-coarse.geojson"},"geometry":{"type":"LineString","coordinates":[[8.575,56.502907],[8.55,56.500005],[8.548333,56.495],[8.555,56.499995],[8.565,56.499988],[8.576429,56.495],[8.578906,56.5],[8.575,56.502907]]}},{"type":"Feature","properties":{"depth":2,"source":"DDM 2024 coarse contour","resolution":"0.005 degree sampled grid","scope":"denmark","tileSource":"contours-denmark-coarse.geojson"},"geometry":{"type":"LineString","coordinates":[[8.66913,56.58],[8.635,56.55],[8.632833,56.545],[8.639992,56.535],[8.639984,56.525],[8.625,56.51501],[8.619559,56.515],[8.62501,56.53],[8.615021,56.54],[8.615,56.54875],[8.610003,56.555],[8.63,56.578182],[8.64,56.584993],[8.65,56.584997],[8.66,56.579444],[8.665,56.583065],[8.66913,56.58]]}},{"type":"Feature","properties":{"depth":2,"source":"DDM 2024 coarse contour","resolution":"0.005 degree sampled grid","scope":"denmark","tileSource":"contours-denmark-coarse.geojson"},"geometry":{"type":"LineString","coordinates":[[8.505,56.680002],[8.4935,56.68],[8.493333,56.675],[8.499,56.67],[8.505,56.669998],[8.517727,56.675],[8.505,56.680002]]}},{"type":"Feature","properties":{"depth":2,"source":"DDM 2024 coarse contour","resolution":"0.005 degree sampled grid","scope":"denmark","tileSource":"contours-denmark-coarse.geojson"},"geometry":{"type":"LineString","coordinates":[[8.832918,56.745001],[8.832917,56.745],[8.834967,56.74],[8.83,56.735035],[8.822419,56.735],[8.81,56.725001],[8.8,56.725],[8.78,56.71],[8.775,56.701053],[8.77997,56.695],[8.775,56.690039],[8.76,56.688607],[8.73,56.678538],[8.700714,56.68],[8.695,56.675023],[8.679231,56.675],[8.67,56.670022],[8.65,56.669783],[8.645,56.665021],[8.614615,56.69],[8.62,56.694995],[8.625,56.692571],[8.627656,56.695],[8.608889,56.705],[8.61,56.715003],[8.59,56.715385],[8.593,56.71],[8.585,56.705007],[8.575,56.700017],[8.56,56.698806],[8.5546,56.7],[8.557353,56.705],[8.555,56.7082],[8.539444,56.715],[8.537667,56.72],[8.545,56.724997],[8.562857,56.725],[8.557353,56.73],[8.54,56.735682],[8.51,56.720029],[8.505,56.720023],[8.500005,56.725],[8.503077,56.735],[8.500017,56.74],[8.505013,56.745001]]}},{"type":"Feature","properties":{"depth":2,"source":"DDM 2024 coarse contour","resolution":"0.005 degree sampled grid","scope":"denmark","tileSource":"contours-denmark-coarse.geojson"},"geometry":{"type":"LineString","coordinates":[[8.47,56.69],[8.46,56.6925],[8.444286,56.69],[8.47,56.69]]}},{"type":"Feature","properties":{"depth":3,"source":"DDM 2024 coarse contour","resolution":"0.005 degree sampled grid","scope":"denmark","tileSource":"contours-denmark-coarse.geojson"},"geometry":{"type":"LineString","coordinates":[[8.835001,56.740066],[8.834972,56.74],[8.81,56.724255],[8.8,56.723529],[8.782174,56.71],[8.776765,56.7],[8.779975,56.695],[8.775,56.690034],[8.73,56.677769],[8.704286,56.68],[8.695,56.675018],[8.65,56.668696],[8.645,56.665016],[8.622115,56.68],[8.612692,56.69],[8.615,56.694],[8.626094,56.695],[8.62,56.695],[8.618636,56.7],[8.604286,56.705],[8.607,56.715],[8.6,56.715],[8.59,56.706429],[8.575,56.700012],[8.555,56.698491],[8.550256,56.695],[8.555,56.690488],[8.575,56.696528],[8.586923,56.695],[8.599423,56.68],[8.587222,56.675],[8.58,56.665263],[8.58,56.66],[8.595,56.667826],[8.635,56.661667],[8.64,56.664977],[8.648182,56.655],[8.64,56.652237],[8.6345,56.645],[8.641154,56.64],[8.635909,56.63],[8.637571,56.625],[8.656957,56.62],[8.645,56.616552],[8.635,56.618167],[8.605,56.633214],[8.595,56.6115],[8.596786,56.605],[8.59,56.6],[8.539259,56.595],[8.534375,56.59],[8.555,56.583714],[8.56,56.575029],[8.560084,56.58],[8.565,56.584963],[8.569987,56.58],[8.57,56.565227],[8.579988,56.555],[8.5766,56.545],[8.585,56.542237],[8.595,56.529028],[8.61225,56.52],[8.6,56.515007],[8.585238,56.5],[8.59,56.496552],[8.61,56.505227],[8.617778,56.5],[8.6175,56.485],[8.64,56.473649],[8.675,56.473],[8.69,56.4785],[8.705,56.478256],[8.721571,56.485],[8.727941,56.5],[8.725789,56.53],[8.728333,56.535],[8.75,56.5505],[8.751897,56.56],[8.745,56.560625],[8.731,56.57],[8.71,56.575009],[8.705,56.579375],[8.695333,56.58],[8.69175,56.59],[8.6942,56.595],[8.6894,56.605],[8.68,56.605013],[8.673828,56.61],[8.674603,56.625],[8.68,56.630321],[8.69,56.633043],[8.71,56.63087],[8.72,56.626638],[8.735,56.631735],[8.765,56.651],[8.788889,56.685],[8.795,56.68614],[8.815,56.699989],[8.835001,56.692629]]}},{"type":"Feature","properties":{"depth":3,"source":"DDM 2024 coarse contour","resolution":"0.005 degree sampled grid","scope":"denmark","tileSource":"contours-denmark-coarse.geojson"},"geometry":{"type":"LineString","coordinates":[[8.835001,56.705006],[8.819518,56.705],[8.835001,56.723017]]}},{"type":"Feature","properties":{"depth":3,"source":"DDM 2024 coarse contour","resolution":"0.005 degree sampled grid","scope":"denmark","tileSource":"contours-denmark-coarse.geojson"},"geometry":{"type":"LineString","coordinates":[[8.575,56.501744],[8.55,56.499375],[8.565,56.499993],[8.575,56.496739],[8.577344,56.5],[8.575,56.501744]]}},{"type":"Feature","properties":{"depth":3,"source":"DDM 2024 coarse contour","resolution":"0.005 degree sampled grid","scope":"denmark","tileSource":"contours-denmark-coarse.geojson"},"geometry":{"type":"LineString","coordinates":[[8.65875,56.585],[8.665,56.584677],[8.671034,56.58],[8.655,56.561667],[8.64,56.555],[8.6345,56.545],[8.639997,56.535],[8.639989,56.525],[8.62,56.513587],[8.618088,56.515],[8.625008,56.525],[8.625005,56.53],[8.615016,56.54],[8.615,56.547614],[8.609355,56.555],[8.63,56.5804],[8.64,56.584998],[8.65875,56.585]]}},{"type":"Feature","properties":{"depth":3,"source":"DDM 2024 coarse contour","resolution":"0.005 degree sampled grid","scope":"denmark","tileSource":"contours-denmark-coarse.geojson"},"geometry":{"type":"LineString","coordinates":[[8.359999,56.5806],[8.372857,56.58],[8.385,56.582297],[8.455,56.567813],[8.5,56.553333],[8.51,56.545469],[8.525,56.544999],[8.53,56.549986],[8.535,56.549993],[8.558043,56.57],[8.559971,56.575],[8.555,56.57935],[8.55,56.575018],[8.535,56.575005],[8.515,56.585001],[8.5,56.60425],[8.493833,56.62],[8.483,56.63],[8.47,56.633953],[8.465,56.640003],[8.4202,56.665],[8.359999,56.674236]]}},{"type":"Feature","properties":{"depth":3,"source":"DDM 2024 coarse contour","resolution":"0.005 degree sampled grid","scope":"denmark","tileSource":"contours-denmark-coarse.geojson"},"geometry":{"type":"LineString","coordinates":[[8.55,56.694167],[8.5275,56.69],[8.55,56.688529],[8.553571,56.69],[8.55,56.694167]]}},{"type":"Feature","properties":{"depth":3,"source":"DDM 2024 coarse contour","resolution":"0.005 degree sampled grid","scope":"denmark","tileSource":"contours-denmark-coarse.geojson"},"geometry":{"type":"LineString","coordinates":[[8.555,56.7062],[8.55,56.709714],[8.546071,56.705],[8.55,56.695164],[8.555,56.7062]]}},{"type":"Feature","properties":{"depth":3,"source":"DDM 2024 coarse contour","resolution":"0.005 degree sampled grid","scope":"denmark","tileSource":"contours-denmark-coarse.geojson"},"geometry":{"type":"LineString","coordinates":[[8.492555,56.745001],[8.479815,56.72],[8.505,56.719982],[8.545,56.706364],[8.549615,56.71],[8.537593,56.715],[8.534524,56.72],[8.546667,56.73],[8.54,56.7315],[8.51,56.720024],[8.505,56.720018],[8.5,56.725],[8.500012,56.74],[8.505008,56.745001]]}},{"type":"Feature","properties":{"depth":5,"source":"DDM 2024 coarse contour","resolution":"0.005 degree sampled grid","scope":"denmark","tileSource":"contours-denmark-coarse.geojson"},"geometry":{"type":"LineString","coordinates":[[8.835001,56.74182],[8.83,56.73502],[8.792609,56.715],[8.775,56.690024],[8.73,56.676231],[8.71,56.678929],[8.645,56.665006],[8.615,56.6775],[8.6125,56.675],[8.613333,56.67],[8.625625,56.665],[8.64,56.664987],[8.649444,56.66],[8.652857,56.655],[8.642143,56.65],[8.647813,56.645],[8.638939,56.63],[8.642143,56.625],[8.655,56.624028],[8.660309,56.62],[8.645,56.611563],[8.6375,56.615],[8.615,56.605],[8.6,56.604375],[8.59,56.5975],[8.57,56.593182],[8.561301,56.585],[8.569997,56.58],[8.57,56.569773],[8.579479,56.56],[8.58375,56.545],[8.6,56.53375],[8.605,56.541667],[8.61475,56.52],[8.614,56.515],[8.605,56.51],[8.615,56.506944],[8.622667,56.5],[8.618977,56.495],[8.62,56.484659],[8.63,56.479149],[8.64875,56.475],[8.67,56.475],[8.685,56.478462],[8.69,56.483036],[8.705,56.482778],[8.72,56.488214],[8.725833,56.505],[8.719375,56.51],[8.707941,56.53],[8.71,56.534375],[8.715,56.535],[8.715,56.54],[8.7,56.543667],[8.697222,56.55],[8.71,56.552857],[8.73,56.55],[8.7275,56.555],[8.7375,56.56],[8.73,56.567069],[8.705,56.576875],[8.695,56.5775],[8.686905,56.59],[8.6902,56.595],[8.6854,56.605],[8.675,56.606196],[8.672266,56.61],[8.67381,56.625],[8.685,56.636],[8.71,56.633043],[8.72,56.628362],[8.737308,56.635],[8.765,56.653857],[8.7875,56.685],[8.815,56.699999],[8.835,56.694574],[8.835001,56.694574]]}},{"type":"Feature","properties":{"depth":5,"source":"DDM 2024 coarse contour","resolution":"0.005 degree sampled grid","scope":"denmark","tileSource":"contours-denmark-coarse.geojson"},"geometry":{"type":"LineString","coordinates":[[8.835001,56.703125],[8.83,56.70125],[8.82,56.70141],[8.818313,56.705],[8.835001,56.724084]]}},{"type":"Feature","properties":{"depth":5,"source":"DDM 2024 coarse contour","resolution":"0.005 degree sampled grid","scope":"denmark","tileSource":"contours-denmark-coarse.geojson"},"geometry":{"type":"LineString","coordinates":[[8.657,56.59],[8.665,56.58875],[8.674483,56.58],[8.659167,56.565],[8.670385,56.56],[8.665,56.556833],[8.645909,56.555],[8.638036,56.545],[8.637619,56.54],[8.6428,56.535],[8.639999,56.525],[8.635,56.517632],[8.62,56.511413],[8.615147,56.515],[8.623929,56.525],[8.615909,56.535],[8.615,56.545341],[8.606129,56.555],[8.6075,56.56],[8.635,56.588571],[8.657,56.59]]}},{"type":"Feature","properties":{"depth":5,"source":"DDM 2024 coarse contour","resolution":"0.005 degree sampled grid","scope":"denmark","tileSource":"contours-denmark-coarse.geojson"},"geometry":{"type":"LineString","coordinates":[[8.359999,56.605002],[8.36,56.605],[8.359999,56.604998]]}},{"type":"Feature","properties":{"depth":5,"source":"DDM 2024 coarse contour","resolution":"0.005 degree sampled grid","scope":"denmark","tileSource":"contours-denmark-coarse.geojson"},"geometry":{"type":"LineString","coordinates":[[8.359999,56.58169],[8.365,56.581071],[8.38,56.586],[8.395,56.58625],[8.455,56.571912],[8.475,56.56337],[8.48,56.5645],[8.5,56.557742],[8.51,56.548594],[8.52,56.54575],[8.54,56.555],[8.5594,56.575],[8.555,56.57885],[8.55,56.575008],[8.535,56.572619],[8.51,56.578333],[8.507692,56.58],[8.51,56.59],[8.499118,56.6],[8.49,56.621071],[8.476071,56.63],[8.435,56.651563],[8.43,56.65],[8.425,56.655],[8.4,56.663421],[8.39,56.664118],[8.385,56.657708],[8.38,56.664167],[8.359999,56.670288]]}},{"type":"Feature","properties":{"depth":5,"source":"DDM 2024 coarse contour","resolution":"0.005 degree sampled grid","scope":"denmark","tileSource":"contours-denmark-coarse.geojson"},"geometry":{"type":"LineString","coordinates":[[8.565,56.697065],[8.552821,56.695],[8.555,56.692927],[8.568393,56.695],[8.565,56.697065]]}},{"type":"Feature","properties":{"depth":5,"source":"DDM 2024 coarse contour","resolution":"0.005 degree sampled grid","scope":"denmark","tileSource":"contours-denmark-coarse.geojson"},"geometry":{"type":"LineString","coordinates":[[8.585,56.7018],[8.5725,56.7],[8.59,56.7],[8.585,56.7018]]}},{"type":"Feature","properties":{"depth":5,"source":"DDM 2024 coarse contour","resolution":"0.005 degree sampled grid","scope":"denmark","tileSource":"contours-denmark-coarse.geojson"},"geometry":{"type":"LineString","coordinates":[[8.525,56.721053],[8.52,56.723085],[8.505,56.720008],[8.495,56.725],[8.49,56.724808],[8.486094,56.72],[8.52,56.717315],[8.529,56.72],[8.525,56.721053]]}},{"type":"Feature","properties":{"depth":5,"source":"DDM 2024 coarse contour","resolution":"0.005 degree sampled grid","scope":"denmark","tileSource":"contours-denmark-coarse.geojson"},"geometry":{"type":"LineString","coordinates":[[8.496426,56.745001],[8.4896,56.735],[8.49,56.725833],[8.495,56.725],[8.500002,56.74],[8.50412,56.745001]]}},{"type":"Feature","properties":{"depth":10,"source":"DDM 2024 coarse contour","resolution":"0.005 degree sampled grid","scope":"denmark","tileSource":"contours-denmark-coarse.geojson"},"geometry":{"type":"LineString","coordinates":[[8.68,56.636],[8.67,56.632703],[8.66,56.614706],[8.665,56.61125],[8.67,56.61625],[8.68,56.636]]}},{"type":"Feature","properties":{"depth":10,"source":"DDM 2024 coarse contour","resolution":"0.005 degree sampled grid","scope":"denmark","tileSource":"contours-denmark-coarse.geojson"},"geometry":{"type":"LineString","coordinates":[[8.835001,56.739133],[8.818103,56.725],[8.815,56.716429],[8.766053,56.68],[8.775,56.676111],[8.785,56.686944],[8.815,56.704528],[8.835001,56.725278]]}}]}