{"type":"FeatureCollection","name":"DDM contour tile r04_c00","bbox":[7.4,56.27,7.875,56.745],"metadata":{"schema":"waternav-ddm-contour-tile-v1","version":"v45.5","tileId":"r04_c00","source":"Danmarks Dybdemodel 2024 ddm_50m.dybde.tiff via bundled DDM contour GeoJSON files"},"features":[{"type":"Feature","properties":{"depth":30,"source":"DDM 2024 coarse contour","resolution":"0.005 degree sampled grid","scope":"denmark","tileSource":"contours-denmark-coarse.geojson"},"geometry":{"type":"LineString","coordinates":[[7.764999,56.269999],[7.765,56.27],[7.765,56.275],[7.75,56.28625],[7.705,56.3025],[7.675,56.283333],[7.655,56.27625],[7.605,56.275],[7.5925,56.285],[7.59,56.307632],[7.58,56.313667],[7.565,56.313889],[7.548333,56.325],[7.57,56.339167],[7.6,56.35],[7.61,56.36],[7.59875,56.37],[7.595,56.38],[7.595,56.395],[7.6125,56.42],[7.611667,56.43],[7.597,56.445],[7.598,56.46],[7.615,56.4725],[7.6525,56.48],[7.675,56.515],[7.675,56.53],[7.665,56.55],[7.665,56.565],[7.6575,56.585],[7.663333,56.61],[7.66,56.62],[7.665435,56.63],[7.685,56.641806],[7.71,56.643],[7.719,56.63],[7.706667,56.595],[7.725,56.586667],[7.74,56.586875],[7.77,56.598889],[7.775,56.605],[7.775,56.625],[7.7575,56.66],[7.765,56.675],[7.805,56.675],[7.82125,56.66],[7.835,56.655417],[7.845,56.655],[7.851,56.66],[7.853,56.665],[7.845,56.685],[7.8525,56.7],[7.851667,56.71],[7.815833,56.745],[7.815834,56.745001]]}},{"type":"Feature","properties":{"depth":30,"source":"DDM 2024 coarse contour","resolution":"0.005 degree sampled grid","scope":"denmark","tileSource":"contours-denmark-coarse.geojson"},"geometry":{"type":"LineString","coordinates":[[7.4,56.275],[7.415,56.276875],[7.425,56.272857],[7.427233,56.269999]]}},{"type":"Feature","properties":{"depth":30,"source":"DDM 2024 coarse contour","resolution":"0.005 degree sampled grid","scope":"denmark","tileSource":"contours-denmark-coarse.geojson"},"geometry":{"type":"LineString","coordinates":[[7.835,56.285833],[7.815,56.286667],[7.813,56.28],[7.825,56.270625],[7.84,56.273333],[7.8475,56.28],[7.835,56.285833]]}},{"type":"Feature","properties":{"depth":30,"source":"DDM 2024 coarse contour","resolution":"0.005 degree sampled grid","scope":"denmark","tileSource":"contours-denmark-coarse.geojson"},"geometry":{"type":"LineString","coordinates":[[7.665,56.377],[7.645,56.377143],[7.63,56.37],[7.645,56.36],[7.665,56.361667],[7.673333,56.37],[7.665,56.377]]}},{"type":"Feature","properties":{"depth":30,"source":"DDM 2024 coarse contour","resolution":"0.005 degree sampled grid","scope":"denmark","tileSource":"contours-denmark-coarse.geojson"},"geometry":{"type":"LineString","coordinates":[[7.715,56.4325],[7.705,56.435],[7.695,56.43],[7.71,56.423333],[7.72,56.43],[7.715,56.4325]]}},{"type":"Feature","properties":{"depth":30,"source":"DDM 2024 coarse contour","resolution":"0.005 degree sampled grid","scope":"denmark","tileSource":"contours-denmark-coarse.geojson"},"geometry":{"type":"LineString","coordinates":[[7.78,56.4275],[7.77,56.43],[7.76,56.425],[7.775,56.4225],[7.7825,56.425],[7.78,56.4275]]}},{"type":"Feature","properties":{"depth":30,"source":"DDM 2024 coarse contour","resolution":"0.005 degree sampled grid","scope":"denmark","tileSource":"contours-denmark-coarse.geojson"},"geometry":{"type":"LineString","coordinates":[[7.501731,56.56],[7.488846,56.545],[7.486154,56.535],[7.470625,56.52],[7.473889,56.515],[7.47,56.510625],[7.46,56.504762],[7.45125,56.51],[7.453571,56.515],[7.444412,56.52],[7.456296,56.53],[7.452857,56.535],[7.501731,56.56]]}},{"type":"Feature","properties":{"depth":30,"source":"DDM 2024 coarse contour","resolution":"0.005 degree sampled grid","scope":"denmark","tileSource":"contours-denmark-coarse.geojson"},"geometry":{"type":"LineString","coordinates":[[7.528333,56.57],[7.52,56.562727],[7.513889,56.565],[7.52,56.572667],[7.528333,56.57]]}},{"type":"Feature","properties":{"depth":30,"source":"DDM 2024 coarse contour","resolution":"0.005 degree sampled grid","scope":"denmark","tileSource":"contours-denmark-coarse.geojson"},"geometry":{"type":"LineString","coordinates":[[7.586481,56.6],[7.56,56.573],[7.547381,56.59],[7.55,56.596],[7.586481,56.6]]}},{"type":"Feature","properties":{"depth":30,"source":"DDM 2024 coarse contour","resolution":"0.005 degree sampled grid","scope":"denmark","tileSource":"contours-denmark-coarse.geojson"},"geometry":{"type":"LineString","coordinates":[[7.4,56.604615],[7.405,56.621429],[7.42,56.625],[7.425,56.606],[7.4,56.59]]}},{"type":"Feature","properties":{"depth":30,"source":"DDM 2024 coarse contour","resolution":"0.005 degree sampled grid","scope":"denmark","tileSource":"contours-denmark-coarse.geojson"},"geometry":{"type":"LineString","coordinates":[[7.45625,56.655],[7.459167,56.65],[7.45,56.642143],[7.44,56.64],[7.435833,56.645],[7.445,56.655833],[7.45625,56.655]]}},{"type":"Feature","properties":{"depth":30,"source":"DDM 2024 coarse contour","resolution":"0.005 degree sampled grid","scope":"denmark","tileSource":"contours-denmark-coarse.geojson"},"geometry":{"type":"LineString","coordinates":[[7.4875,56.69],[7.494167,56.685],[7.485,56.677],[7.475,56.674444],[7.4675,56.68],[7.4775,56.69],[7.4875,56.69]]}},{"type":"Feature","properties":{"depth":30,"source":"DDM 2024 coarse contour","resolution":"0.005 degree sampled grid","scope":"denmark","tileSource":"contours-denmark-coarse.geojson"},"geometry":{"type":"LineString","coordinates":[[7.461957,56.745001],[7.45,56.7325],[7.411667,56.715],[7.408333,56.71],[7.42,56.702708],[7.435,56.68],[7.4,56.676571]]}},{"type":"Feature","properties":{"depth":30,"source":"DDM 2024 coarse contour","resolution":"0.005 degree sampled grid","scope":"denmark","tileSource":"contours-denmark-coarse.geojson"},"geometry":{"type":"LineString","coordinates":[[7.706,56.73],[7.715,56.725],[7.716667,56.715],[7.7274,56.71],[7.725577,56.705],[7.71,56.704667],[7.69,56.694429],[7.693696,56.71],[7.7144,56.72],[7.697903,56.725],[7.706,56.73]]}},{"type":"Feature","properties":{"depth":30,"source":"DDM 2024 coarse contour","resolution":"0.005 degree sampled grid","scope":"denmark","tileSource":"contours-denmark-coarse.geojson"},"geometry":{"type":"LineString","coordinates":[[7.526364,56.72],[7.53,56.71],[7.525,56.705769],[7.505,56.715],[7.526364,56.72]]}}]}