{"type":"FeatureCollection","name":"DDM contour tile r06_c07","bbox":[10.76,57.23,11.235,57.705],"metadata":{"schema":"waternav-ddm-contour-tile-v1","version":"v45.5","tileId":"r06_c07","source":"Danmarks Dybdemodel 2024 ddm_50m.dybde.tiff via bundled DDM contour GeoJSON files"},"features":[{"type":"Feature","properties":{"depth":1,"source":"DDM 2024 coarse contour","resolution":"0.005 degree sampled grid","scope":"denmark","tileSource":"contours-denmark-coarse.geojson"},"geometry":{"type":"LineString","coordinates":[[11.235001,57.620217],[11.150182,57.705],[11.150182,57.705001]]}},{"type":"Feature","properties":{"depth":1,"source":"DDM 2024 coarse contour","resolution":"0.005 degree sampled grid","scope":"denmark","tileSource":"contours-denmark-coarse.geojson"},"geometry":{"type":"LineString","coordinates":[[10.929995,57.36],[10.930652,57.35],[10.935333,57.345],[10.935469,57.34],[10.945698,57.33],[10.96,57.306143],[10.99,57.30998],[10.995,57.305556],[11,57.309981],[11.014355,57.31],[11.025,57.321053],[11.114643,57.32],[11.12,57.324968],[11.134407,57.325],[11.14,57.329999],[11.16,57.330625],[11.17,57.325238],[11.195,57.32619],[11.200778,57.32],[11.199994,57.29],[11.19,57.283056],[11.18,57.282273],[11.175,57.275001],[11.166364,57.27],[11.153889,57.255],[11.15375,57.24],[11.145,57.232778],[11.129167,57.23],[11.129167,57.229999]]}},{"type":"Feature","properties":{"depth":1,"source":"DDM 2024 coarse contour","resolution":"0.005 degree sampled grid","scope":"denmark","tileSource":"contours-denmark-coarse.geojson"},"geometry":{"type":"LineString","coordinates":[[10.898751,57.229999],[10.89875,57.23],[10.889,57.24],[10.885,57.240006],[10.88,57.247857],[10.87,57.250009],[10.855004,57.265],[10.855833,57.27],[10.86,57.270781],[10.865,57.2665],[10.895,57.27625],[10.925,57.299987],[10.932778,57.3],[10.9425,57.325],[10.934667,57.335],[10.92875,57.355],[10.92,57.355013],[10.915024,57.36],[10.92,57.364975],[10.925,57.364986],[10.929995,57.36]]}},{"type":"Feature","properties":{"depth":2,"source":"DDM 2024 coarse contour","resolution":"0.005 degree sampled grid","scope":"denmark","tileSource":"contours-denmark-coarse.geojson"},"geometry":{"type":"LineString","coordinates":[[11.235001,57.620212],[11.150177,57.705],[11.150177,57.705001]]}},{"type":"Feature","properties":{"depth":2,"source":"DDM 2024 coarse contour","resolution":"0.005 degree sampled grid","scope":"denmark","tileSource":"contours-denmark-coarse.geojson"},"geometry":{"type":"LineString","coordinates":[[10.93,57.36],[10.937031,57.34],[10.955,57.32],[10.96,57.307571],[10.99,57.309985],[10.995,57.306667],[11,57.309986],[11.012742,57.31],[11.025,57.322368],[11.111071,57.32],[11.12,57.324973],[11.133559,57.325],[11.14,57.331429],[11.16,57.331518],[11.17,57.326429],[11.195,57.328571],[11.201889,57.32],[11.199999,57.29],[11.19,57.280278],[11.18,57.277727],[11.163333,57.26],[11.158636,57.25],[11.165385,57.235],[11.157691,57.229999]]}},{"type":"Feature","properties":{"depth":2,"source":"DDM 2024 coarse contour","resolution":"0.005 degree sampled grid","scope":"denmark","tileSource":"contours-denmark-coarse.geojson"},"geometry":{"type":"LineString","coordinates":[[10.894,57.229999],[10.894,57.23],[10.885667,57.24],[10.84,57.274167],[10.835,57.275],[10.85,57.276],[10.865,57.269],[10.88,57.272586],[10.895,57.277812],[10.915,57.290926],[10.92,57.2974],[10.92881,57.3],[10.936818,57.325],[10.925,57.344286],[10.904808,57.345],[10.92,57.346],[10.924286,57.35],[10.924706,57.355],[10.92,57.355008],[10.915019,57.36],[10.92,57.36498],[10.925,57.364991],[10.93,57.36]]}},{"type":"Feature","properties":{"depth":3,"source":"DDM 2024 coarse contour","resolution":"0.005 degree sampled grid","scope":"denmark","tileSource":"contours-denmark-coarse.geojson"},"geometry":{"type":"LineString","coordinates":[[11.235001,57.620207],[11.150172,57.705],[11.150172,57.705001]]}},{"type":"Feature","properties":{"depth":3,"source":"DDM 2024 coarse contour","resolution":"0.005 degree sampled grid","scope":"denmark","tileSource":"contours-denmark-coarse.geojson"},"geometry":{"type":"LineString","coordinates":[[10.931875,57.36],[10.938594,57.34],[10.957174,57.32],[10.96,57.309],[11.011129,57.31],[11.025,57.323684],[11.0552,57.32],[11.11,57.320686],[11.12,57.324978],[11.132712,57.325],[11.136667,57.33],[11.135,57.335179],[11.15,57.335196],[11.155,57.330312],[11.16,57.332411],[11.165,57.328191],[11.175,57.327209],[11.195,57.330833],[11.203,57.32],[11.205,57.305],[11.2,57.304643],[11.205,57.305],[11.204118,57.295],[11.2075,57.285],[11.194167,57.275],[11.2,57.2725],[11.205,57.275],[11.202,57.27],[11.205,57.267],[11.215,57.26875],[11.22,57.265],[11.21,57.26],[11.215,57.254444],[11.21,57.26],[11.205,57.258889],[11.195,57.266667],[11.19,57.26375],[11.18125,57.255],[11.183333,57.25],[11.1775,57.245],[11.178333,57.24],[11.17,57.236],[11.168182,57.229999]]}},{"type":"Feature","properties":{"depth":3,"source":"DDM 2024 coarse contour","resolution":"0.005 degree sampled grid","scope":"denmark","tileSource":"contours-denmark-coarse.geojson"},"geometry":{"type":"LineString","coordinates":[[10.881666,57.229999],[10.883333,57.235],[10.873333,57.24],[10.869375,57.25],[10.84,57.264286],[10.825,57.28],[10.83,57.275682],[10.85,57.277111],[10.865,57.271364],[10.885,57.275],[10.902143,57.285],[10.9,57.291],[10.91,57.289615],[10.92,57.2994],[10.926429,57.3],[10.932187,57.32],[10.927,57.335],[10.902885,57.345],[10.905,57.348438],[10.915,57.3474],[10.920714,57.35],[10.921765,57.355],[10.915014,57.36],[10.92,57.364985],[10.931875,57.36]]}},{"type":"Feature","properties":{"depth":3,"source":"DDM 2024 coarse contour","resolution":"0.005 degree sampled grid","scope":"denmark","tileSource":"contours-denmark-coarse.geojson"},"geometry":{"type":"LineString","coordinates":[[11.2104,57.335],[11.215,57.328333],[11.204545,57.335],[11.2104,57.335]]}},{"type":"Feature","properties":{"depth":3,"source":"DDM 2024 coarse contour","resolution":"0.005 degree sampled grid","scope":"denmark","tileSource":"contours-denmark-coarse.geojson"},"geometry":{"type":"LineString","coordinates":[[10.890714,57.36],[10.8945,57.35],[10.89,57.34686],[10.882941,57.35],[10.8773,57.36],[10.885,57.363409],[10.890714,57.36]]}},{"type":"Feature","properties":{"depth":5,"source":"DDM 2024 coarse contour","resolution":"0.005 degree sampled grid","scope":"denmark","tileSource":"contours-denmark-coarse.geojson"},"geometry":{"type":"LineString","coordinates":[[11.235001,57.620197],[11.150163,57.705],[11.150163,57.705001]]}},{"type":"Feature","properties":{"depth":5,"source":"DDM 2024 coarse contour","resolution":"0.005 degree sampled grid","scope":"denmark","tileSource":"contours-denmark-coarse.geojson"},"geometry":{"type":"LineString","coordinates":[[10.9075,57.37],[10.90625,57.365],[10.899,57.36],[10.9,57.347083],[10.905,57.353125],[10.915,57.3525],[10.915004,57.36],[10.92,57.364995],[10.935,57.366875],[10.938214,57.365],[10.94,57.344231],[10.95,57.3315],[10.955,57.328],[10.965,57.3275],[10.97,57.32],[10.975,57.325],[10.99,57.325],[10.995,57.32],[10.99,57.325],[10.981429,57.32],[10.99,57.317273],[10.995,57.32],[10.995,57.315],[11.005,57.31],[11.019,57.325],[11.025,57.326316],[11.03,57.324298],[11.045,57.326667],[11.0592,57.32],[11.088,57.32],[11.131017,57.325],[11.135,57.336964],[11.145,57.33875],[11.175,57.329535],[11.177222,57.33],[11.17625,57.335],[11.2,57.349],[11.205,57.344231],[11.2125,57.345],[11.21125,57.34],[11.220833,57.33],[11.2325,57.3],[11.235001,57.297152]]}},{"type":"Feature","properties":{"depth":5,"source":"DDM 2024 coarse contour","resolution":"0.005 degree sampled grid","scope":"denmark","tileSource":"contours-denmark-coarse.geojson"},"geometry":{"type":"LineString","coordinates":[[11.235001,57.281251],[11.235,57.28125],[11.23,57.29],[11.225,57.292083],[11.222917,57.29],[11.222187,57.285],[11.231364,57.275],[11.23,57.265],[11.225,57.26],[11.23,57.25375],[11.235,57.255],[11.231875,57.25],[11.235001,57.246473]]}},{"type":"Feature","properties":{"depth":5,"source":"DDM 2024 coarse contour","resolution":"0.005 degree sampled grid","scope":"denmark","tileSource":"contours-denmark-coarse.geojson"},"geometry":{"type":"LineString","coordinates":[[10.853123,57.229999],[10.853125,57.23],[10.8525,57.24],[10.845,57.25],[10.85,57.2475],[10.85,57.250833],[10.845,57.25],[10.847222,57.255],[10.84,57.256316],[10.835,57.263],[10.82,57.271364],[10.815,57.268125],[10.805,57.272222],[10.805,57.266],[10.8075,57.265],[10.79,57.258367],[10.772273,57.28],[10.765,57.28375],[10.76,57.296364],[10.775,57.295476],[10.78,57.29],[10.8,57.29125],[10.835,57.279054],[10.86,57.279062],[10.87,57.282813],[10.886429,57.295],[10.89,57.305833],[10.905,57.305625],[10.9125,57.31],[10.907857,57.325],[10.912692,57.335],[10.9,57.343214],[10.88,57.347222],[10.8753,57.36],[10.88,57.36569],[10.895,57.371944],[10.9,57.37325],[10.9075,57.37]]}},{"type":"Feature","properties":{"depth":5,"source":"DDM 2024 coarse contour","resolution":"0.005 degree sampled grid","scope":"denmark","tileSource":"contours-denmark-coarse.geojson"},"geometry":{"type":"LineString","coordinates":[[11.21,57.326071],[11.206667,57.325],[11.206667,57.32],[11.21,57.318],[11.215,57.32],[11.212,57.305],[11.22,57.302],[11.215,57.32],[11.21,57.326071]]}},{"type":"Feature","properties":{"depth":10,"source":"DDM 2024 coarse contour","resolution":"0.005 degree sampled grid","scope":"denmark","tileSource":"contours-denmark-coarse.geojson"},"geometry":{"type":"LineString","coordinates":[[11.235001,57.620174],[11.150139,57.705],[11.150139,57.705001]]}},{"type":"Feature","properties":{"depth":10,"source":"DDM 2024 coarse contour","resolution":"0.005 degree sampled grid","scope":"denmark","tileSource":"contours-denmark-coarse.geojson"},"geometry":{"type":"LineString","coordinates":[[10.926667,57.405],[10.9294,57.4],[10.925,57.395769],[10.91,57.393214],[10.903,57.385],[10.94,57.376154],[10.965,57.381765],[11,57.378235],[11.01,57.37],[11.07,57.371765],[11.088125,57.365],[11.091667,57.36],[11.0775,57.355],[11.09,57.35],[11.1,57.353462],[11.105,57.349318],[11.12,57.352308],[11.125,57.348125],[11.13,57.355938],[11.1555,57.355],[11.15,57.3625],[11.14,57.3625],[11.14,57.36875],[11.175,57.359118],[11.235001,57.374023]]}},{"type":"Feature","properties":{"depth":10,"source":"DDM 2024 coarse contour","resolution":"0.005 degree sampled grid","scope":"denmark","tileSource":"contours-denmark-coarse.geojson"},"geometry":{"type":"LineString","coordinates":[[11.235001,57.354119],[11.2255,57.355],[11.235001,57.344376]]}},{"type":"Feature","properties":{"depth":10,"source":"DDM 2024 coarse contour","resolution":"0.005 degree sampled grid","scope":"denmark","tileSource":"contours-denmark-coarse.geojson"},"geometry":{"type":"LineString","coordinates":[[10.786755,57.229999],[10.795,57.238214],[10.817,57.245],[10.785,57.2546],[10.781512,57.265],[10.76,57.287973],[10.76,57.302019],[10.765,57.305139],[10.77,57.300972],[10.786216,57.31],[10.81,57.351447],[10.82,57.350625],[10.82,57.338333],[10.828,57.33],[10.845,57.326111],[10.85,57.33],[10.850833,57.34],[10.86,57.342143],[10.86375,57.36],[10.87875,57.38],[10.9,57.399375],[10.926667,57.405]]}},{"type":"Feature","properties":{"depth":10,"source":"DDM 2024 coarse contour","resolution":"0.005 degree sampled grid","scope":"denmark","tileSource":"contours-denmark-coarse.geojson"},"geometry":{"type":"LineString","coordinates":[[11.045,57.43],[11.057,57.425],[11.054,57.42],[11.04,57.416818],[11.03875,57.4],[10.97,57.397143],[10.95,57.404375],[10.945,57.399583],[10.930833,57.4],[10.94,57.40725],[10.95,57.406],[10.955,57.41625],[10.96,57.415],[10.97,57.425],[10.983333,57.425],[10.98625,57.43],[10.995,57.4275],[11.005,57.433636],[11.045,57.43]]}},{"type":"Feature","properties":{"depth":10,"source":"DDM 2024 coarse contour","resolution":"0.005 degree sampled grid","scope":"denmark","tileSource":"contours-denmark-coarse.geojson"},"geometry":{"type":"LineString","coordinates":[[11.173,57.42],[11.17,57.41],[11.175,57.405],[11.17,57.41],[11.165,57.401923],[11.16,57.402414],[11.144091,57.41],[11.155,57.42],[11.173,57.42]]}},{"type":"Feature","properties":{"depth":10,"source":"DDM 2024 coarse contour","resolution":"0.005 degree sampled grid","scope":"denmark","tileSource":"contours-denmark-coarse.geojson"},"geometry":{"type":"LineString","coordinates":[[11.02,57.42625],[11.015,57.428438],[11.005217,57.42],[11.017273,57.42],[11.02,57.42625]]}},{"type":"Feature","properties":{"depth":15,"source":"DDM 2024 coarse contour","resolution":"0.005 degree sampled grid","scope":"denmark","tileSource":"contours-denmark-coarse.geojson"},"geometry":{"type":"LineString","coordinates":[[10.776999,57.229999],[10.777,57.23],[10.780263,57.245],[10.776842,57.265],[10.76,57.284589],[10.759999,57.284597]]}},{"type":"Feature","properties":{"depth":15,"source":"DDM 2024 coarse contour","resolution":"0.005 degree sampled grid","scope":"denmark","tileSource":"contours-denmark-coarse.geojson"},"geometry":{"type":"LineString","coordinates":[[10.759999,57.303415],[10.760896,57.305],[10.785,57.313203],[10.808814,57.355],[10.83,57.380313],[10.885,57.410167],[10.965,57.438529],[11.03,57.448958],[11.105,57.452241],[11.155,57.4455],[11.17,57.450185],[11.189,57.44],[11.207167,57.42],[11.212143,57.41],[11.20625,57.4],[11.214167,57.395],[11.19,57.382895],[11.18,57.383472],[11.145,57.39939],[11.125,57.413889],[11.115263,57.41],[11.122857,57.405],[11.122273,57.4],[11.11,57.395714],[11.095,57.405833],[11.045,57.393448],[11.005,57.395],[11.045,57.38697],[11.075,57.387188],[11.095,57.379062],[11.100556,57.38],[11.09,57.38],[11.095,57.39],[11.14,57.389268],[11.18,57.370342],[11.2,57.369318],[11.235001,57.375971]]}},{"type":"Feature","properties":{"depth":15,"source":"DDM 2024 coarse contour","resolution":"0.005 degree sampled grid","scope":"denmark","tileSource":"contours-denmark-coarse.geojson"},"geometry":{"type":"LineString","coordinates":[[11.235001,57.62015],[11.150115,57.705],[11.150115,57.705001]]}},{"type":"Feature","properties":{"depth":15,"source":"DDM 2024 coarse contour","resolution":"0.005 degree sampled grid","scope":"denmark","tileSource":"contours-denmark-coarse.geojson"},"geometry":{"type":"LineString","coordinates":[[11.075,57.420114],[11.059048,57.415],[11.062727,57.41],[11.085,57.405938],[11.088421,57.41],[11.085,57.42],[11.075,57.420114]]}},{"type":"Feature","properties":{"depth":15,"source":"DDM 2024 coarse contour","resolution":"0.005 degree sampled grid","scope":"denmark","tileSource":"contours-denmark-coarse.geojson"},"geometry":{"type":"LineString","coordinates":[[11.1,57.4372],[11.095,57.4275],[11.105,57.42],[11.11,57.423333],[11.1095,57.43],[11.1,57.4372]]}},{"type":"Feature","properties":{"depth":15,"source":"DDM 2024 coarse contour","resolution":"0.005 degree sampled grid","scope":"denmark","tileSource":"contours-denmark-coarse.geojson"},"geometry":{"type":"LineString","coordinates":[[11.230556,57.48],[11.22,57.465],[11.235001,57.457816]]}},{"type":"Feature","properties":{"depth":15,"source":"DDM 2024 coarse contour","resolution":"0.005 degree sampled grid","scope":"denmark","tileSource":"contours-denmark-coarse.geojson"},"geometry":{"type":"LineString","coordinates":[[11.235001,57.426142],[11.22,57.428827],[11.195417,57.44],[11.189167,57.45],[11.198333,57.47],[11.22,57.471],[11.230556,57.48]]}},{"type":"Feature","properties":{"depth":15,"source":"DDM 2024 coarse contour","resolution":"0.005 degree sampled grid","scope":"denmark","tileSource":"contours-denmark-coarse.geojson"},"geometry":{"type":"LineString","coordinates":[[11.225,57.450909],[11.211786,57.445],[11.23,57.445],[11.225,57.450909]]}},{"type":"Feature","properties":{"depth":20,"source":"DDM 2024 coarse contour","resolution":"0.005 degree sampled grid","scope":"denmark","tileSource":"contours-denmark-coarse.geojson"},"geometry":{"type":"LineString","coordinates":[[10.759999,57.247369],[10.76,57.247368],[10.77,57.255],[10.7695,57.265],[10.759999,57.283033]]}},{"type":"Feature","properties":{"depth":20,"source":"DDM 2024 coarse contour","resolution":"0.005 degree sampled grid","scope":"denmark","tileSource":"contours-denmark-coarse.geojson"},"geometry":{"type":"LineString","coordinates":[[10.759999,57.305946],[10.76,57.30595],[10.785,57.320152],[10.83,57.388889],[10.9,57.424091],[10.95,57.441269],[11.005,57.451522],[11.095,57.458667],[11.14,57.453125],[11.17,57.464615],[11.19,57.483438],[11.21,57.489531],[11.235001,57.485784]]}},{"type":"Feature","properties":{"depth":20,"source":"DDM 2024 coarse contour","resolution":"0.005 degree sampled grid","scope":"denmark","tileSource":"contours-denmark-coarse.geojson"},"geometry":{"type":"LineString","coordinates":[[11.235001,57.421251],[11.209687,57.425],[11.228036,57.395],[11.225455,57.38],[11.235001,57.379161]]}},{"type":"Feature","properties":{"depth":20,"source":"DDM 2024 coarse contour","resolution":"0.005 degree sampled grid","scope":"denmark","tileSource":"contours-denmark-coarse.geojson"},"geometry":{"type":"LineString","coordinates":[[11.235001,57.620126],[11.150091,57.705],[11.150091,57.705001]]}},{"type":"Feature","properties":{"depth":20,"source":"DDM 2024 coarse contour","resolution":"0.005 degree sampled grid","scope":"denmark","tileSource":"contours-denmark-coarse.geojson"},"geometry":{"type":"LineString","coordinates":[[10.886111,57.64],[10.88875,57.635],[10.885,57.632717],[10.869063,57.635],[10.886111,57.64]]}},{"type":"Feature","properties":{"depth":20,"source":"DDM 2024 coarse contour","resolution":"0.005 degree sampled grid","scope":"denmark","tileSource":"contours-denmark-coarse.geojson"},"geometry":{"type":"LineString","coordinates":[[10.85537,57.65],[10.861667,57.64],[10.842754,57.645],[10.85537,57.65]]}},{"type":"Feature","properties":{"depth":30,"source":"DDM 2024 coarse contour","resolution":"0.005 degree sampled grid","scope":"denmark","tileSource":"contours-denmark-coarse.geojson"},"geometry":{"type":"LineString","coordinates":[[10.885974,57.705001],[10.925,57.685],[10.975,57.615],[10.9775,57.6],[10.97,57.588333],[10.915,57.564],[10.759999,57.53206]]}},{"type":"Feature","properties":{"depth":30,"source":"DDM 2024 coarse contour","resolution":"0.005 degree sampled grid","scope":"denmark","tileSource":"contours-denmark-coarse.geojson"},"geometry":{"type":"LineString","coordinates":[[10.759999,57.308464],[10.815634,57.38],[10.855,57.41325],[10.92,57.441364],[11.04,57.466023],[11.11,57.468611],[11.124545,57.475],[11.123438,57.48],[11.13,57.483226],[11.165,57.489306],[11.195,57.503182],[11.235001,57.501546]]}},{"type":"Feature","properties":{"depth":30,"source":"DDM 2024 coarse contour","resolution":"0.005 degree sampled grid","scope":"denmark","tileSource":"contours-denmark-coarse.geojson"},"geometry":{"type":"LineString","coordinates":[[11.235001,57.41392],[11.226351,57.415],[11.235001,57.402276]]}},{"type":"Feature","properties":{"depth":30,"source":"DDM 2024 coarse contour","resolution":"0.005 degree sampled grid","scope":"denmark","tileSource":"contours-denmark-coarse.geojson"},"geometry":{"type":"LineString","coordinates":[[11.235001,57.620078],[11.150042,57.705],[11.150042,57.705001]]}}]}