{"type":"FeatureCollection","name":"DDM contour tile r06_c05","bbox":[9.8,57.23,10.275,57.705],"metadata":{"schema":"waternav-ddm-contour-tile-v1","version":"v45.5","tileId":"r06_c05","source":"Danmarks Dybdemodel 2024 ddm_50m.dybde.tiff via bundled DDM contour GeoJSON files"},"features":[{"type":"Feature","properties":{"depth":1,"source":"DDM 2024 coarse contour","resolution":"0.005 degree sampled grid","scope":"denmark","tileSource":"contours-denmark-coarse.geojson"},"geometry":{"type":"LineString","coordinates":[[9.799999,57.484988],[9.8,57.484989],[9.805,57.48499],[9.81,57.489983],[9.815,57.489987],[9.82,57.494994],[9.825,57.494991],[9.83,57.499983],[9.854048,57.51],[9.875,57.529987],[9.88,57.530294],[9.94,57.589989],[9.945,57.589999],[9.96,57.599954],[9.965,57.594972],[9.99,57.599986],[9.995,57.594994],[10.005,57.591875],[10.025,57.590909],[10.03,57.594986],[10.08,57.594985],[10.085,57.591216],[10.09,57.594985],[10.115,57.594985],[10.12,57.590741],[10.13,57.594987],[10.167,57.595],[10.175,57.599987],[10.19,57.600488],[10.195,57.604987],[10.21,57.605532],[10.215,57.609987],[10.23,57.61],[10.24,57.614986],[10.255,57.615441],[10.26,57.619982],[10.27,57.619994],[10.275,57.624987],[10.275001,57.624987]]}},{"type":"Feature","properties":{"depth":2,"source":"DDM 2024 coarse contour","resolution":"0.005 degree sampled grid","scope":"denmark","tileSource":"contours-denmark-coarse.geojson"},"geometry":{"type":"LineString","coordinates":[[9.799999,57.484993],[9.8,57.484994],[9.815,57.489992],[9.86,57.515],[9.875,57.529992],[9.885,57.534995],[9.928148,57.58],[9.94,57.589994],[9.955,57.595132],[9.96,57.599959],[9.965,57.594977],[9.99,57.599991],[9.995,57.594999],[10.025,57.592424],[10.03,57.594991],[10.08,57.59499],[10.085,57.592568],[10.09,57.59499],[10.115,57.59499],[10.125,57.592656],[10.165,57.595769],[10.215,57.609992],[10.227727,57.61],[10.26,57.619987],[10.27,57.619999],[10.275,57.624992],[10.275001,57.624992]]}},{"type":"Feature","properties":{"depth":3,"source":"DDM 2024 coarse contour","resolution":"0.005 degree sampled grid","scope":"denmark","tileSource":"contours-denmark-coarse.geojson"},"geometry":{"type":"LineString","coordinates":[[9.799999,57.484998],[9.8,57.484999],[9.805,57.485],[9.81,57.489993],[9.815,57.489997],[9.82,57.49625],[9.832679,57.5],[9.885,57.535],[9.925004,57.575],[9.926296,57.58],[9.96,57.599964],[9.965,57.594982],[9.975,57.594982],[9.975,57.6],[10.025,57.593939],[10.156944,57.595],[10.215,57.609997],[10.225455,57.61],[10.235,57.615125],[10.275001,57.623454]]}},{"type":"Feature","properties":{"depth":5,"source":"DDM 2024 coarse contour","resolution":"0.005 degree sampled grid","scope":"denmark","tileSource":"contours-denmark-coarse.geojson"},"geometry":{"type":"LineString","coordinates":[[9.799999,57.487765],[9.825,57.501136],[9.833889,57.51],[9.855556,57.52],[9.88,57.541176],[9.88875,57.545],[9.89,57.55],[9.90125,57.555],[9.898696,57.56],[9.915,57.575088],[9.92,57.573095],[9.922833,57.58],[9.94,57.593148],[9.975,57.602941],[10.105,57.5975],[10.1675,57.6],[10.23,57.614545],[10.24,57.62],[10.26,57.621538],[10.275001,57.627782]]}},{"type":"Feature","properties":{"depth":5,"source":"DDM 2024 coarse contour","resolution":"0.005 degree sampled grid","scope":"denmark","tileSource":"contours-denmark-coarse.geojson"},"geometry":{"type":"LineString","coordinates":[[9.975,57.597297],[9.965,57.5982],[9.964992,57.595],[9.975,57.594992],[9.975,57.597297]]}},{"type":"Feature","properties":{"depth":10,"source":"DDM 2024 coarse contour","resolution":"0.005 degree sampled grid","scope":"denmark","tileSource":"contours-denmark-coarse.geojson"},"geometry":{"type":"LineString","coordinates":[[9.799999,57.49803],[9.821786,57.52],[9.836071,57.525],[9.847778,57.54],[9.89,57.560366],[9.927368,57.59],[9.96,57.608333],[10,57.607923],[10.0325,57.62],[10.1,57.626765],[10.21,57.6275],[10.22,57.623621],[10.275001,57.637953]]}},{"type":"Feature","properties":{"depth":15,"source":"DDM 2024 coarse contour","resolution":"0.005 degree sampled grid","scope":"denmark","tileSource":"contours-denmark-coarse.geojson"},"geometry":{"type":"LineString","coordinates":[[9.799999,57.538268],[9.82,57.541667],[9.84,57.553333],[9.85,57.550278],[9.865,57.561818],[9.87,57.559219],[9.875,57.564583],[9.895,57.569762],[9.900263,57.575],[9.890417,57.58],[9.895,57.58693],[9.906923,57.585],[9.901515,57.58],[9.905,57.577195],[9.915455,57.59],[9.937875,57.6],[9.948,57.615],[9.94,57.620078],[9.96,57.61875],[9.97,57.626875],[10.005,57.635],[10.02,57.645],[10.1,57.659],[10.1225,57.655],[10.128333,57.645],[10.14,57.638889],[10.145,57.644],[10.205,57.637895],[10.245,57.644286],[10.275001,57.652792]]}},{"type":"Feature","properties":{"depth":15,"source":"DDM 2024 coarse contour","resolution":"0.005 degree sampled grid","scope":"denmark","tileSource":"contours-denmark-coarse.geojson"},"geometry":{"type":"LineString","coordinates":[[9.872273,57.58],[9.87,57.573846],[9.858214,57.575],[9.872273,57.58]]}},{"type":"Feature","properties":{"depth":20,"source":"DDM 2024 coarse contour","resolution":"0.005 degree sampled grid","scope":"denmark","tileSource":"contours-denmark-coarse.geojson"},"geometry":{"type":"LineString","coordinates":[[9.799999,57.580999],[9.81,57.595],[9.8065,57.63],[9.82,57.632727],[9.88,57.6],[9.888333,57.6],[9.924167,57.615],[9.930208,57.62],[9.925833,57.625],[9.935,57.630417],[9.934167,57.625],[9.945,57.623944],[9.972037,57.635],[9.975,57.640667],[10.03125,57.655],[10.015,57.6625],[10.005,57.658594],[9.986875,57.66],[10.049,57.67],[10.0925,57.685],[10.095,57.69],[10.081,57.7],[10.089305,57.705001]]}},{"type":"Feature","properties":{"depth":20,"source":"DDM 2024 coarse contour","resolution":"0.005 degree sampled grid","scope":"denmark","tileSource":"contours-denmark-coarse.geojson"},"geometry":{"type":"LineString","coordinates":[[10.275001,57.704135],[10.265,57.703125],[10.26,57.697],[10.245,57.694],[10.19875,57.665],[10.26,57.6575],[10.275001,57.661465]]}},{"type":"Feature","properties":{"depth":20,"source":"DDM 2024 coarse contour","resolution":"0.005 degree sampled grid","scope":"denmark","tileSource":"contours-denmark-coarse.geojson"},"geometry":{"type":"LineString","coordinates":[[9.906552,57.64],[9.909,57.63],[9.905,57.624286],[9.889643,57.635],[9.889118,57.64],[9.895,57.643654],[9.906552,57.64]]}},{"type":"Feature","properties":{"depth":20,"source":"DDM 2024 coarse contour","resolution":"0.005 degree sampled grid","scope":"denmark","tileSource":"contours-denmark-coarse.geojson"},"geometry":{"type":"LineString","coordinates":[[10.070517,57.705],[10.0795,57.7],[10.075,57.696538],[10.070517,57.705]]}},{"type":"Feature","properties":{"depth":30,"source":"DDM 2024 coarse contour","resolution":"0.005 degree sampled grid","scope":"denmark","tileSource":"contours-denmark-coarse.geojson"},"geometry":{"type":"LineString","coordinates":[[9.799999,57.645022],[9.813824,57.65],[9.8,57.655938],[9.81,57.65814],[9.815,57.6508],[9.84,57.664583],[9.845556,57.66],[9.835,57.6575],[9.830833,57.645],[9.84,57.638191],[9.87,57.656538],[9.915,57.657955],[9.917812,57.66],[9.91,57.666842],[9.887,57.665],[9.885,57.67],[9.89,57.666875],[9.89,57.671667],[9.865,57.666618],[9.855,57.67125],[9.85,57.666071],[9.845,57.671818],[9.84,57.665385],[9.82,57.665],[9.819583,57.67],[9.935,57.695229],[10.002519,57.705001]]}},{"type":"Feature","properties":{"depth":50,"source":"DDM 2024 coarse contour","resolution":"0.005 degree sampled grid","scope":"denmark","tileSource":"contours-denmark-coarse.geojson"},"geometry":{"type":"LineString","coordinates":[[9.799999,57.676291],[9.94,57.701887],[9.962712,57.705001]]}}]}