{"type":"FeatureCollection","name":"DDM contour tile r00_c05","bbox":[9.8,54.35,10.275,54.825],"metadata":{"schema":"waternav-ddm-contour-tile-v1","version":"v45.4","tileId":"r00_c05","source":"Danmarks Dybdemodel 2024 ddm_50m.dybde.tiff via bundled DDM contour GeoJSON files"},"features":[{"type":"Feature","properties":{"depth":1,"source":"DDM 2024 coarse contour","resolution":"0.005 degree sampled grid","scope":"denmark","tileSource":"contours-denmark-coarse.geojson"},"geometry":{"type":"LineString","coordinates":[[9.930767,54.825001],[9.94,54.819874],[9.945,54.819876],[9.95,54.814871],[9.955,54.814874],[9.96,54.809865],[9.97,54.809877],[9.975,54.804875],[9.98,54.804898],[9.985,54.799877],[9.99,54.799892],[9.995,54.794879],[10.02,54.784886],[10.045,54.769866],[10.07,54.769933],[10.075,54.764876],[10.185,54.764885],[10.19,54.759888],[10.215,54.759888],[10.225,54.749879],[10.23,54.749885],[10.26,54.719889],[10.265,54.719894],[10.275001,54.709894]]}},{"type":"Feature","properties":{"depth":2,"source":"DDM 2024 coarse contour","resolution":"0.005 degree sampled grid","scope":"denmark","tileSource":"contours-denmark-coarse.geojson"},"geometry":{"type":"LineString","coordinates":[[9.930776,54.825001],[9.94,54.819879],[9.945,54.819881],[9.95,54.814876],[9.955,54.814879],[9.96,54.80987],[9.97,54.809881],[9.975,54.80488],[9.98,54.804903],[9.985,54.799882],[9.99,54.799897],[9.995,54.794883],[10.02,54.784891],[10.045,54.769871],[10.07,54.769938],[10.075,54.764881],[10.185,54.76489],[10.19,54.759892],[10.215,54.759892],[10.225,54.749884],[10.23,54.74989],[10.26,54.719893],[10.265,54.719899],[10.275001,54.709899]]}},{"type":"Feature","properties":{"depth":3,"source":"DDM 2024 coarse contour","resolution":"0.005 degree sampled grid","scope":"denmark","tileSource":"contours-denmark-coarse.geojson"},"geometry":{"type":"LineString","coordinates":[[9.930785,54.825001],[9.94,54.819884],[9.945,54.819886],[9.95,54.814881],[9.955,54.814884],[9.96,54.809875],[9.97,54.809886],[9.975,54.804884],[9.98,54.804907],[9.985,54.799887],[9.99,54.799902],[9.995,54.794888],[10.02,54.784896],[10.045,54.769876],[10.07,54.769943],[10.075,54.764886],[10.185,54.764895],[10.19,54.759897],[10.215,54.759897],[10.225,54.749889],[10.23,54.749895],[10.26,54.719898],[10.265,54.719904],[10.275001,54.709904]]}},{"type":"Feature","properties":{"depth":5,"source":"DDM 2024 coarse contour","resolution":"0.005 degree sampled grid","scope":"denmark","tileSource":"contours-denmark-coarse.geojson"},"geometry":{"type":"LineString","coordinates":[[9.930803,54.825001],[9.94,54.819894],[9.945,54.819896],[9.95,54.81489],[9.955,54.814893],[9.96,54.809885],[9.97,54.809896],[9.975,54.804894],[9.98,54.804917],[9.985,54.799897],[9.99,54.799912],[9.995,54.794898],[10.02,54.784906],[10.045,54.769886],[10.07,54.769953],[10.075,54.764896],[10.185,54.764905],[10.19,54.759907],[10.215,54.759907],[10.225,54.749899],[10.23,54.749905],[10.26,54.719908],[10.265,54.719914],[10.275001,54.709914]]}},{"type":"Feature","properties":{"depth":10,"source":"DDM 2024 coarse contour","resolution":"0.005 degree sampled grid","scope":"denmark","tileSource":"contours-denmark-coarse.geojson"},"geometry":{"type":"LineString","coordinates":[[9.934812,54.825001],[10.045,54.76991],[10.07,54.769977],[10.075,54.76492],[10.185,54.764929],[10.19,54.759932],[10.215,54.759932],[10.26,54.719933],[10.265,54.719938],[10.275001,54.709938]]}},{"type":"Feature","properties":{"depth":10,"source":"DDM 2024 coarse contour","resolution":"0.005 degree sampled grid","scope":"denmark","tileSource":"contours-denmark-coarse.geojson"},"geometry":{"type":"LineString","coordinates":[[10.070814,54.825001],[10.076389,54.82],[10.073571,54.8],[10.068542,54.795],[10.074444,54.79],[10.072,54.785],[10.03,54.789348],[10.015,54.806479],[9.98625,54.81],[10.000301,54.825001]]}},{"type":"Feature","properties":{"depth":10,"source":"DDM 2024 coarse contour","resolution":"0.005 degree sampled grid","scope":"denmark","tileSource":"contours-denmark-coarse.geojson"},"geometry":{"type":"LineString","coordinates":[[10.008775,54.825001],[10.007059,54.82],[10.02,54.819082],[10.02,54.825001]]}},{"type":"Feature","properties":{"depth":15,"source":"DDM 2024 coarse contour","resolution":"0.005 degree sampled grid","scope":"denmark","tileSource":"contours-denmark-coarse.geojson"},"geometry":{"type":"LineString","coordinates":[[10.086651,54.825001],[10.082407,54.8],[10.086102,54.785],[10.070667,54.77],[10.075,54.764944],[10.185,54.764954],[10.19,54.759956],[10.215,54.759956],[10.26,54.719957],[10.265,54.719963],[10.275001,54.709963]]}},{"type":"Feature","properties":{"depth":15,"source":"DDM 2024 coarse contour","resolution":"0.005 degree sampled grid","scope":"denmark","tileSource":"contours-denmark-coarse.geojson"},"geometry":{"type":"LineString","coordinates":[[10.275001,54.738],[10.2675,54.74],[10.275001,54.745685]]}},{"type":"Feature","properties":{"depth":15,"source":"DDM 2024 coarse contour","resolution":"0.005 degree sampled grid","scope":"denmark","tileSource":"contours-denmark-coarse.geojson"},"geometry":{"type":"LineString","coordinates":[[9.93486,54.825001],[10.045,54.769934],[10.057456,54.77],[10.053864,54.78],[10.025,54.788784],[10.015,54.803141],[10,54.802273],[9.981346,54.81],[9.98,54.8235],[9.982538,54.825001]]}},{"type":"Feature","properties":{"depth":20,"source":"DDM 2024 coarse contour","resolution":"0.005 degree sampled grid","scope":"denmark","tileSource":"contours-denmark-coarse.geojson"},"geometry":{"type":"LineString","coordinates":[[10.096063,54.825001],[10.096061,54.825],[10.091571,54.815],[10.089524,54.775],[10.075,54.768636],[10.075,54.764969],[10.185,54.764978],[10.19,54.75998],[10.215,54.75998],[10.26,54.719981],[10.265,54.719987],[10.275001,54.710514]]}},{"type":"Feature","properties":{"depth":20,"source":"DDM 2024 coarse contour","resolution":"0.005 degree sampled grid","scope":"denmark","tileSource":"contours-denmark-coarse.geojson"},"geometry":{"type":"LineString","coordinates":[[10.275001,54.72],[10.275,54.72],[10.248889,54.75],[10.265,54.758966],[10.275001,54.759261]]}},{"type":"Feature","properties":{"depth":20,"source":"DDM 2024 coarse contour","resolution":"0.005 degree sampled grid","scope":"denmark","tileSource":"contours-denmark-coarse.geojson"},"geometry":{"type":"LineString","coordinates":[[10.01,54.802731],[10,54.798026],[9.985,54.803827],[9.98497,54.8],[10.045,54.769959],[10.052963,54.77],[10.042826,54.78],[10.01825,54.79],[10.01,54.802731]]}},{"type":"Feature","properties":{"depth":20,"source":"DDM 2024 coarse contour","resolution":"0.005 degree sampled grid","scope":"denmark","tileSource":"contours-denmark-coarse.geojson"},"geometry":{"type":"LineString","coordinates":[[9.932061,54.825001],[9.96,54.809958],[9.9825,54.805],[9.965227,54.82],[9.965113,54.825001]]}},{"type":"Feature","properties":{"depth":30,"source":"DDM 2024 coarse contour","resolution":"0.005 degree sampled grid","scope":"denmark","tileSource":"contours-denmark-coarse.geojson"},"geometry":{"type":"LineString","coordinates":[[10.153345,54.825001],[10.16,54.8175],[10.1675,54.82],[10.16875,54.825001]]}},{"type":"Feature","properties":{"depth":30,"source":"DDM 2024 coarse contour","resolution":"0.005 degree sampled grid","scope":"denmark","tileSource":"contours-denmark-coarse.geojson"},"geometry":{"type":"LineString","coordinates":[[10.26996,54.825001],[10.27,54.825],[10.269998,54.825001]]}},{"type":"Feature","properties":{"depth":30,"source":"DDM 2024 coarse contour","resolution":"0.005 degree sampled grid","scope":"denmark","tileSource":"contours-denmark-coarse.geojson"},"geometry":{"type":"LineString","coordinates":[[10.125,54.825001],[10.125,54.82125],[10.128462,54.825001]]}}]}