{"type":"FeatureCollection","name":"DDM contour tile r00_c09","bbox":[11.72,54.35,12.195,54.825],"metadata":{"schema":"waternav-ddm-contour-tile-v1","version":"v45.4","tileId":"r00_c09","source":"Danmarks Dybdemodel 2024 ddm_50m.dybde.tiff via bundled DDM contour GeoJSON files"},"features":[{"type":"Feature","properties":{"depth":1,"source":"DDM 2024 coarse contour","resolution":"0.005 degree sampled grid","scope":"denmark","tileSource":"contours-denmark-coarse.geojson"},"geometry":{"type":"LineString","coordinates":[[11.719999,54.369884],[11.72,54.369885],[11.725,54.364885],[11.735,54.364885],[11.74,54.369887],[11.755,54.369889],[11.76,54.364887],[11.765,54.36989],[11.95,54.369919],[11.955,54.37492],[11.97,54.374921],[11.975,54.379922],[11.99,54.379921],[11.995,54.384922],[12.01,54.384916],[12.015,54.389916],[12.025,54.389914],[12.03,54.394915],[12.05,54.394911],[12.055,54.399911],[12.065,54.399909],[12.07,54.40491],[12.085,54.404906],[12.09,54.409911],[12.105,54.409902],[12.11,54.414903],[12.115,54.414901],[12.14,54.439911],[12.145,54.439909],[12.17,54.464945],[12.175,54.464941],[12.195001,54.484916]]}},{"type":"Feature","properties":{"depth":1,"source":"DDM 2024 coarse contour","resolution":"0.005 degree sampled grid","scope":"denmark","tileSource":"contours-denmark-coarse.geojson"},"geometry":{"type":"LineString","coordinates":[[12.14586,54.825001],[12.145294,54.825],[12.14,54.820015],[12.135,54.820007],[12.13,54.814737],[12.129991,54.81],[12.115,54.795017],[12.105,54.795004],[12.1,54.790015],[12.085,54.79],[12.075,54.780009],[12.07,54.78],[12.05,54.760011],[12.045,54.760002],[12.039998,54.755],[12.03499,54.74],[12.015,54.720008],[11.99,54.705008],[11.985,54.705002],[11.974999,54.695],[11.969992,54.68],[11.964999,54.675],[11.965,54.622778],[11.969982,54.615],[11.97,54.5964],[11.974988,54.59],[11.974989,54.565],[11.97,54.558875],[11.955,54.560013],[11.95,54.565006],[11.94,54.565017],[11.935,54.570013],[11.920897,54.57],[11.92,54.567308],[11.9,54.560006],[11.865,54.563077],[11.86,54.560011],[11.855,54.566818],[11.845,54.5682],[11.832647,54.575],[11.84,54.575755],[11.85,54.570851],[11.87,54.570732],[11.905,54.576923],[11.91,54.576563],[11.915,54.5708],[11.919265,54.58],[11.92,54.594524],[11.915,54.6036],[11.91,54.605012],[11.890012,54.625],[11.890002,54.63],[11.885,54.635007],[11.88,54.635011],[11.870007,54.645],[11.870004,54.65],[11.865003,54.655],[11.865005,54.665],[11.875001,54.68],[11.875005,54.69],[11.88,54.694992],[11.884722,54.695],[11.9,54.709444],[11.902143,54.715],[11.895,54.718],[11.89,54.7085],[11.885,54.7125],[11.885,54.7175],[11.893,54.72],[11.855,54.720001],[11.85,54.725],[11.835,54.72],[11.839091,54.715],[11.835,54.7125],[11.827857,54.715],[11.825,54.721667],[11.82,54.715001],[11.816667,54.715],[11.83,54.701538],[11.845,54.697273],[11.85,54.699993],[11.86,54.697188],[11.863182,54.695],[11.86,54.687917],[11.865,54.685],[11.856364,54.68],[11.854999,54.675],[11.848333,54.67],[11.8525,54.665],[11.83,54.66],[11.83625,54.655],[11.835,54.64875],[11.8275,54.645],[11.831667,54.64],[11.83,54.638125],[11.79,54.64],[11.791667,54.645],[11.77,54.645017],[11.765,54.65],[11.74,54.64925],[11.725,54.653],[11.721786,54.65],[11.726667,54.645],[11.725,54.635],[11.73,54.634375],[11.719999,54.634875]]}},{"type":"Feature","properties":{"depth":1,"source":"DDM 2024 coarse contour","resolution":"0.005 degree sampled grid","scope":"denmark","tileSource":"contours-denmark-coarse.geojson"},"geometry":{"type":"LineString","coordinates":[[11.719999,54.600595],[11.726786,54.6],[11.719999,54.596298]]}},{"type":"Feature","properties":{"depth":1,"source":"DDM 2024 coarse contour","resolution":"0.005 degree sampled grid","scope":"denmark","tileSource":"contours-denmark-coarse.geojson"},"geometry":{"type":"LineString","coordinates":[[11.789972,54.825001],[11.789972,54.825],[11.784969,54.82],[11.78498,54.81],[11.79,54.804996],[11.799625,54.805],[11.795,54.805018],[11.790001,54.81],[11.803571,54.82],[11.805327,54.825001]]}},{"type":"Feature","properties":{"depth":1,"source":"DDM 2024 coarse contour","resolution":"0.005 degree sampled grid","scope":"denmark","tileSource":"contours-denmark-coarse.geojson"},"geometry":{"type":"LineString","coordinates":[[11.74125,54.635],[11.75,54.63],[11.745,54.629412],[11.7375,54.635],[11.74125,54.635]]}},{"type":"Feature","properties":{"depth":1,"source":"DDM 2024 coarse contour","resolution":"0.005 degree sampled grid","scope":"denmark","tileSource":"contours-denmark-coarse.geojson"},"geometry":{"type":"LineString","coordinates":[[11.865,54.760011],[11.861034,54.76],[11.869991,54.745],[11.87,54.735625],[11.875,54.75],[11.865,54.760011]]}},{"type":"Feature","properties":{"depth":1,"source":"DDM 2024 coarse contour","resolution":"0.005 degree sampled grid","scope":"denmark","tileSource":"contours-denmark-coarse.geojson"},"geometry":{"type":"LineString","coordinates":[[11.84,54.785],[11.830154,54.785],[11.85,54.7755],[11.85,54.780018],[11.845,54.780007],[11.84,54.785]]}},{"type":"Feature","properties":{"depth":1,"source":"DDM 2024 coarse contour","resolution":"0.005 degree sampled grid","scope":"denmark","tileSource":"contours-denmark-coarse.geojson"},"geometry":{"type":"LineString","coordinates":[[11.825,54.795002],[11.810714,54.795],[11.82,54.794991],[11.83,54.785278],[11.83,54.794048],[11.825,54.795002]]}},{"type":"Feature","properties":{"depth":2,"source":"DDM 2024 coarse contour","resolution":"0.005 degree sampled grid","scope":"denmark","tileSource":"contours-denmark-coarse.geojson"},"geometry":{"type":"LineString","coordinates":[[11.719999,54.369889],[11.72,54.36989],[11.725,54.36489],[11.735,54.36489],[11.74,54.369892],[11.755,54.369893],[11.76,54.364892],[11.765,54.369895],[11.95,54.369924],[11.955,54.374925],[11.97,54.374926],[11.975,54.379927],[11.99,54.379926],[11.995,54.384927],[12.01,54.384921],[12.015,54.389921],[12.025,54.389918],[12.03,54.39492],[12.05,54.394916],[12.055,54.399916],[12.065,54.399914],[12.07,54.404915],[12.085,54.404911],[12.09,54.409916],[12.105,54.409907],[12.11,54.414908],[12.115,54.414905],[12.14,54.439916],[12.145,54.439914],[12.17,54.46495],[12.175,54.464946],[12.195001,54.484921]]}},{"type":"Feature","properties":{"depth":2,"source":"DDM 2024 coarse contour","resolution":"0.005 degree sampled grid","scope":"denmark","tileSource":"contours-denmark-coarse.geojson"},"geometry":{"type":"LineString","coordinates":[[12.148795,54.825001],[12.148235,54.825],[12.135,54.820002],[12.129996,54.81],[12.115,54.795012],[12.105313,54.795],[12.1,54.79001],[12.088125,54.79],[12.065,54.775001],[12.055,54.7632],[12.04,54.7535],[12.034995,54.74],[12.02,54.723333],[11.985,54.703636],[11.975,54.693261],[11.965,54.669545],[11.965667,54.625],[11.969987,54.615],[11.97,54.5984],[11.974993,54.59],[11.974994,54.565],[11.97,54.557625],[11.955,54.560008],[11.95,54.565001],[11.94,54.565012],[11.935,54.570008],[11.922179,54.57],[11.92,54.563462],[11.905,54.560238],[11.86,54.560006],[11.8275,54.575],[11.84,54.576698],[11.85,54.571915],[11.87,54.571951],[11.905,54.580417],[11.91,54.579688],[11.915,54.5718],[11.920004,54.59],[11.915,54.6016],[11.890007,54.625],[11.885002,54.635],[11.88,54.635006],[11.870002,54.645],[11.869667,54.65],[11.8625,54.655],[11.861562,54.66],[11.87,54.672857],[11.87,54.68],[11.863333,54.68],[11.857143,54.67],[11.857778,54.665],[11.84,54.6515],[11.839,54.64],[11.842778,54.635],[11.84,54.633077],[11.835,54.631538],[11.825,54.636522],[11.79,54.638864],[11.7825,54.645],[11.77,54.645012],[11.765,54.64881],[11.74,54.64675],[11.7325,54.65],[11.73,54.639583],[11.735,54.6375],[11.74,54.641111],[11.745,54.634286],[11.757308,54.63],[11.745,54.626471],[11.72,54.631071],[11.719999,54.631071]]}},{"type":"Feature","properties":{"depth":2,"source":"DDM 2024 coarse contour","resolution":"0.005 degree sampled grid","scope":"denmark","tileSource":"contours-denmark-coarse.geojson"},"geometry":{"type":"LineString","coordinates":[[11.719999,54.601852],[11.730208,54.6],[11.719999,54.594808]]}},{"type":"Feature","properties":{"depth":2,"source":"DDM 2024 coarse contour","resolution":"0.005 degree sampled grid","scope":"denmark","tileSource":"contours-denmark-coarse.geojson"},"geometry":{"type":"LineString","coordinates":[[11.805156,54.585],[11.81,54.580156],[11.821585,54.58],[11.82,54.576579],[11.815,54.577667],[11.808333,54.58],[11.805156,54.585]]}},{"type":"Feature","properties":{"depth":2,"source":"DDM 2024 coarse contour","resolution":"0.005 degree sampled grid","scope":"denmark","tileSource":"contours-denmark-coarse.geojson"},"geometry":{"type":"LineString","coordinates":[[11.88,54.716],[11.845,54.715833],[11.841667,54.7],[11.86,54.700714],[11.87125,54.695],[11.867632,54.685],[11.87,54.68],[11.875,54.69],[11.886316,54.7],[11.8875,54.705],[11.881111,54.71],[11.88,54.716]]}},{"type":"Feature","properties":{"depth":2,"source":"DDM 2024 coarse contour","resolution":"0.005 degree sampled grid","scope":"denmark","tileSource":"contours-denmark-coarse.geojson"},"geometry":{"type":"LineString","coordinates":[[11.87,54.755],[11.87,54.737708],[11.872619,54.75],[11.87,54.755]]}},{"type":"Feature","properties":{"depth":2,"source":"DDM 2024 coarse contour","resolution":"0.005 degree sampled grid","scope":"denmark","tileSource":"contours-denmark-coarse.geojson"},"geometry":{"type":"LineString","coordinates":[[11.85,54.780013],[11.84,54.782353],[11.8384,54.78],[11.85,54.77675],[11.85,54.780013]]}},{"type":"Feature","properties":{"depth":2,"source":"DDM 2024 coarse contour","resolution":"0.005 degree sampled grid","scope":"denmark","tileSource":"contours-denmark-coarse.geojson"},"geometry":{"type":"LineString","coordinates":[[11.785,54.820026],[11.784985,54.81],[11.789079,54.81],[11.789732,54.82],[11.785,54.820026]]}},{"type":"Feature","properties":{"depth":3,"source":"DDM 2024 coarse contour","resolution":"0.005 degree sampled grid","scope":"denmark","tileSource":"contours-denmark-coarse.geojson"},"geometry":{"type":"LineString","coordinates":[[11.719999,54.369894],[11.72,54.369895],[11.725,54.364894],[11.735,54.364894],[11.74,54.369896],[11.755,54.369898],[11.76,54.364896],[11.765,54.3699],[11.95,54.369929],[11.955,54.37493],[11.97,54.374931],[11.975,54.379932],[11.99,54.379931],[11.995,54.384932],[12.01,54.384926],[12.015,54.389926],[12.025,54.389923],[12.03,54.394925],[12.05,54.39492],[12.055,54.399921],[12.065,54.399919],[12.07,54.404919],[12.085,54.404916],[12.09,54.40992],[12.105,54.409912],[12.11,54.414913],[12.115,54.41491],[12.14,54.439921],[12.145,54.439919],[12.17,54.464955],[12.175,54.464951],[12.195001,54.484926]]}},{"type":"Feature","properties":{"depth":3,"source":"DDM 2024 coarse contour","resolution":"0.005 degree sampled grid","scope":"denmark","tileSource":"contours-denmark-coarse.geojson"},"geometry":{"type":"LineString","coordinates":[[12.15993,54.825001],[12.136563,54.82],[12.133889,54.815],[12.135769,54.81],[12.13,54.804],[12.125,54.805002],[12.115,54.795007],[12.08,54.785002],[12.055,54.7612],[12.043636,54.755],[12.02,54.72],[11.985,54.701364],[11.975,54.691087],[11.965,54.665],[11.964999,54.65],[11.966778,54.625],[11.971944,54.605],[11.9704,54.6],[11.974998,54.59],[11.976667,54.575],[11.973085,54.56],[11.975,54.554643],[11.963393,54.56],[11.955,54.560003],[11.948542,54.565],[11.94,54.565007],[11.935,54.570003],[11.923462,54.57],[11.925,54.564167],[11.92,54.559583],[11.895,54.557143],[11.865,54.55913],[11.845,54.563333],[11.835,54.570882],[11.81,54.577609],[11.795,54.577273],[11.77,54.585],[11.767222,54.59],[11.785,54.591613],[11.79,54.585857],[11.805,54.586196],[11.81,54.581719],[11.82,54.58217],[11.825,54.576667],[11.84,54.577642],[11.855,54.572872],[11.87,54.573171],[11.905,54.5825],[11.9125,54.58],[11.915,54.5728],[11.919545,54.59],[11.915,54.599167],[11.892187,54.62],[11.885,54.633077],[11.872,54.64],[11.866333,54.65],[11.86,54.653333],[11.850833,54.65],[11.85,54.645],[11.84375,54.64],[11.847,54.635],[11.84,54.62975],[11.825,54.629737],[11.82,54.635],[11.78,54.639432],[11.779,54.645],[11.755,54.647778],[11.741364,54.645],[11.75,54.638333],[11.755,54.641739],[11.75625,54.635],[11.762143,54.63],[11.74,54.6225],[11.73,54.627292],[11.719999,54.627685]]}},{"type":"Feature","properties":{"depth":3,"source":"DDM 2024 coarse contour","resolution":"0.005 degree sampled grid","scope":"denmark","tileSource":"contours-denmark-coarse.geojson"},"geometry":{"type":"LineString","coordinates":[[11.719999,54.602877],[11.725,54.602907],[11.732292,54.6],[11.735,54.59],[11.7375,54.595],[11.745,54.595769],[11.75,54.590625],[11.755625,54.59],[11.745,54.585],[11.74,54.585],[11.735,54.59],[11.719999,54.59]]}},{"type":"Feature","properties":{"depth":3,"source":"DDM 2024 coarse contour","resolution":"0.005 degree sampled grid","scope":"denmark","tileSource":"contours-denmark-coarse.geojson"},"geometry":{"type":"LineString","coordinates":[[11.783,54.63],[11.7675,54.63],[11.77,54.632222],[11.783,54.63]]}},{"type":"Feature","properties":{"depth":3,"source":"DDM 2024 coarse contour","resolution":"0.005 degree sampled grid","scope":"denmark","tileSource":"contours-denmark-coarse.geojson"},"geometry":{"type":"LineString","coordinates":[[11.785,54.820021],[11.78499,54.81],[11.787763,54.81],[11.788839,54.82],[11.785,54.820021]]}},{"type":"Feature","properties":{"depth":5,"source":"DDM 2024 coarse contour","resolution":"0.005 degree sampled grid","scope":"denmark","tileSource":"contours-denmark-coarse.geojson"},"geometry":{"type":"LineString","coordinates":[[11.719999,54.369904],[11.72,54.369905],[11.725,54.364904],[11.735,54.364904],[11.74,54.369906],[11.755,54.369908],[11.76,54.364906],[11.765,54.36991],[11.95,54.369939],[11.955,54.37494],[11.97,54.374941],[11.975,54.379942],[11.99,54.379941],[11.995,54.384941],[12.01,54.384936],[12.015,54.389936],[12.025,54.389933],[12.03,54.394935],[12.05,54.39493],[12.055,54.399931],[12.065,54.399928],[12.07,54.404929],[12.085,54.404925],[12.09,54.40993],[12.105,54.409922],[12.11,54.414923],[12.115,54.41492],[12.14,54.439931],[12.145,54.439928],[12.17,54.464965],[12.175,54.46496],[12.195001,54.484935]]}},{"type":"Feature","properties":{"depth":5,"source":"DDM 2024 coarse contour","resolution":"0.005 degree sampled grid","scope":"denmark","tileSource":"contours-denmark-coarse.geojson"},"geometry":{"type":"LineString","coordinates":[[12.157995,54.825001],[12.143214,54.82],[12.14,54.8145],[12.16,54.815],[12.169231,54.81],[12.16,54.802778],[12.15,54.803889],[12.125,54.797222],[12.107,54.79],[12.11,54.7885],[12.11,54.783704],[12.1,54.78625],[12.094286,54.785],[12.095,54.78],[12.085,54.78],[12.083125,54.775],[12.048125,54.75],[12.041875,54.74],[12.040952,54.73],[12.032143,54.725],[12.025,54.713182],[12.017857,54.71],[12,54.690714],[11.99,54.687273],[11.97,54.673333],[11.969,54.625],[11.978387,54.585],[11.975714,54.56],[11.981,54.555],[11.9738,54.55],[11.9775,54.545],[11.975,54.5444],[11.965,54.5495],[11.95,54.547963],[11.935,54.55625],[11.933333,54.55],[11.93,54.548889],[11.92,54.55],[11.895,54.542222],[11.885,54.544167],[11.865,54.53975],[11.839,54.545],[11.85,54.55],[11.85,54.555],[11.86,54.555],[11.82,54.558421],[11.815,54.56375],[11.805,54.55875],[11.8,54.563],[11.79,54.558],[11.785,54.563125],[11.77,54.561765],[11.765,54.565],[11.76,54.562667],[11.755,54.567143],[11.74,54.570909],[11.719999,54.572533]]}},{"type":"Feature","properties":{"depth":5,"source":"DDM 2024 coarse contour","resolution":"0.005 degree sampled grid","scope":"denmark","tileSource":"contours-denmark-coarse.geojson"},"geometry":{"type":"LineString","coordinates":[[11.93,54.57001],[11.926429,54.57],[11.926786,54.56],[11.93,54.555909],[11.934091,54.56],[11.932941,54.57],[11.93,54.57001]]}},{"type":"Feature","properties":{"depth":5,"source":"DDM 2024 coarse contour","resolution":"0.005 degree sampled grid","scope":"denmark","tileSource":"contours-denmark-coarse.geojson"},"geometry":{"type":"LineString","coordinates":[[11.87,54.6372],[11.86,54.64],[11.859412,54.635],[11.855,54.631429],[11.84,54.62725],[11.825,54.627105],[11.82,54.632059],[11.805,54.633958],[11.8,54.626818],[11.793125,54.63],[11.803214,54.635],[11.78,54.637159],[11.776935,54.635],[11.788913,54.63],[11.757222,54.625],[11.76,54.62],[11.755,54.6175],[11.7575,54.61],[11.755,54.605625],[11.74,54.611364],[11.726667,54.61],[11.73,54.605],[11.74,54.602917],[11.75,54.594792],[11.795,54.595],[11.79,54.5945],[11.79,54.588714],[11.805,54.58837],[11.826429,54.58],[11.845,54.5786],[11.85,54.575455],[11.885,54.579881],[11.89,54.587],[11.912917,54.585],[11.9075,54.6],[11.9,54.605],[11.898478,54.61],[11.885,54.6196],[11.874167,54.62],[11.88375,54.625],[11.87,54.6372]]}},{"type":"Feature","properties":{"depth":5,"source":"DDM 2024 coarse contour","resolution":"0.005 degree sampled grid","scope":"denmark","tileSource":"contours-denmark-coarse.geojson"},"geometry":{"type":"LineString","coordinates":[[11.791,54.62],[11.796875,54.615],[11.795,54.613333],[11.788889,54.62],[11.791,54.62]]}},{"type":"Feature","properties":{"depth":5,"source":"DDM 2024 coarse contour","resolution":"0.005 degree sampled grid","scope":"denmark","tileSource":"contours-denmark-coarse.geojson"},"geometry":{"type":"LineString","coordinates":[[11.765,54.645238],[11.757778,54.645],[11.765,54.638333],[11.765,54.645238]]}},{"type":"Feature","properties":{"depth":10,"source":"DDM 2024 coarse contour","resolution":"0.005 degree sampled grid","scope":"denmark","tileSource":"contours-denmark-coarse.geojson"},"geometry":{"type":"LineString","coordinates":[[11.719999,54.369928],[11.72,54.369929],[11.725,54.364929],[11.735,54.364929],[11.74,54.369931],[11.755,54.369933],[11.76,54.364931],[11.765,54.369934],[11.95,54.369964],[11.955,54.374965],[11.99,54.379966],[11.995,54.384966],[12.01,54.38496],[12.03,54.394959],[12.05,54.394955],[12.07,54.404954],[12.105,54.409946],[12.195001,54.485742]]}},{"type":"Feature","properties":{"depth":10,"source":"DDM 2024 coarse contour","resolution":"0.005 degree sampled grid","scope":"denmark","tileSource":"contours-denmark-coarse.geojson"},"geometry":{"type":"LineString","coordinates":[[12.195001,54.80924],[12.185,54.806719],[12.15,54.777812],[12.115,54.767105],[12.10875,54.76],[12.12,54.744444],[12.095,54.7365],[12.09,54.74],[12.075,54.725625],[12.074118,54.72],[12.0825,54.715],[12.095,54.693571],[12.08,54.697308],[12.07,54.7095],[12.06,54.70875],[12.06,54.715],[12.049,54.71],[12.0475,54.705],[12.0525,54.7],[12.04,54.688],[12.033333,54.69],[12.02875,54.665],[12.035,54.65],[12.025,54.649286],[12.022692,54.645],[12.03,54.638333],[12.035,54.64],[12.035,54.65],[12.055,54.634643],[12.074167,54.635],[12.065,54.625789],[12.0325,54.63],[12.04375,54.62],[12.03,54.61625],[12.0275,54.61],[12.04,54.6075],[12.045833,54.6],[12.04,54.6025],[12.026875,54.59],[12.056667,54.585],[12.062,54.565],[12.055882,54.535],[12.065,54.532059],[12.072857,54.52],[12.085,54.5185],[12.085,54.5075],[12.0975,54.5],[12.0935,54.495],[12.105,54.493636],[12.11,54.483529],[12.08,54.499167],[12.075,54.496538],[12.07,54.502222],[12.05,54.503056],[12.035,54.512308],[12.01,54.506667],[12,54.511],[11.965,54.5075],[11.96,54.511667],[11.94,54.511842],[11.9,54.504687],[11.87,54.511053],[11.83,54.507857],[11.82,54.50275],[11.77,54.506538],[11.76,54.503125],[11.74,54.515294],[11.719999,54.517433]]}},{"type":"Feature","properties":{"depth":10,"source":"DDM 2024 coarse contour","resolution":"0.005 degree sampled grid","scope":"denmark","tileSource":"contours-denmark-coarse.geojson"},"geometry":{"type":"LineString","coordinates":[[12.146176,54.46],[12.14,54.456667],[12.133,54.46],[12.14,54.463171],[12.146176,54.46]]}},{"type":"Feature","properties":{"depth":15,"source":"DDM 2024 coarse contour","resolution":"0.005 degree sampled grid","scope":"denmark","tileSource":"contours-denmark-coarse.geojson"},"geometry":{"type":"LineString","coordinates":[[11.719999,54.369953],[11.72,54.369954],[11.725,54.364953],[11.735,54.364953],[11.74,54.369955],[11.755,54.369957],[11.76,54.364955],[11.765,54.369958],[11.95,54.369988],[11.955,54.374989],[11.99,54.37999],[11.995,54.384991],[12.01,54.384985],[12.03,54.394984],[12.05,54.394979],[12.07,54.404978],[12.105,54.409971],[12.14,54.43998],[12.145,54.439977],[12.15,54.448679],[12.11,54.4482],[12.1055,54.45],[12.111667,54.46],[12.025,54.485],[11.93,54.478485],[11.915,54.48],[11.92,54.486667],[11.875,54.482885],[11.795,54.488571],[11.735,54.493966],[11.719999,54.49853]]}},{"type":"Feature","properties":{"depth":15,"source":"DDM 2024 coarse contour","resolution":"0.005 degree sampled grid","scope":"denmark","tileSource":"contours-denmark-coarse.geojson"},"geometry":{"type":"LineString","coordinates":[[12.195001,54.775667],[12.175,54.765],[12.171,54.755],[12.176852,54.75],[12.17,54.739375],[12.165,54.73587],[12.16,54.74],[12.156429,54.735],[12.167143,54.72],[12.15375,54.72],[12.157381,54.715],[12.15,54.7055],[12.145,54.7075],[12.14,54.696],[12.134167,54.695],[12.137308,54.685],[12.13,54.675],[12.125,54.678],[12.125,54.673125],[12.13,54.675],[12.133214,54.67],[12.12125,54.665],[12.132353,54.65],[12.125455,54.645],[12.127778,54.64],[12.136739,54.635],[12.1275,54.63],[12.132969,54.625],[12.132361,54.61],[12.118,54.605],[12.113684,54.595],[12.101429,54.585],[12.099,54.56],[12.11,54.55],[12.113,54.535],[12.163333,54.505],[12.180455,54.475],[12.195001,54.483874]]}},{"type":"Feature","properties":{"depth":20,"source":"DDM 2024 coarse contour","resolution":"0.005 degree sampled grid","scope":"denmark","tileSource":"contours-denmark-coarse.geojson"},"geometry":{"type":"LineString","coordinates":[[11.719999,54.369977],[11.72,54.369978],[11.725,54.364978],[11.735,54.364978],[11.74,54.369979],[11.755,54.369981],[11.76,54.364979],[11.765,54.369983],[11.851667,54.37],[11.85,54.375],[11.87,54.389286],[11.9,54.394286],[11.9075,54.4],[11.8925,54.405],[11.8875,54.415],[11.995,54.424375],[12.061667,54.44],[12.06,54.4475],[12,54.46],[11.94,54.466667],[11.92,54.462286],[11.895,54.4675],[11.86,54.462941],[11.85,54.467],[11.84,54.4625],[11.81,54.470526],[11.775,54.468929],[11.76,54.475833],[11.719999,54.483083]]}},{"type":"Feature","properties":{"depth":20,"source":"DDM 2024 coarse contour","resolution":"0.005 degree sampled grid","scope":"denmark","tileSource":"contours-denmark-coarse.geojson"},"geometry":{"type":"LineString","coordinates":[[12.12,54.423571],[12.105,54.417857],[12.098333,54.41],[12.115,54.414994],[12.12,54.423571]]}}]}