{"type":"FeatureCollection","name":"DDM contour tile r02_c15","bbox":[14.6,55.31,15.075,55.785],"metadata":{"schema":"waternav-ddm-contour-tile-v1","version":"v45.4","tileId":"r02_c15","source":"Danmarks Dybdemodel 2024 ddm_50m.dybde.tiff via bundled DDM contour GeoJSON files"},"features":[{"type":"Feature","properties":{"depth":1,"source":"DDM 2024 coarse contour","resolution":"0.005 degree sampled grid","scope":"denmark","tileSource":"contours-denmark-coarse.geojson"},"geometry":{"type":"LineString","coordinates":[[15.075001,55.680298],[15.07,55.680295],[15.065,55.685297],[15.05,55.685287],[15.045,55.690286],[15.04,55.690279],[15.03,55.680276],[15.025,55.68026],[15.015,55.670284],[15.01,55.670299],[14.985,55.650321],[14.98,55.650324],[14.97,55.640327],[14.955,55.635342],[14.93,55.615352],[14.925,55.615353],[14.915,55.605355],[14.9,55.600356],[14.875,55.580353],[14.87,55.580352],[14.86,55.570348],[14.855,55.570348],[14.845,55.560343],[14.84,55.560342],[14.83,55.550339],[14.815,55.545335],[14.805,55.535336],[14.8,55.535336],[14.79,55.525304],[14.785,55.525326],[14.775,55.515305],[14.77,55.515308],[14.76,55.505299],[14.755,55.505302],[14.73,55.485311],[14.715,55.480318],[14.705,55.470326],[14.7,55.470328],[14.69,55.460316],[14.685,55.460315],[14.66,55.440321],[14.655,55.440321],[14.645,55.430323],[14.64,55.430324],[14.63,55.420326],[14.625,55.42033],[14.615,55.410334],[14.61,55.410342],[14.599999,55.402344]]}},{"type":"Feature","properties":{"depth":2,"source":"DDM 2024 coarse contour","resolution":"0.005 degree sampled grid","scope":"denmark","tileSource":"contours-denmark-coarse.geojson"},"geometry":{"type":"LineString","coordinates":[[15.075001,55.680293],[15.07,55.680291],[15.065,55.685293],[15.05,55.685282],[15.045,55.690281],[15.04,55.690274],[15.03,55.680272],[15.025,55.680255],[15.015,55.670279],[15.01,55.670294],[14.985,55.650317],[14.98,55.650319],[14.97,55.640322],[14.955,55.635338],[14.93,55.615348],[14.925,55.615348],[14.915,55.60535],[14.9,55.600351],[14.875,55.580349],[14.87,55.580347],[14.86,55.570343],[14.855,55.570343],[14.845,55.560339],[14.84,55.560338],[14.83,55.550334],[14.815,55.545331],[14.805,55.535332],[14.8,55.535331],[14.79,55.5253],[14.785,55.525321],[14.775,55.5153],[14.77,55.515303],[14.76,55.505294],[14.755,55.505297],[14.73,55.485307],[14.715,55.480313],[14.705,55.470321],[14.7,55.470323],[14.69,55.460311],[14.685,55.460311],[14.66,55.440316],[14.655,55.440316],[14.645,55.430318],[14.64,55.430319],[14.63,55.420321],[14.625,55.420325],[14.615,55.410329],[14.61,55.410337],[14.599999,55.402339]]}},{"type":"Feature","properties":{"depth":3,"source":"DDM 2024 coarse contour","resolution":"0.005 degree sampled grid","scope":"denmark","tileSource":"contours-denmark-coarse.geojson"},"geometry":{"type":"LineString","coordinates":[[15.075001,55.680289],[15.07,55.680286],[15.065,55.685288],[15.05,55.685278],[15.045,55.690276],[15.04,55.69027],[15.03,55.680267],[15.025,55.68025],[15.015,55.670274],[15.01,55.670289],[14.985,55.650312],[14.98,55.650315],[14.97,55.640318],[14.955,55.635333],[14.93,55.615343],[14.925,55.615343],[14.915,55.605346],[14.9,55.600346],[14.875,55.580344],[14.87,55.580343],[14.86,55.570339],[14.855,55.570339],[14.845,55.560334],[14.84,55.560333],[14.83,55.55033],[14.815,55.545326],[14.805,55.535327],[14.8,55.535326],[14.79,55.525295],[14.785,55.525316],[14.775,55.515295],[14.77,55.515298],[14.76,55.50529],[14.755,55.505293],[14.73,55.485302],[14.715,55.480309],[14.705,55.470316],[14.7,55.470318],[14.69,55.460306],[14.685,55.460306],[14.66,55.440312],[14.655,55.440311],[14.645,55.430314],[14.64,55.430315],[14.63,55.420316],[14.625,55.42032],[14.615,55.410324],[14.61,55.410333],[14.599999,55.402335]]}},{"type":"Feature","properties":{"depth":5,"source":"DDM 2024 coarse contour","resolution":"0.005 degree sampled grid","scope":"denmark","tileSource":"contours-denmark-coarse.geojson"},"geometry":{"type":"LineString","coordinates":[[15.075001,55.680279],[15.07,55.680277],[15.065,55.685278],[15.05,55.685268],[15.045,55.690267],[15.04,55.69026],[15.03,55.680257],[15.025,55.680241],[15.015,55.670265],[15.01,55.67028],[14.985,55.650303],[14.98,55.650305],[14.97,55.640308],[14.955,55.635324],[14.93,55.615334],[14.925,55.615334],[14.915,55.605336],[14.9,55.600337],[14.875,55.580335],[14.87,55.580333],[14.86,55.570329],[14.855,55.570329],[14.845,55.560325],[14.84,55.560324],[14.83,55.55032],[14.815,55.545317],[14.805,55.535318],[14.8,55.535317],[14.79,55.525285],[14.785,55.525307],[14.775,55.515286],[14.77,55.515289],[14.76,55.50528],[14.755,55.505283],[14.73,55.485293],[14.715,55.480299],[14.705,55.470307],[14.7,55.470309],[14.69,55.460297],[14.685,55.460297],[14.66,55.440302],[14.655,55.440302],[14.645,55.430304],[14.64,55.430305],[14.63,55.420307],[14.625,55.420311],[14.615,55.410315],[14.61,55.410323],[14.599999,55.402325]]}},{"type":"Feature","properties":{"depth":10,"source":"DDM 2024 coarse contour","resolution":"0.005 degree sampled grid","scope":"denmark","tileSource":"contours-denmark-coarse.geojson"},"geometry":{"type":"LineString","coordinates":[[15.075001,55.67963],[15.07,55.680253],[15.065,55.685255],[15.04,55.690237],[14.97,55.640285],[14.955,55.6353],[14.915,55.605313],[14.9,55.600314],[14.83,55.550297],[14.815,55.545293],[14.73,55.485269],[14.715,55.480276],[14.599999,55.400687]]}},{"type":"Feature","properties":{"depth":15,"source":"DDM 2024 coarse contour","resolution":"0.005 degree sampled grid","scope":"denmark","tileSource":"contours-denmark-coarse.geojson"},"geometry":{"type":"LineString","coordinates":[[15.075001,55.679607],[15.07,55.68023],[15.065,55.685231],[15.04,55.690213],[14.97,55.640262],[14.955,55.635277],[14.915,55.60529],[14.9,55.600291],[14.83,55.550274],[14.815,55.54527],[14.73,55.485246],[14.715,55.480252],[14.599999,55.400664]]}},{"type":"Feature","properties":{"depth":20,"source":"DDM 2024 coarse contour","resolution":"0.005 degree sampled grid","scope":"denmark","tileSource":"contours-denmark-coarse.geojson"},"geometry":{"type":"LineString","coordinates":[[15.075001,55.679583],[15.07,55.680206],[15.065,55.685208],[15.04,55.690189],[14.97,55.640238],[14.955,55.635254],[14.915,55.605267],[14.9,55.600268],[14.83,55.55025],[14.815,55.545247],[14.73,55.485222],[14.715,55.480229],[14.599999,55.40064]]}},{"type":"Feature","properties":{"depth":20,"source":"DDM 2024 coarse contour","resolution":"0.005 degree sampled grid","scope":"denmark","tileSource":"contours-denmark-coarse.geojson"},"geometry":{"type":"LineString","coordinates":[[14.735,55.31],[14.735001,55.309999]]}},{"type":"Feature","properties":{"depth":20,"source":"DDM 2024 coarse contour","resolution":"0.005 degree sampled grid","scope":"denmark","tileSource":"contours-denmark-coarse.geojson"},"geometry":{"type":"LineString","coordinates":[[14.729558,55.309999],[14.73,55.310741],[14.735,55.31]]}},{"type":"Feature","properties":{"depth":30,"source":"DDM 2024 coarse contour","resolution":"0.005 degree sampled grid","scope":"denmark","tileSource":"contours-denmark-coarse.geojson"},"geometry":{"type":"LineString","coordinates":[[15.075001,55.679536],[15.07,55.680159],[15.065,55.685161],[15.04,55.690142],[14.97,55.640192],[14.955,55.635207],[14.915,55.60522],[14.9,55.600221],[14.83,55.550204],[14.815,55.5452],[14.73,55.485175],[14.715,55.480182],[14.599999,55.400594]]}},{"type":"Feature","properties":{"depth":30,"source":"DDM 2024 coarse contour","resolution":"0.005 degree sampled grid","scope":"denmark","tileSource":"contours-denmark-coarse.geojson"},"geometry":{"type":"LineString","coordinates":[[14.656143,55.309999],[14.655,55.317826],[14.675,55.311404],[14.69,55.311415],[14.695,55.315676],[14.69375,55.31],[14.693755,55.309999]]}},{"type":"Feature","properties":{"depth":30,"source":"DDM 2024 coarse contour","resolution":"0.005 degree sampled grid","scope":"denmark","tileSource":"contours-denmark-coarse.geojson"},"geometry":{"type":"LineString","coordinates":[[14.717974,55.309999],[14.74,55.318437],[14.766667,55.315],[14.767605,55.309999]]}},{"type":"Feature","properties":{"depth":30,"source":"DDM 2024 coarse contour","resolution":"0.005 degree sampled grid","scope":"denmark","tileSource":"contours-denmark-coarse.geojson"},"geometry":{"type":"LineString","coordinates":[[14.685185,55.375],[14.684432,55.355],[14.675,55.353186],[14.67,55.377692],[14.685185,55.375]]}},{"type":"Feature","properties":{"depth":50,"source":"DDM 2024 coarse contour","resolution":"0.005 degree sampled grid","scope":"denmark","tileSource":"contours-denmark-coarse.geojson"},"geometry":{"type":"LineString","coordinates":[[15.075001,55.679442],[15.07,55.680065],[15.065,55.685067],[15.04,55.690048],[14.97,55.640098],[14.955,55.635114],[14.915,55.605127],[14.9,55.600128],[14.83,55.55011],[14.815,55.545107],[14.73,55.485082],[14.715,55.480088],[14.599999,55.403378]]}},{"type":"Feature","properties":{"depth":50,"source":"DDM 2024 coarse contour","resolution":"0.005 degree sampled grid","scope":"denmark","tileSource":"contours-denmark-coarse.geojson"},"geometry":{"type":"LineString","coordinates":[[14.614211,55.309999],[14.63,55.334655],[14.64,55.341667],[14.659167,55.345],[14.659481,55.385],[14.665,55.390552],[14.68,55.39],[14.705,55.375921],[14.719118,55.375],[14.735645,55.36],[14.736944,55.355],[14.73,55.351977],[14.698125,55.355],[14.710455,55.34],[14.705,55.339231],[14.706136,55.33],[14.72,55.325048],[14.75,55.330777],[14.78,55.327589],[14.835511,55.309999]]}},{"type":"Feature","properties":{"depth":50,"source":"DDM 2024 coarse contour","resolution":"0.005 degree sampled grid","scope":"denmark","tileSource":"contours-denmark-coarse.geojson"},"geometry":{"type":"LineString","coordinates":[[14.627059,55.355],[14.625,55.338333],[14.613438,55.35],[14.627059,55.355]]}},{"type":"Feature","properties":{"depth":50,"source":"DDM 2024 coarse contour","resolution":"0.005 degree sampled grid","scope":"denmark","tileSource":"contours-denmark-coarse.geojson"},"geometry":{"type":"LineString","coordinates":[[14.970556,55.41],[14.98759,55.405],[14.986667,55.4],[14.96,55.396631],[14.955964,55.4],[14.970556,55.41]]}},{"type":"Feature","properties":{"depth":50,"source":"DDM 2024 coarse contour","resolution":"0.005 degree sampled grid","scope":"denmark","tileSource":"contours-denmark-coarse.geojson"},"geometry":{"type":"LineString","coordinates":[[14.880455,55.445],[14.9,55.441758],[14.921458,55.43],[14.915,55.424273],[14.895,55.421585],[14.880455,55.445]]}}]}