{"type":"FeatureCollection","name":"DDM contour tile r04_c07","bbox":[10.76,56.27,11.235,56.745],"metadata":{"schema":"waternav-ddm-contour-tile-v1","version":"v45.4","tileId":"r04_c07","source":"Danmarks Dybdemodel 2024 ddm_50m.dybde.tiff via bundled DDM contour GeoJSON files"},"features":[{"type":"Feature","properties":{"depth":1,"source":"DDM 2024 coarse contour","resolution":"0.005 degree sampled grid","scope":"denmark","tileSource":"contours-denmark-coarse.geojson"},"geometry":{"type":"LineString","coordinates":[[10.759999,56.540677],[10.775,56.5445],[10.8,56.539996],[10.806154,56.535],[10.835,56.534985],[10.85,56.524997],[10.855,56.524986],[10.869992,56.51],[10.869995,56.5],[10.874976,56.495],[10.875,56.489982],[10.9,56.484971],[10.910761,56.475],[10.925,56.474969],[10.94,56.460424],[10.95,56.459983],[10.954992,56.455],[10.959973,56.44],[10.955,56.435015],[10.940769,56.435],[10.929999,56.425],[10.934976,56.42],[10.929968,56.415],[10.929988,56.41],[10.925,56.40371],[10.924993,56.395],[10.916,56.38],[10.915,56.344419],[10.86,56.295012],[10.85,56.295012],[10.845,56.290034],[10.84,56.290017],[10.822477,56.269999]]}},{"type":"Feature","properties":{"depth":2,"source":"DDM 2024 coarse contour","resolution":"0.005 degree sampled grid","scope":"denmark","tileSource":"contours-denmark-coarse.geojson"},"geometry":{"type":"LineString","coordinates":[[10.759999,56.542932],[10.77,56.545071],[10.785,56.545417],[10.81,56.535],[10.835,56.53499],[10.855,56.524991],[10.869997,56.51],[10.87,56.5],[10.874981,56.495],[10.875,56.489987],[10.9,56.484976],[10.911848,56.475],[10.925,56.474974],[10.94,56.461271],[10.95,56.459988],[10.954997,56.455],[10.959978,56.44],[10.955,56.43501],[10.942051,56.435],[10.930727,56.425],[10.934981,56.42],[10.929973,56.415],[10.9185,56.38],[10.915,56.343256],[10.89,56.320013],[10.885,56.3197],[10.86,56.295007],[10.85,56.295007],[10.845,56.290029],[10.84,56.290012],[10.825204,56.275],[10.823078,56.269999]]}},{"type":"Feature","properties":{"depth":3,"source":"DDM 2024 coarse contour","resolution":"0.005 degree sampled grid","scope":"denmark","tileSource":"contours-denmark-coarse.geojson"},"geometry":{"type":"LineString","coordinates":[[10.759999,56.544375],[10.76,56.544375],[10.785,56.546111],[10.814545,56.535],[10.835,56.534995],[10.86,56.52413],[10.870385,56.51],[10.875,56.489992],[10.9,56.484981],[10.912935,56.475],[10.925,56.474979],[10.94,56.462119],[10.95,56.459993],[10.955,56.455214],[10.955417,56.45],[10.960842,56.445],[10.959983,56.44],[10.955,56.435005],[10.943333,56.435],[10.931636,56.425],[10.935702,56.415],[10.929978,56.415],[10.925,56.400484],[10.926154,56.395],[10.920741,56.38],[10.915,56.342093],[10.875,56.310003],[10.865,56.298],[10.84,56.290007],[10.824846,56.269999]]}},{"type":"Feature","properties":{"depth":5,"source":"DDM 2024 coarse contour","resolution":"0.005 degree sampled grid","scope":"denmark","tileSource":"contours-denmark-coarse.geojson"},"geometry":{"type":"LineString","coordinates":[[10.759999,56.544552],[10.775,56.547635],[10.79,56.546111],[10.805,56.5393],[10.845,56.536304],[10.855,56.531364],[10.87,56.534333],[10.873421,56.53],[10.864875,56.52],[10.872949,56.51],[10.875,56.491667],[10.885,56.48999],[10.891875,56.485],[10.9,56.484991],[10.915385,56.475],[10.925,56.474989],[10.955,56.456643],[10.961895,56.445],[10.955,56.434107],[10.945,56.433793],[10.933455,56.425],[10.937456,56.415],[10.927576,56.4],[10.93,56.395],[10.924444,56.38],[10.928333,56.375],[10.925,56.37375],[10.919327,56.345],[10.895,56.325015],[10.893,56.32],[10.875,56.308088],[10.867955,56.3],[10.87,56.294493],[10.852963,56.295],[10.835128,56.285],[10.828012,56.269999]]}},{"type":"Feature","properties":{"depth":5,"source":"DDM 2024 coarse contour","resolution":"0.005 degree sampled grid","scope":"denmark","tileSource":"contours-denmark-coarse.geojson"},"geometry":{"type":"LineString","coordinates":[[10.940893,56.375],[10.945,56.365],[10.934375,56.37],[10.936875,56.375],[10.940893,56.375]]}},{"type":"Feature","properties":{"depth":10,"source":"DDM 2024 coarse contour","resolution":"0.005 degree sampled grid","scope":"denmark","tileSource":"contours-denmark-coarse.geojson"},"geometry":{"type":"LineString","coordinates":[[10.759999,56.687083],[10.775,56.685833],[10.76,56.675],[10.759999,56.675001]]}},{"type":"Feature","properties":{"depth":10,"source":"DDM 2024 coarse contour","resolution":"0.005 degree sampled grid","scope":"denmark","tileSource":"contours-denmark-coarse.geojson"},"geometry":{"type":"LineString","coordinates":[[10.759999,56.650123],[10.77,56.651111],[10.785,56.639444],[10.796,56.65],[10.785,56.67],[10.8,56.6775],[10.855,56.678182],[10.935,56.661087],[10.93,56.655909],[10.917353,56.655],[10.94,56.637292],[10.95375,56.635],[10.957778,56.63],[10.945,56.619167],[10.937692,56.605],[10.938824,56.585],[10.9466,56.565],[10.945,56.549167],[10.94,56.547143],[10.93,56.558],[10.9225,56.55],[10.925,56.545],[10.91925,56.545],[10.925,56.545],[10.924118,56.53],[10.941364,56.51],[10.935,56.511667],[10.93,56.50125],[10.91,56.495],[10.962222,56.46],[10.963302,56.44],[10.949444,56.425],[10.958125,56.415],[10.944545,56.405],[10.955,56.396875],[10.962391,56.4],[10.9475,56.385],[10.955,56.369545],[10.970909,56.365],[10.973333,56.35],[10.967778,56.345],[10.97125,56.34],[10.96,56.3292],[10.955,56.334167],[10.948125,56.33],[10.95,56.325],[10.93,56.324211],[10.903182,56.315],[10.87,56.29087],[10.845714,56.285],[10.841563,56.27],[10.841561,56.269999]]}},{"type":"Feature","properties":{"depth":10,"source":"DDM 2024 coarse contour","resolution":"0.005 degree sampled grid","scope":"denmark","tileSource":"contours-denmark-coarse.geojson"},"geometry":{"type":"LineString","coordinates":[[10.759999,56.554085],[10.765625,56.555],[10.759999,56.55734]]}},{"type":"Feature","properties":{"depth":10,"source":"DDM 2024 coarse contour","resolution":"0.005 degree sampled grid","scope":"denmark","tileSource":"contours-denmark-coarse.geojson"},"geometry":{"type":"LineString","coordinates":[[10.915,56.635588],[10.90725,56.635],[10.915,56.629167],[10.92,56.635],[10.915,56.635588]]}},{"type":"Feature","properties":{"depth":10,"source":"DDM 2024 coarse contour","resolution":"0.005 degree sampled grid","scope":"denmark","tileSource":"contours-denmark-coarse.geojson"},"geometry":{"type":"LineString","coordinates":[[10.895,56.646],[10.892857,56.64],[10.905,56.639091],[10.895,56.646]]}},{"type":"Feature","properties":{"depth":10,"source":"DDM 2024 coarse contour","resolution":"0.005 degree sampled grid","scope":"denmark","tileSource":"contours-denmark-coarse.geojson"},"geometry":{"type":"LineString","coordinates":[[10.919722,56.7],[10.915,56.694444],[10.905,56.7],[10.915,56.70425],[10.919722,56.7]]}},{"type":"Feature","properties":{"depth":10,"source":"DDM 2024 coarse contour","resolution":"0.005 degree sampled grid","scope":"denmark","tileSource":"contours-denmark-coarse.geojson"},"geometry":{"type":"LineString","coordinates":[[10.894375,56.745],[10.954286,56.72],[10.955,56.715],[10.949286,56.715],[10.955,56.715],[10.951739,56.71],[10.955,56.7],[10.935,56.700833],[10.91,56.715],[10.9,56.711842],[10.895714,56.715],[10.9,56.71875],[10.91,56.715],[10.915833,56.72],[10.895,56.730769],[10.88,56.731667],[10.893,56.715],[10.88,56.705],[10.87,56.705],[10.877,56.71],[10.865,56.71625],[10.86,56.7125],[10.855,56.7205],[10.845,56.716667],[10.835,56.71875],[10.83,56.725],[10.84,56.736429],[10.864002,56.745001]]}},{"type":"Feature","properties":{"depth":10,"source":"DDM 2024 coarse contour","resolution":"0.005 degree sampled grid","scope":"denmark","tileSource":"contours-denmark-coarse.geojson"},"geometry":{"type":"LineString","coordinates":[[10.894374,56.745001],[10.894375,56.745]]}},{"type":"Feature","properties":{"depth":10,"source":"DDM 2024 coarse contour","resolution":"0.005 degree sampled grid","scope":"denmark","tileSource":"contours-denmark-coarse.geojson"},"geometry":{"type":"LineString","coordinates":[[10.965417,56.705],[10.973158,56.7],[10.97,56.697],[10.965417,56.705]]}},{"type":"Feature","properties":{"depth":10,"source":"DDM 2024 coarse contour","resolution":"0.005 degree sampled grid","scope":"denmark","tileSource":"contours-denmark-coarse.geojson"},"geometry":{"type":"LineString","coordinates":[[11.025,56.745001],[11.025,56.745],[11.024999,56.745001]]}},{"type":"Feature","properties":{"depth":15,"source":"DDM 2024 coarse contour","resolution":"0.005 degree sampled grid","scope":"denmark","tileSource":"contours-denmark-coarse.geojson"},"geometry":{"type":"LineString","coordinates":[[11.191766,56.745001],[11.215,56.721667],[11.2275,56.705],[11.225833,56.7],[11.235001,56.696298]]}},{"type":"Feature","properties":{"depth":15,"source":"DDM 2024 coarse contour","resolution":"0.005 degree sampled grid","scope":"denmark","tileSource":"contours-denmark-coarse.geojson"},"geometry":{"type":"LineString","coordinates":[[11.235001,56.68375],[11.23,56.68625],[11.22125,56.7],[11.205556,56.71],[11.1945,56.73],[11.176856,56.745001]]}},{"type":"Feature","properties":{"depth":15,"source":"DDM 2024 coarse contour","resolution":"0.005 degree sampled grid","scope":"denmark","tileSource":"contours-denmark-coarse.geojson"},"geometry":{"type":"LineString","coordinates":[[11.148347,56.745001],[11.155,56.730833],[11.155,56.7125],[11.14,56.719444],[11.135,56.715],[11.139444,56.72],[11.13,56.73],[11.115,56.730833],[11.105,56.74],[11.098636,56.74],[11.096818,56.745001]]}},{"type":"Feature","properties":{"depth":15,"source":"DDM 2024 coarse contour","resolution":"0.005 degree sampled grid","scope":"denmark","tileSource":"contours-denmark-coarse.geojson"},"geometry":{"type":"LineString","coordinates":[[11.084542,56.745001],[11.082083,56.74],[11.1155,56.67],[11.1125,56.645],[11.120357,56.64],[11.11125,56.635],[11.115,56.62],[11.1,56.625],[11.095556,56.62],[11.11,56.5975],[11.12,56.606667],[11.127,56.605],[11.12,56.6],[11.123571,56.59],[11.12,56.586875],[11.11375,56.59],[11.115,56.575],[11.1,56.565833],[11.09,56.568571],[11.08,56.5575],[11.048333,56.565],[11.04625,56.56],[11.05625,56.555],[11.045,56.534375],[11.03,56.536786],[11.02,56.523333],[11.015,56.5275],[11,56.515714],[10.995,56.52375],[10.98,56.525],[10.97,56.535],[10.9675,56.53],[10.975,56.522692],[10.98,56.525],[10.9785,56.52],[10.9875,56.505],[10.983333,56.5],[10.986,56.485],[10.98,56.478571],[10.96,56.48],[10.959231,56.475],[10.97381,56.46],[10.976667,56.44],[10.988077,56.425],[10.988182,56.41],[11.006364,56.405],[11,56.395],[11.002,56.38],[10.994545,56.345],[10.978,56.325],[10.978333,56.32],[10.965,56.31125],[10.955,56.31],[10.9575,56.315],[10.948333,56.315],[10.89,56.2925],[10.86,56.274048],[10.855729,56.269999]]}},{"type":"Feature","properties":{"depth":15,"source":"DDM 2024 coarse contour","resolution":"0.005 degree sampled grid","scope":"denmark","tileSource":"contours-denmark-coarse.geojson"},"geometry":{"type":"LineString","coordinates":[[11.219139,56.269999],[11.22,56.271818],[11.235001,56.281567]]}},{"type":"Feature","properties":{"depth":15,"source":"DDM 2024 coarse contour","resolution":"0.005 degree sampled grid","scope":"denmark","tileSource":"contours-denmark-coarse.geojson"},"geometry":{"type":"LineString","coordinates":[[11.045,56.581],[11.0375,56.575],[11.045,56.571429],[11.045,56.581]]}},{"type":"Feature","properties":{"depth":15,"source":"DDM 2024 coarse contour","resolution":"0.005 degree sampled grid","scope":"denmark","tileSource":"contours-denmark-coarse.geojson"},"geometry":{"type":"LineString","coordinates":[[11.085,56.68625],[11.079,56.675],[11.08,56.6575],[11.0725,56.66],[11.095,56.63],[11.088889,56.63],[11.1,56.625],[11.10875,56.635],[11.094167,56.65],[11.092,56.675],[11.085,56.68625]]}},{"type":"Feature","properties":{"depth":15,"source":"DDM 2024 coarse contour","resolution":"0.005 degree sampled grid","scope":"denmark","tileSource":"contours-denmark-coarse.geojson"},"geometry":{"type":"LineString","coordinates":[[11.186,56.67],[11.185,56.6575],[11.164167,56.67],[11.18,56.675],[11.186,56.67]]}},{"type":"Feature","properties":{"depth":15,"source":"DDM 2024 coarse contour","resolution":"0.005 degree sampled grid","scope":"denmark","tileSource":"contours-denmark-coarse.geojson"},"geometry":{"type":"LineString","coordinates":[[11.13875,56.7],[11.1375,56.695],[11.13,56.695],[11.125,56.705],[11.13875,56.7]]}},{"type":"Feature","properties":{"depth":15,"source":"DDM 2024 coarse contour","resolution":"0.005 degree sampled grid","scope":"denmark","tileSource":"contours-denmark-coarse.geojson"},"geometry":{"type":"LineString","coordinates":[[11.145,56.715],[11.142,56.71],[11.145,56.705],[11.135,56.715],[11.14,56.711],[11.145,56.715]]}},{"type":"Feature","properties":{"depth":20,"source":"DDM 2024 coarse contour","resolution":"0.005 degree sampled grid","scope":"denmark","tileSource":"contours-denmark-coarse.geojson"},"geometry":{"type":"LineString","coordinates":[[11.235001,56.419173],[11.216667,56.415],[11.235001,56.41142]]}},{"type":"Feature","properties":{"depth":20,"source":"DDM 2024 coarse contour","resolution":"0.005 degree sampled grid","scope":"denmark","tileSource":"contours-denmark-coarse.geojson"},"geometry":{"type":"LineString","coordinates":[[11.235001,56.381048],[11.234,56.38],[11.235001,56.379411]]}},{"type":"Feature","properties":{"depth":20,"source":"DDM 2024 coarse contour","resolution":"0.005 degree sampled grid","scope":"denmark","tileSource":"contours-denmark-coarse.geojson"},"geometry":{"type":"LineString","coordinates":[[11.235001,56.36587],[11.234286,56.365],[11.175,56.35],[11.16,56.333438],[11.15,56.333571],[11.143077,56.34],[11.158125,56.35],[11.16,56.36],[11.12,56.3525],[11.1075,56.345],[11.105,56.337778],[11.09,56.339286],[11.085,56.351667],[11.095,56.35],[11.103333,56.36],[11.085,56.365],[11.0925,56.37],[11.085,56.3775],[11.065,56.345],[11.071818,56.34],[11.07,56.333182],[11.05,56.328125],[11.04625,56.33],[11.04875,56.34],[11.038333,56.345],[11.035,56.335],[11.041667,56.325],[11.0375,56.32],[11.05,56.315],[11.043333,56.31],[11.0425,56.3],[11.03,56.3],[11.02,56.29],[11.015,56.29625],[10.99,56.285],[10.973332,56.269999]]}},{"type":"Feature","properties":{"depth":20,"source":"DDM 2024 coarse contour","resolution":"0.005 degree sampled grid","scope":"denmark","tileSource":"contours-denmark-coarse.geojson"},"geometry":{"type":"LineString","coordinates":[[11.160001,56.269999],[11.16,56.27],[11.160004,56.269999]]}},{"type":"Feature","properties":{"depth":20,"source":"DDM 2024 coarse contour","resolution":"0.005 degree sampled grid","scope":"denmark","tileSource":"contours-denmark-coarse.geojson"},"geometry":{"type":"LineString","coordinates":[[11.184999,56.269999],[11.185,56.27],[11.177143,56.285],[11.185,56.285],[11.188571,56.29],[11.177,56.295],[11.185,56.295909],[11.195,56.29],[11.23,56.305385],[11.235001,56.302301]]}},{"type":"Feature","properties":{"depth":20,"source":"DDM 2024 coarse contour","resolution":"0.005 degree sampled grid","scope":"denmark","tileSource":"contours-denmark-coarse.geojson"},"geometry":{"type":"LineString","coordinates":[[11.03,56.3125],[11.015,56.305],[11.03,56.3],[11.03,56.3125]]}}]}