{"type":"FeatureCollection","name":"DDM contour tile r05_c06","bbox":[10.28,56.75,10.755,57.225],"metadata":{"schema":"waternav-ddm-contour-tile-v1","version":"v45.4","tileId":"r05_c06","source":"Danmarks Dybdemodel 2024 ddm_50m.dybde.tiff via bundled DDM contour GeoJSON files"},"features":[{"type":"Feature","properties":{"depth":1,"source":"DDM 2024 coarse contour","resolution":"0.005 degree sampled grid","scope":"denmark","tileSource":"contours-denmark-coarse.geojson"},"geometry":{"type":"LineString","coordinates":[[10.551,57.225001],[10.551111,57.22],[10.545,57.214615],[10.495,57.199298],[10.475,57.188235],[10.455,57.174423],[10.43,57.149302],[10.429982,57.145],[10.42375,57.14],[10.396944,57.09],[10.390208,57.07],[10.375,57.045],[10.374994,57.04],[10.347812,57],[10.346333,56.98],[10.35,56.975],[10.345,56.976667],[10.3355,56.965],[10.33,56.965],[10.323,56.96],[10.325,56.943333],[10.32,56.951923],[10.313889,56.945],[10.3175,56.94],[10.3,56.938548],[10.29,56.942778],[10.279999,56.936471]]}},{"type":"Feature","properties":{"depth":1,"source":"DDM 2024 coarse contour","resolution":"0.005 degree sampled grid","scope":"denmark","tileSource":"contours-denmark-coarse.geojson"},"geometry":{"type":"LineString","coordinates":[[10.279999,56.933676],[10.286471,56.93],[10.280313,56.925],[10.2825,56.92],[10.279999,56.917631]]}},{"type":"Feature","properties":{"depth":1,"source":"DDM 2024 coarse contour","resolution":"0.005 degree sampled grid","scope":"denmark","tileSource":"contours-denmark-coarse.geojson"},"geometry":{"type":"LineString","coordinates":[[10.279999,56.808999],[10.28499,56.805],[10.281724,56.795],[10.295,56.779375],[10.302857,56.76],[10.319,56.75],[10.319,56.749999]]}},{"type":"Feature","properties":{"depth":1,"source":"DDM 2024 coarse contour","resolution":"0.005 degree sampled grid","scope":"denmark","tileSource":"contours-denmark-coarse.geojson"},"geometry":{"type":"LineString","coordinates":[[10.315,56.990006],[10.31,56.989412],[10.305455,56.975],[10.295952,56.96],[10.3,56.955278],[10.312,56.955],[10.315,56.9505],[10.31925,56.96],[10.312857,56.965],[10.315,56.966667],[10.32,56.960682],[10.329868,56.98],[10.325,56.989231],[10.315,56.990006]]}},{"type":"Feature","properties":{"depth":1,"source":"DDM 2024 coarse contour","resolution":"0.005 degree sampled grid","scope":"denmark","tileSource":"contours-denmark-coarse.geojson"},"geometry":{"type":"LineString","coordinates":[[10.279999,56.985078],[10.3,56.985182],[10.305,56.989965],[10.309863,56.99],[10.279999,56.990001]]}},{"type":"Feature","properties":{"depth":2,"source":"DDM 2024 coarse contour","resolution":"0.005 degree sampled grid","scope":"denmark","tileSource":"contours-denmark-coarse.geojson"},"geometry":{"type":"LineString","coordinates":[[10.553259,57.225001],[10.552963,57.22],[10.545,57.210769],[10.495,57.198421],[10.485,57.189792],[10.455,57.173462],[10.435,57.149375],[10.43,57.14814],[10.426667,57.135],[10.412885,57.115],[10.392292,57.07],[10.351,57],[10.348077,56.985],[10.355,56.975],[10.345,56.974487],[10.340679,56.97],[10.3425,56.965],[10.324091,56.955],[10.335,56.945],[10.335,56.94],[10.305,56.93625],[10.29,56.94],[10.281,56.935],[10.289412,56.93],[10.283438,56.925],[10.286429,56.92],[10.28,56.913214],[10.279999,56.913212]]}},{"type":"Feature","properties":{"depth":2,"source":"DDM 2024 coarse contour","resolution":"0.005 degree sampled grid","scope":"denmark","tileSource":"contours-denmark-coarse.geojson"},"geometry":{"type":"LineString","coordinates":[[10.279999,56.816789],[10.286667,56.8],[10.283448,56.795],[10.291563,56.79],[10.310714,56.76],[10.32,56.754444],[10.322986,56.749999]]}},{"type":"Feature","properties":{"depth":2,"source":"DDM 2024 coarse contour","resolution":"0.005 degree sampled grid","scope":"denmark","tileSource":"contours-denmark-coarse.geojson"},"geometry":{"type":"LineString","coordinates":[[10.315,56.96175],[10.31,56.963966],[10.305,56.960556],[10.3,56.963182],[10.298333,56.96],[10.315,56.955625],[10.315,56.96175]]}},{"type":"Feature","properties":{"depth":2,"source":"DDM 2024 coarse contour","resolution":"0.005 degree sampled grid","scope":"denmark","tileSource":"contours-denmark-coarse.geojson"},"geometry":{"type":"LineString","coordinates":[[10.315,56.990001],[10.31,56.986471],[10.31,56.975],[10.315,56.972222],[10.32,56.962955],[10.329211,56.98],[10.325,56.987308],[10.315,56.990001]]}},{"type":"Feature","properties":{"depth":2,"source":"DDM 2024 coarse contour","resolution":"0.005 degree sampled grid","scope":"denmark","tileSource":"contours-denmark-coarse.geojson"},"geometry":{"type":"LineString","coordinates":[[10.279999,56.985332],[10.3,56.985636],[10.309178,56.99],[10.279999,56.99]]}},{"type":"Feature","properties":{"depth":2,"source":"DDM 2024 coarse contour","resolution":"0.005 degree sampled grid","scope":"denmark","tileSource":"contours-denmark-coarse.geojson"},"geometry":{"type":"LineString","coordinates":[[10.465333,57.16],[10.455,57.15375],[10.455833,57.16],[10.465333,57.16]]}},{"type":"Feature","properties":{"depth":3,"source":"DDM 2024 coarse contour","resolution":"0.005 degree sampled grid","scope":"denmark","tileSource":"contours-denmark-coarse.geojson"},"geometry":{"type":"LineString","coordinates":[[10.5605,57.225001],[10.5605,57.225],[10.545,57.207778],[10.525,57.206286],[10.52,57.202727],[10.51,57.202955],[10.505,57.1982],[10.495,57.197544],[10.485,57.18875],[10.455,57.1725],[10.438636,57.155],[10.437167,57.15],[10.44,57.146458],[10.445,57.151667],[10.45,57.150882],[10.455,57.1615],[10.47,57.166429],[10.48,57.177],[10.49,57.178333],[10.495,57.185],[10.503333,57.185],[10.503333,57.18],[10.49,57.173571],[10.4825,57.165],[10.475,57.161],[10.47,57.163333],[10.465,57.151667],[10.46,57.152222],[10.45,57.147],[10.445,57.138],[10.43,57.135],[10.415,57.115312],[10.392857,57.065],[10.383684,57.055],[10.383846,57.05],[10.35,56.990625],[10.35,56.985],[10.364,56.97],[10.355,56.963409],[10.338182,56.96],[10.33625,56.95],[10.339545,56.94],[10.335,56.936429],[10.311667,56.935],[10.3125,56.93],[10.305,56.92375],[10.295,56.923333],[10.28,56.909286],[10.279999,56.909284]]}},{"type":"Feature","properties":{"depth":3,"source":"DDM 2024 coarse contour","resolution":"0.005 degree sampled grid","scope":"denmark","tileSource":"contours-denmark-coarse.geojson"},"geometry":{"type":"LineString","coordinates":[[10.279999,56.886034],[10.283889,56.88],[10.285,56.87],[10.279999,56.865434]]}},{"type":"Feature","properties":{"depth":3,"source":"DDM 2024 coarse contour","resolution":"0.005 degree sampled grid","scope":"denmark","tileSource":"contours-denmark-coarse.geojson"},"geometry":{"type":"LineString","coordinates":[[10.279999,56.860621],[10.282778,56.835],[10.279999,56.832176]]}},{"type":"Feature","properties":{"depth":3,"source":"DDM 2024 coarse contour","resolution":"0.005 degree sampled grid","scope":"denmark","tileSource":"contours-denmark-coarse.geojson"},"geometry":{"type":"LineString","coordinates":[[10.279999,56.825557],[10.2875,56.81],[10.285,56.804688],[10.29,56.8],[10.29,56.795],[10.305,56.7825],[10.31,56.785],[10.311,56.775],[10.308333,56.77],[10.315,56.769167],[10.33,56.758333],[10.335,56.76],[10.35,56.750833],[10.3575,56.75],[10.357497,56.749999]]}},{"type":"Feature","properties":{"depth":3,"source":"DDM 2024 coarse contour","resolution":"0.005 degree sampled grid","scope":"denmark","tileSource":"contours-denmark-coarse.geojson"},"geometry":{"type":"LineString","coordinates":[[10.3,56.935323],[10.284333,56.935],[10.2975,56.93],[10.3,56.925],[10.30625,56.93],[10.3,56.935323]]}},{"type":"Feature","properties":{"depth":3,"source":"DDM 2024 coarse contour","resolution":"0.005 degree sampled grid","scope":"denmark","tileSource":"contours-denmark-coarse.geojson"},"geometry":{"type":"LineString","coordinates":[[10.325,56.985385],[10.315,56.989545],[10.310333,56.985],[10.315,56.977778],[10.325,56.975645],[10.328553,56.98],[10.325,56.985385]]}},{"type":"Feature","properties":{"depth":3,"source":"DDM 2024 coarse contour","resolution":"0.005 degree sampled grid","scope":"denmark","tileSource":"contours-denmark-coarse.geojson"},"geometry":{"type":"LineString","coordinates":[[10.305,56.990025],[10.279999,56.990006]]}},{"type":"Feature","properties":{"depth":3,"source":"DDM 2024 coarse contour","resolution":"0.005 degree sampled grid","scope":"denmark","tileSource":"contours-denmark-coarse.geojson"},"geometry":{"type":"LineString","coordinates":[[10.279999,56.984998],[10.28,56.984998],[10.3,56.986091],[10.308493,56.99],[10.305,56.990025]]}},{"type":"Feature","properties":{"depth":3,"source":"DDM 2024 coarse contour","resolution":"0.005 degree sampled grid","scope":"denmark","tileSource":"contours-denmark-coarse.geojson"},"geometry":{"type":"LineString","coordinates":[[10.435,57.147292],[10.43,57.146977],[10.43,57.135],[10.438056,57.145],[10.435,57.147292]]}},{"type":"Feature","properties":{"depth":5,"source":"DDM 2024 coarse contour","resolution":"0.005 degree sampled grid","scope":"denmark","tileSource":"contours-denmark-coarse.geojson"},"geometry":{"type":"LineString","coordinates":[[10.567478,57.225001],[10.568269,57.215],[10.565,57.211136],[10.56,57.214167],[10.551111,57.2],[10.53,57.182333],[10.515,57.158333],[10.51,57.155],[10.513333,57.16],[10.512059,57.165],[10.5175,57.17],[10.515,57.1725],[10.505,57.170714],[10.50375,57.165],[10.495,57.158],[10.485,57.156667],[10.465,57.1375],[10.455,57.136429],[10.445,57.125],[10.44,57.125556],[10.433,57.12],[10.425,57.10125],[10.416667,57.095],[10.420455,57.085],[10.415,57.086],[10.409375,57.075],[10.416364,57.07],[10.413125,57.065],[10.417857,57.055],[10.410556,57.05],[10.415,57.045],[10.4125,57.04],[10.40375,57.035],[10.405,57.03],[10.401111,57.025],[10.405667,57.02],[10.4,57.0125],[10.395,57.013889],[10.385,57.003333],[10.38,57.00625],[10.37,57.000833],[10.37125,56.995],[10.36375,56.98],[10.368276,56.97],[10.361349,56.965],[10.365,56.96066],[10.372857,56.96],[10.36625,56.955],[10.37,56.95],[10.365,56.935],[10.372,56.93],[10.375833,56.92],[10.365,56.91],[10.3675,56.915],[10.365,56.935],[10.364,56.93],[10.355,56.928333],[10.34,56.915625],[10.34,56.909583],[10.355,56.91],[10.355,56.9025],[10.36,56.905],[10.34,56.889375],[10.335,56.892143],[10.33,56.88],[10.34,56.865],[10.355,56.85875],[10.38,56.855357],[10.385,56.85],[10.375,56.847222],[10.37,56.85],[10.365,56.84375],[10.36,56.844286],[10.35,56.853],[10.345,56.851667],[10.34,56.85],[10.345,56.8475],[10.345,56.8425],[10.3325,56.84],[10.33,56.835],[10.32,56.83],[10.325,56.825],[10.325,56.81],[10.335,56.805],[10.34,56.794286],[10.346,56.795],[10.348,56.79],[10.345,56.785],[10.363,56.775],[10.3725,56.765],[10.3725,56.76],[10.41,56.75],[10.41,56.749999]]}},{"type":"Feature","properties":{"depth":5,"source":"DDM 2024 coarse contour","resolution":"0.005 degree sampled grid","scope":"denmark","tileSource":"contours-denmark-coarse.geojson"},"geometry":{"type":"LineString","coordinates":[[10.3625,56.92],[10.365,56.91],[10.36,56.9125],[10.355,56.91],[10.359,56.92],[10.3625,56.92]]}},{"type":"Feature","properties":{"depth":5,"source":"DDM 2024 coarse contour","resolution":"0.005 degree sampled grid","scope":"denmark","tileSource":"contours-denmark-coarse.geojson"},"geometry":{"type":"LineString","coordinates":[[10.305,56.990015],[10.279999,56.990003]]}},{"type":"Feature","properties":{"depth":5,"source":"DDM 2024 coarse contour","resolution":"0.005 degree sampled grid","scope":"denmark","tileSource":"contours-denmark-coarse.geojson"},"geometry":{"type":"LineString","coordinates":[[10.279999,56.988608],[10.29,56.986447],[10.307123,56.99],[10.305,56.990015]]}},{"type":"Feature","properties":{"depth":5,"source":"DDM 2024 coarse contour","resolution":"0.005 degree sampled grid","scope":"denmark","tileSource":"contours-denmark-coarse.geojson"},"geometry":{"type":"LineString","coordinates":[[10.528571,57.1],[10.52,57.092],[10.5175,57.095],[10.52,57.10125],[10.528571,57.1]]}},{"type":"Feature","properties":{"depth":5,"source":"DDM 2024 coarse contour","resolution":"0.005 degree sampled grid","scope":"denmark","tileSource":"contours-denmark-coarse.geojson"},"geometry":{"type":"LineString","coordinates":[[10.455,57.170577],[10.44886,57.165],[10.45,57.16],[10.455,57.164833],[10.460227,57.165],[10.459286,57.17],[10.455,57.170577]]}},{"type":"Feature","properties":{"depth":5,"source":"DDM 2024 coarse contour","resolution":"0.005 degree sampled grid","scope":"denmark","tileSource":"contours-denmark-coarse.geojson"},"geometry":{"type":"LineString","coordinates":[[10.475,57.181548],[10.47,57.180849],[10.460455,57.17],[10.465,57.168387],[10.477167,57.18],[10.475,57.181548]]}},{"type":"Feature","properties":{"depth":5,"source":"DDM 2024 coarse contour","resolution":"0.005 degree sampled grid","scope":"denmark","tileSource":"contours-denmark-coarse.geojson"},"geometry":{"type":"LineString","coordinates":[[10.505,57.1962],[10.495,57.195789],[10.479833,57.185],[10.485,57.179483],[10.5,57.192419],[10.509615,57.195],[10.505,57.1962]]}},{"type":"Feature","properties":{"depth":5,"source":"DDM 2024 coarse contour","resolution":"0.005 degree sampled grid","scope":"denmark","tileSource":"contours-denmark-coarse.geojson"},"geometry":{"type":"LineString","coordinates":[[10.6675,57.22],[10.673571,57.21],[10.67,57.206429],[10.662308,57.22],[10.665,57.222187],[10.6675,57.22]]}},{"type":"Feature","properties":{"depth":10,"source":"DDM 2024 coarse contour","resolution":"0.005 degree sampled grid","scope":"denmark","tileSource":"contours-denmark-coarse.geojson"},"geometry":{"type":"LineString","coordinates":[[10.674973,57.225001],[10.680968,57.215],[10.653571,57.175],[10.651429,57.155],[10.656667,57.15],[10.66,57.13],[10.651667,57.13],[10.651667,57.125],[10.655,57.12119],[10.66,57.13],[10.656667,57.12],[10.662,57.115],[10.672,57.06],[10.695714,57.025],[10.69,56.995],[10.685,56.995556],[10.6825,56.99],[10.686,56.98],[10.6925,56.98],[10.7,56.9915],[10.715,56.995],[10.712857,56.99],[10.726111,56.965],[10.728333,56.945],[10.723333,56.925],[10.72625,56.92],[10.7185,56.91],[10.72625,56.875],[10.72,56.873125],[10.7025,56.905],[10.6975,56.905],[10.695,56.8975],[10.684,56.9],[10.679286,56.92],[10.682143,56.925],[10.676667,56.93],[10.685263,56.945],[10.685,56.975],[10.675,56.972],[10.665,56.987727],[10.660714,56.985],[10.638333,56.945],[10.645,56.94],[10.633333,56.935],[10.64,56.916667],[10.6225,56.92],[10.63,56.92],[10.63,56.912143],[10.64,56.90625],[10.645,56.895],[10.63875,56.895],[10.645,56.895],[10.635,56.88],[10.64125,56.875],[10.635,56.855],[10.625,56.866667],[10.61,56.9],[10.621111,56.9],[10.615,56.9],[10.617812,56.905],[10.6125,56.915],[10.617692,56.93],[10.612083,56.935],[10.614,56.96],[10.608235,56.97],[10.60875,56.98],[10.595,56.993529],[10.59,56.98875],[10.585,56.997222],[10.5825,56.99],[10.572,56.985],[10.568611,56.96],[10.575714,56.945],[10.571538,56.94],[10.575682,56.93],[10.566875,56.925],[10.575,56.91],[10.57,56.90625],[10.565,56.909231],[10.56,56.902857],[10.555,56.906471],[10.5525,56.895],[10.555,56.891875],[10.56,56.896667],[10.585,56.875],[10.575,56.875],[10.57,56.86875],[10.565,56.874687],[10.555,56.874],[10.559211,56.88],[10.555,56.883333],[10.545,56.877727],[10.525,56.87875],[10.5225,56.875],[10.54,56.86],[10.55,56.86875],[10.56,56.865],[10.550333,56.86],[10.555,56.855],[10.55,56.858333],[10.541667,56.855],[10.547692,56.85],[10.545,56.846111],[10.525,56.8685],[10.519091,56.865],[10.524091,56.87],[10.515,56.877353],[10.509444,56.86],[10.5175,56.855],[10.513333,56.85],[10.52,56.835],[10.53625,56.825],[10.526667,56.82],[10.5275,56.81],[10.535,56.812],[10.545,56.805],[10.562,56.78],[10.563333,56.775],[10.5575,56.77],[10.565,56.76],[10.56,56.763333],[10.558,56.76],[10.56,56.756],[10.565,56.76],[10.560385,56.755],[10.565,56.751471],[10.569286,56.755],[10.565,56.76],[10.57,56.757],[10.5725,56.75],[10.572498,56.749999]]}},{"type":"Feature","properties":{"depth":10,"source":"DDM 2024 coarse contour","resolution":"0.005 degree sampled grid","scope":"denmark","tileSource":"contours-denmark-coarse.geojson"},"geometry":{"type":"LineString","coordinates":[[10.565833,56.85],[10.55375,56.85],[10.555,56.855],[10.565833,56.85]]}},{"type":"Feature","properties":{"depth":10,"source":"DDM 2024 coarse contour","resolution":"0.005 degree sampled grid","scope":"denmark","tileSource":"contours-denmark-coarse.geojson"},"geometry":{"type":"LineString","coordinates":[[10.505,56.8925],[10.494583,56.89],[10.505,56.884583],[10.505,56.8925]]}},{"type":"Feature","properties":{"depth":10,"source":"DDM 2024 coarse contour","resolution":"0.005 degree sampled grid","scope":"denmark","tileSource":"contours-denmark-coarse.geojson"},"geometry":{"type":"LineString","coordinates":[[10.53,56.910238],[10.5125,56.905],[10.5075,56.895],[10.53,56.885833],[10.533571,56.89],[10.528864,56.895],[10.533333,56.9],[10.53,56.910238]]}},{"type":"Feature","properties":{"depth":10,"source":"DDM 2024 coarse contour","resolution":"0.005 degree sampled grid","scope":"denmark","tileSource":"contours-denmark-coarse.geojson"},"geometry":{"type":"LineString","coordinates":[[10.755001,56.928035],[10.7532,56.93],[10.755001,56.936432]]}},{"type":"Feature","properties":{"depth":10,"source":"DDM 2024 coarse contour","resolution":"0.005 degree sampled grid","scope":"denmark","tileSource":"contours-denmark-coarse.geojson"},"geometry":{"type":"LineString","coordinates":[[10.755001,56.944579],[10.744,56.995],[10.755,57],[10.755001,56.999999]]}},{"type":"Feature","properties":{"depth":10,"source":"DDM 2024 coarse contour","resolution":"0.005 degree sampled grid","scope":"denmark","tileSource":"contours-denmark-coarse.geojson"},"geometry":{"type":"LineString","coordinates":[[10.48,56.947143],[10.45,56.95],[10.438214,56.945],[10.445,56.938],[10.4525,56.94],[10.454286,56.935],[10.445,56.93],[10.45,56.925455],[10.475,56.916667],[10.475,56.925],[10.485,56.921667],[10.492778,56.935],[10.48,56.947143]]}},{"type":"Feature","properties":{"depth":10,"source":"DDM 2024 coarse contour","resolution":"0.005 degree sampled grid","scope":"denmark","tileSource":"contours-denmark-coarse.geojson"},"geometry":{"type":"LineString","coordinates":[[10.49,56.951429],[10.4825,56.95],[10.495,56.94275],[10.497812,56.945],[10.495,56.948214],[10.49,56.945],[10.49,56.951429]]}},{"type":"Feature","properties":{"depth":10,"source":"DDM 2024 coarse contour","resolution":"0.005 degree sampled grid","scope":"denmark","tileSource":"contours-denmark-coarse.geojson"},"geometry":{"type":"LineString","coordinates":[[10.485,57.005882],[10.470714,57.005],[10.46,56.9955],[10.45,57],[10.450833,56.99],[10.458333,56.985],[10.445,56.975],[10.445,56.965],[10.439583,56.965],[10.45,56.960909],[10.455,56.95],[10.46,56.955882],[10.475,56.957222],[10.486923,56.965],[10.478,56.98],[10.482857,56.985],[10.48,56.993182],[10.486786,56.99],[10.485,57.005882]]}},{"type":"Feature","properties":{"depth":10,"source":"DDM 2024 coarse contour","resolution":"0.005 degree sampled grid","scope":"denmark","tileSource":"contours-denmark-coarse.geojson"},"geometry":{"type":"LineString","coordinates":[[10.597333,56.965],[10.60125,56.96],[10.592812,56.965],[10.597333,56.965]]}},{"type":"Feature","properties":{"depth":10,"source":"DDM 2024 coarse contour","resolution":"0.005 degree sampled grid","scope":"denmark","tileSource":"contours-denmark-coarse.geojson"},"geometry":{"type":"LineString","coordinates":[[10.545,57.01125],[10.545,56.999375],[10.555,56.999231],[10.55,57],[10.551111,57.005],[10.545,57.01125]]}},{"type":"Feature","properties":{"depth":10,"source":"DDM 2024 coarse contour","resolution":"0.005 degree sampled grid","scope":"denmark","tileSource":"contours-denmark-coarse.geojson"},"geometry":{"type":"LineString","coordinates":[[10.625,57.058182],[10.61,57.051429],[10.61,57.04],[10.605,57.0335],[10.6,57.037727],[10.591667,57.03],[10.596667,57],[10.605,56.995],[10.61,57.006875],[10.615,57.005],[10.6135,57.015],[10.61875,57.025],[10.6285,57.03],[10.63,57.05],[10.635,57.046667],[10.63625,57.05],[10.635,57.055],[10.63,57.05],[10.625,57.058182]]}},{"type":"Feature","properties":{"depth":10,"source":"DDM 2024 coarse contour","resolution":"0.005 degree sampled grid","scope":"denmark","tileSource":"contours-denmark-coarse.geojson"},"geometry":{"type":"LineString","coordinates":[[10.635,57.076471],[10.626,57.07],[10.635,57.069286],[10.635,57.076471]]}},{"type":"Feature","properties":{"depth":10,"source":"DDM 2024 coarse contour","resolution":"0.005 degree sampled grid","scope":"denmark","tileSource":"contours-denmark-coarse.geojson"},"geometry":{"type":"LineString","coordinates":[[10.64,57.12],[10.635,57.116],[10.63,57.118333],[10.63,57.112],[10.64,57.1125],[10.64,57.12]]}},{"type":"Feature","properties":{"depth":15,"source":"DDM 2024 coarse contour","resolution":"0.005 degree sampled grid","scope":"denmark","tileSource":"contours-denmark-coarse.geojson"},"geometry":{"type":"LineString","coordinates":[[10.679217,57.225001],[10.683656,57.215],[10.677917,57.195],[10.674792,57.145],[10.68,57.106944],[10.685,57.1025],[10.695625,57.11],[10.692143,57.13],[10.701667,57.14],[10.699286,57.15],[10.7075,57.16],[10.705,57.165],[10.71,57.1625],[10.716111,57.145],[10.71875,57.135],[10.715,57.13],[10.72125,57.125],[10.718333,57.115],[10.724375,57.115],[10.732,57.135],[10.74,57.14],[10.74,57.1325],[10.755001,57.125336]]}},{"type":"Feature","properties":{"depth":15,"source":"DDM 2024 coarse contour","resolution":"0.005 degree sampled grid","scope":"denmark","tileSource":"contours-denmark-coarse.geojson"},"geometry":{"type":"LineString","coordinates":[[10.75,57.18],[10.745,57.168333],[10.74,57.169706],[10.739375,57.175],[10.75,57.18]]}},{"type":"Feature","properties":{"depth":20,"source":"DDM 2024 coarse contour","resolution":"0.005 degree sampled grid","scope":"denmark","tileSource":"contours-denmark-coarse.geojson"},"geometry":{"type":"LineString","coordinates":[[10.755001,57.16085],[10.754722,57.16],[10.755001,57.159808]]}},{"type":"Feature","properties":{"depth":20,"source":"DDM 2024 coarse contour","resolution":"0.005 degree sampled grid","scope":"denmark","tileSource":"contours-denmark-coarse.geojson"},"geometry":{"type":"LineString","coordinates":[[10.752949,57.225001],[10.735,57.204286],[10.73,57.21],[10.725,57.205],[10.71975,57.19],[10.725,57.175],[10.73,57.17381],[10.732188,57.19],[10.742857,57.2],[10.75,57.196765],[10.75275,57.2],[10.755001,57.209222]]}},{"type":"Feature","properties":{"depth":20,"source":"DDM 2024 coarse contour","resolution":"0.005 degree sampled grid","scope":"denmark","tileSource":"contours-denmark-coarse.geojson"},"geometry":{"type":"LineString","coordinates":[[10.686381,57.225001],[10.69,57.1775],[10.701829,57.22],[10.701677,57.225001]]}}]}