{"type":"FeatureCollection","name":"DDM contour tile r06_c06","bbox":[10.28,57.23,10.755,57.705],"metadata":{"schema":"waternav-ddm-contour-tile-v1","version":"v45.4","tileId":"r06_c06","source":"Danmarks Dybdemodel 2024 ddm_50m.dybde.tiff via bundled DDM contour GeoJSON files"},"features":[{"type":"Feature","properties":{"depth":1,"source":"DDM 2024 coarse contour","resolution":"0.005 degree sampled grid","scope":"denmark","tileSource":"contours-denmark-coarse.geojson"},"geometry":{"type":"LineString","coordinates":[[10.279999,57.624993],[10.285,57.624999],[10.29,57.629981],[10.3,57.629996],[10.305,57.634978],[10.315,57.634996],[10.32,57.639986],[10.329423,57.64],[10.375,57.664985],[10.38,57.664993],[10.385,57.669982],[10.39,57.669989],[10.395,57.674986],[10.4,57.674987],[10.405,57.679989],[10.414844,57.68],[10.425,57.689982],[10.435,57.690185],[10.461194,57.705001]]}},{"type":"Feature","properties":{"depth":1,"source":"DDM 2024 coarse contour","resolution":"0.005 degree sampled grid","scope":"denmark","tileSource":"contours-denmark-coarse.geojson"},"geometry":{"type":"LineString","coordinates":[[10.559953,57.705001],[10.545,57.699884],[10.535,57.690015],[10.53,57.690004],[10.505,57.670014],[10.5,57.670001],[10.440185,57.615],[10.43499,57.6],[10.429998,57.595],[10.43,57.568333],[10.446739,57.54],[10.461071,57.525],[10.465,57.524995],[10.495,57.5002],[10.505,57.495968],[10.51,57.4865],[10.535294,57.47],[10.55,57.4525],[10.555,57.454991],[10.569985,57.445],[10.56,57.430064],[10.555,57.435022],[10.55,57.435041],[10.54,57.425025],[10.535,57.430002],[10.529998,57.43],[10.529998,57.415],[10.525714,57.41],[10.524999,57.4],[10.52,57.394615],[10.516429,57.38],[10.52,57.375],[10.52,57.355],[10.524996,57.35],[10.525,57.34],[10.53,57.339999],[10.534991,57.335],[10.531154,57.325],[10.535,57.308],[10.549997,57.27],[10.550888,57.229999]]}},{"type":"Feature","properties":{"depth":1,"source":"DDM 2024 coarse contour","resolution":"0.005 degree sampled grid","scope":"denmark","tileSource":"contours-denmark-coarse.geojson"},"geometry":{"type":"LineString","coordinates":[[10.6035,57.495],[10.61,57.490882],[10.625,57.48998],[10.629999,57.485],[10.625,57.480033],[10.62,57.48003],[10.615,57.488571],[10.605,57.489634],[10.598654,57.495],[10.6,57.497333],[10.6035,57.495]]}},{"type":"Feature","properties":{"depth":2,"source":"DDM 2024 coarse contour","resolution":"0.005 degree sampled grid","scope":"denmark","tileSource":"contours-denmark-coarse.geojson"},"geometry":{"type":"LineString","coordinates":[[10.279999,57.624996],[10.283939,57.625],[10.29,57.629986],[10.298889,57.63],[10.305,57.634983],[10.314375,57.635],[10.32,57.639991],[10.3396,57.645],[10.385,57.669987],[10.39,57.669994],[10.395,57.674991],[10.4,57.674992],[10.405,57.679994],[10.413281,57.68],[10.425,57.689987],[10.432391,57.69],[10.45,57.699998],[10.455,57.699999],[10.462512,57.705001]]}},{"type":"Feature","properties":{"depth":2,"source":"DDM 2024 coarse contour","resolution":"0.005 degree sampled grid","scope":"denmark","tileSource":"contours-denmark-coarse.geojson"},"geometry":{"type":"LineString","coordinates":[[10.557695,57.705001],[10.535,57.69001],[10.53,57.689767],[10.52,57.68001],[10.5,57.668974],[10.46,57.635001],[10.455,57.625],[10.45,57.625],[10.44,57.612609],[10.431136,57.595],[10.43,57.572187],[10.448913,57.54],[10.475833,57.515],[10.505,57.497581],[10.51,57.489],[10.538235,57.47],[10.55,57.455937],[10.56,57.45],[10.565,57.451053],[10.56999,57.445],[10.56,57.430059],[10.555,57.435017],[10.55,57.435036],[10.54,57.42502],[10.535,57.428913],[10.528095,57.41],[10.53,57.405],[10.52,57.390769],[10.522222,57.385],[10.52,57.38],[10.523846,57.375],[10.520556,57.365],[10.53,57.355],[10.5275,57.345],[10.534996,57.335],[10.538077,57.31],[10.544444,57.29],[10.549091,57.285],[10.554737,57.25],[10.553554,57.229999]]}},{"type":"Feature","properties":{"depth":2,"source":"DDM 2024 coarse contour","resolution":"0.005 degree sampled grid","scope":"denmark","tileSource":"contours-denmark-coarse.geojson"},"geometry":{"type":"LineString","coordinates":[[10.600313,57.5],[10.618636,57.49],[10.625,57.489985],[10.630519,57.485],[10.625,57.480028],[10.62,57.480025],[10.615,57.48619],[10.6,57.490952],[10.596731,57.495],[10.600313,57.5]]}},{"type":"Feature","properties":{"depth":3,"source":"DDM 2024 coarse contour","resolution":"0.005 degree sampled grid","scope":"denmark","tileSource":"contours-denmark-coarse.geojson"},"geometry":{"type":"LineString","coordinates":[[10.279999,57.624495],[10.282424,57.625],[10.29,57.629991],[10.3376,57.645],[10.385,57.669992],[10.39,57.669999],[10.395,57.674996],[10.4,57.674997],[10.405,57.679999],[10.411719,57.68],[10.425,57.689992],[10.465,57.704999],[10.465002,57.705001]]}},{"type":"Feature","properties":{"depth":3,"source":"DDM 2024 coarse contour","resolution":"0.005 degree sampled grid","scope":"denmark","tileSource":"contours-denmark-coarse.geojson"},"geometry":{"type":"LineString","coordinates":[[10.558032,57.705001],[10.53,57.688605],[10.49,57.660007],[10.461591,57.635],[10.456613,57.625],[10.45,57.6225],[10.44,57.610435],[10.435,57.6],[10.430385,57.575],[10.4408,57.56],[10.440455,57.555],[10.45,57.543571],[10.48,57.515],[10.505,57.499194],[10.525,57.478553],[10.540571,57.47],[10.555,57.455238],[10.56,57.452778],[10.573333,57.455],[10.582805,57.45],[10.58,57.444038],[10.57,57.45],[10.564982,57.435],[10.56,57.430054],[10.555,57.435012],[10.55,57.435031],[10.54,57.425015],[10.535,57.426739],[10.530833,57.41],[10.532143,57.395],[10.525,57.385],[10.531667,57.38],[10.526111,57.365],[10.536667,57.355],[10.534375,57.35],[10.538333,57.335],[10.545,57.325],[10.541875,57.32],[10.545,57.31],[10.550833,57.305],[10.547222,57.3],[10.556429,57.29],[10.56,57.28],[10.560455,57.229999]]}},{"type":"Feature","properties":{"depth":3,"source":"DDM 2024 coarse contour","resolution":"0.005 degree sampled grid","scope":"denmark","tileSource":"contours-denmark-coarse.geojson"},"geometry":{"type":"LineString","coordinates":[[10.601875,57.5],[10.631169,57.485],[10.625,57.480023],[10.62,57.48002],[10.615,57.484444],[10.592,57.49],[10.59,57.493333],[10.584615,57.49],[10.588333,57.495],[10.595,57.495294],[10.597857,57.5],[10.601875,57.5]]}},{"type":"Feature","properties":{"depth":5,"source":"DDM 2024 coarse contour","resolution":"0.005 degree sampled grid","scope":"denmark","tileSource":"contours-denmark-coarse.geojson"},"geometry":{"type":"LineString","coordinates":[[10.279999,57.629862],[10.285,57.631944],[10.29,57.630714],[10.3,57.637059],[10.30619,57.635],[10.31,57.639706],[10.325,57.645667],[10.331818,57.645],[10.4,57.682187],[10.435,57.693889],[10.45,57.705],[10.450005,57.705001]]}},{"type":"Feature","properties":{"depth":5,"source":"DDM 2024 coarse contour","resolution":"0.005 degree sampled grid","scope":"denmark","tileSource":"contours-denmark-coarse.geojson"},"geometry":{"type":"LineString","coordinates":[[10.560204,57.705001],[10.54,57.693788],[10.485,57.654167],[10.475833,57.645],[10.472609,57.635],[10.452941,57.62],[10.44,57.603333],[10.434231,57.585],[10.43697,57.57],[10.465,57.538],[10.485,57.521364],[10.49,57.5225],[10.495,57.517222],[10.51,57.514],[10.515,57.50875],[10.565,57.496667],[10.59,57.498387],[10.6,57.502667],[10.615,57.4946],[10.620758,57.495],[10.632468,57.485],[10.625,57.480013],[10.605,57.483],[10.603125,57.48],[10.607813,57.475],[10.605,57.472453],[10.59,57.47875],[10.585,57.473889],[10.58,57.474375],[10.574091,57.465],[10.555,57.46],[10.557955,57.465],[10.55,57.473971],[10.54,57.479265],[10.536628,57.475],[10.555,57.46],[10.575,57.457647],[10.585294,57.45],[10.58,57.440192],[10.57,57.443043],[10.56,57.430044],[10.555,57.435002],[10.55,57.435021],[10.537727,57.425],[10.537308,57.42],[10.545,57.3925],[10.5525,57.38],[10.55,57.375],[10.56,57.36],[10.558636,57.345],[10.565,57.345],[10.58375,57.315],[10.585,57.30375],[10.59375,57.295],[10.59,57.2875],[10.575,57.285],[10.567083,57.23],[10.567083,57.229999]]}},{"type":"Feature","properties":{"depth":5,"source":"DDM 2024 coarse contour","resolution":"0.005 degree sampled grid","scope":"denmark","tileSource":"contours-denmark-coarse.geojson"},"geometry":{"type":"LineString","coordinates":[[10.644286,57.25],[10.649286,57.245],[10.640178,57.229999]]}},{"type":"Feature","properties":{"depth":5,"source":"DDM 2024 coarse contour","resolution":"0.005 degree sampled grid","scope":"denmark","tileSource":"contours-denmark-coarse.geojson"},"geometry":{"type":"LineString","coordinates":[[10.639885,57.229999],[10.637917,57.235],[10.625769,57.245],[10.63,57.252941],[10.64,57.253529],[10.644286,57.25]]}},{"type":"Feature","properties":{"depth":5,"source":"DDM 2024 coarse contour","resolution":"0.005 degree sampled grid","scope":"denmark","tileSource":"contours-denmark-coarse.geojson"},"geometry":{"type":"LineString","coordinates":[[10.66053,57.24],[10.665246,57.235],[10.660998,57.229999]]}},{"type":"Feature","properties":{"depth":5,"source":"DDM 2024 coarse contour","resolution":"0.005 degree sampled grid","scope":"denmark","tileSource":"contours-denmark-coarse.geojson"},"geometry":{"type":"LineString","coordinates":[[10.656003,57.229999],[10.656,57.23],[10.66053,57.24]]}},{"type":"Feature","properties":{"depth":5,"source":"DDM 2024 coarse contour","resolution":"0.005 degree sampled grid","scope":"denmark","tileSource":"contours-denmark-coarse.geojson"},"geometry":{"type":"LineString","coordinates":[[10.555,57.48875],[10.545,57.489167],[10.540833,57.485],[10.55,57.483947],[10.555,57.477143],[10.56,57.48],[10.555,57.48875]]}},{"type":"Feature","properties":{"depth":10,"source":"DDM 2024 coarse contour","resolution":"0.005 degree sampled grid","scope":"denmark","tileSource":"contours-denmark-coarse.geojson"},"geometry":{"type":"LineString","coordinates":[[10.279999,57.639255],[10.282857,57.64],[10.34,57.661667],[10.431861,57.705001]]}},{"type":"Feature","properties":{"depth":10,"source":"DDM 2024 coarse contour","resolution":"0.005 degree sampled grid","scope":"denmark","tileSource":"contours-denmark-coarse.geojson"},"geometry":{"type":"LineString","coordinates":[[10.584159,57.705001],[10.556429,57.695],[10.544375,57.68],[10.55125,57.645],[10.546875,57.64],[10.5525,57.635],[10.546111,57.625],[10.526667,57.615],[10.51625,57.6],[10.515,57.583333],[10.485,57.573571],[10.48,57.5675],[10.475,57.573],[10.4675,57.57],[10.639138,57.49],[10.63,57.476098],[10.624615,57.475],[10.6025,57.435],[10.571,57.41],[10.575,57.4],[10.57,57.403333],[10.569231,57.4],[10.58,57.3975],[10.599375,57.38],[10.5975,57.375],[10.616,57.355],[10.625,57.34],[10.626034,57.32],[10.648,57.27],[10.671977,57.229999]]}},{"type":"Feature","properties":{"depth":15,"source":"DDM 2024 coarse contour","resolution":"0.005 degree sampled grid","scope":"denmark","tileSource":"contours-denmark-coarse.geojson"},"geometry":{"type":"LineString","coordinates":[[10.279999,57.654209],[10.353333,57.675],[10.415478,57.705001]]}},{"type":"Feature","properties":{"depth":15,"source":"DDM 2024 coarse contour","resolution":"0.005 degree sampled grid","scope":"denmark","tileSource":"contours-denmark-coarse.geojson"},"geometry":{"type":"LineString","coordinates":[[10.615003,57.705001],[10.615,57.705],[10.615,57.705001]]}},{"type":"Feature","properties":{"depth":15,"source":"DDM 2024 coarse contour","resolution":"0.005 degree sampled grid","scope":"denmark","tileSource":"contours-denmark-coarse.geojson"},"geometry":{"type":"LineString","coordinates":[[10.614999,57.705001],[10.615,57.705],[10.587,57.665],[10.574444,57.63],[10.57125,57.59],[10.5775,57.55],[10.589286,57.52],[10.595,57.522308],[10.606296,57.51],[10.62,57.506857],[10.63,57.497975],[10.635,57.499744],[10.644018,57.49],[10.605833,57.415],[10.64,57.37],[10.654808,57.28],[10.676999,57.229999]]}},{"type":"Feature","properties":{"depth":15,"source":"DDM 2024 coarse contour","resolution":"0.005 degree sampled grid","scope":"denmark","tileSource":"contours-denmark-coarse.geojson"},"geometry":{"type":"LineString","coordinates":[[10.725833,57.275],[10.72,57.268333],[10.72,57.275],[10.725833,57.275]]}},{"type":"Feature","properties":{"depth":20,"source":"DDM 2024 coarse contour","resolution":"0.005 degree sampled grid","scope":"denmark","tileSource":"contours-denmark-coarse.geojson"},"geometry":{"type":"LineString","coordinates":[[10.283567,57.705001],[10.283571,57.705],[10.279999,57.704639]]}},{"type":"Feature","properties":{"depth":20,"source":"DDM 2024 coarse contour","resolution":"0.005 degree sampled grid","scope":"denmark","tileSource":"contours-denmark-coarse.geojson"},"geometry":{"type":"LineString","coordinates":[[10.279999,57.662785],[10.33,57.676],[10.38,57.694],[10.402687,57.705001]]}},{"type":"Feature","properties":{"depth":20,"source":"DDM 2024 coarse contour","resolution":"0.005 degree sampled grid","scope":"denmark","tileSource":"contours-denmark-coarse.geojson"},"geometry":{"type":"LineString","coordinates":[[10.676333,57.705001],[10.678333,57.69],[10.675,57.68],[10.625,57.595],[10.624167,57.565],[10.633333,57.505],[10.648362,57.485],[10.645,57.455],[10.662,57.42],[10.707778,57.37],[10.725,57.322],[10.728793,57.285],[10.755,57.251],[10.755001,57.250999]]}},{"type":"Feature","properties":{"depth":20,"source":"DDM 2024 coarse contour","resolution":"0.005 degree sampled grid","scope":"denmark","tileSource":"contours-denmark-coarse.geojson"},"geometry":{"type":"LineString","coordinates":[[10.695,57.2825],[10.683333,57.265],[10.686,57.229999]]}},{"type":"Feature","properties":{"depth":20,"source":"DDM 2024 coarse contour","resolution":"0.005 degree sampled grid","scope":"denmark","tileSource":"contours-denmark-coarse.geojson"},"geometry":{"type":"LineString","coordinates":[[10.701524,57.229999],[10.7,57.28],[10.695,57.2825]]}},{"type":"Feature","properties":{"depth":30,"source":"DDM 2024 coarse contour","resolution":"0.005 degree sampled grid","scope":"denmark","tileSource":"contours-denmark-coarse.geojson"},"geometry":{"type":"LineString","coordinates":[[10.755001,57.531031],[10.75,57.53],[10.715,57.515],[10.713333,57.5],[10.7425,57.465],[10.7525,57.44],[10.755001,57.384387]]}},{"type":"Feature","properties":{"depth":30,"source":"DDM 2024 coarse contour","resolution":"0.005 degree sampled grid","scope":"denmark","tileSource":"contours-denmark-coarse.geojson"},"geometry":{"type":"LineString","coordinates":[[10.755001,57.327435],[10.754286,57.325],[10.737,57.31],[10.735515,57.3],[10.74148,57.28],[10.755,57.267317],[10.755001,57.267318]]}},{"type":"Feature","properties":{"depth":30,"source":"DDM 2024 coarse contour","resolution":"0.005 degree sampled grid","scope":"denmark","tileSource":"contours-denmark-coarse.geojson"},"geometry":{"type":"LineString","coordinates":[[10.755001,57.283492],[10.75329,57.29],[10.755001,57.296392]]}}]}