{"type":"FeatureCollection","name":"DDM contour tile r00_c06","bbox":[10.28,54.35,10.755,54.825],"metadata":{"schema":"waternav-ddm-contour-tile-v1","version":"v45.3","tileId":"r00_c06","source":"Danmarks Dybdemodel 2024 ddm_50m.dybde.tiff via bundled DDM contour GeoJSON files"},"features":[{"type":"Feature","properties":{"depth":1,"source":"DDM 2024 coarse contour","resolution":"0.005 degree sampled grid","scope":"denmark","tileSource":"contours-denmark-coarse.geojson"},"geometry":{"type":"LineString","coordinates":[[10.279999,54.704897],[10.335,54.649903],[10.34,54.649903],[10.36,54.629906],[10.365,54.629906],[10.375,54.61991],[10.39,54.619911],[10.395,54.614912],[10.41,54.614916],[10.415,54.609913],[10.425,54.60991],[10.43,54.60491],[10.445,54.604917],[10.45,54.599918],[10.465,54.599914],[10.47,54.594914],[10.48,54.594913],[10.485,54.589913],[10.5,54.589918],[10.505,54.584918],[10.515,54.584917],[10.52,54.579917],[10.535,54.579917],[10.54,54.57492],[10.55,54.57492],[10.555,54.56992],[10.565,54.569919],[10.57,54.564918],[10.595,54.559923],[10.6,54.55492],[10.62,54.554915],[10.625,54.549914],[10.65,54.549909],[10.655,54.54491],[10.685,54.544897],[10.69,54.549897],[10.735,54.549895],[10.74,54.554893],[10.745,54.554893],[10.75,54.559891],[10.755,54.559891],[10.755001,54.559892]]}},{"type":"Feature","properties":{"depth":1,"source":"DDM 2024 coarse contour","resolution":"0.005 degree sampled grid","scope":"denmark","tileSource":"contours-denmark-coarse.geojson"},"geometry":{"type":"LineString","coordinates":[[10.755001,54.785018],[10.754989,54.785],[10.754985,54.78],[10.75,54.774242],[10.74998,54.765],[10.739984,54.75],[10.739987,54.745],[10.725,54.730018],[10.715,54.725016],[10.705,54.725005],[10.7,54.720022],[10.685,54.720027],[10.665016,54.74],[10.665008,54.75],[10.67,54.754979],[10.675003,54.755],[10.670017,54.76],[10.670009,54.765],[10.655021,54.78],[10.660004,54.79],[10.655001,54.8],[10.645,54.810004],[10.64,54.810018],[10.620001,54.825001]]}},{"type":"Feature","properties":{"depth":1,"source":"DDM 2024 coarse contour","resolution":"0.005 degree sampled grid","scope":"denmark","tileSource":"contours-denmark-coarse.geojson"},"geometry":{"type":"LineString","coordinates":[[10.437717,54.825001],[10.43,54.815018],[10.415,54.815019],[10.400525,54.825001]]}},{"type":"Feature","properties":{"depth":2,"source":"DDM 2024 coarse contour","resolution":"0.005 degree sampled grid","scope":"denmark","tileSource":"contours-denmark-coarse.geojson"},"geometry":{"type":"LineString","coordinates":[[10.279999,54.704902],[10.335,54.649908],[10.34,54.649908],[10.36,54.629911],[10.365,54.629911],[10.375,54.619915],[10.39,54.619916],[10.395,54.614917],[10.41,54.614921],[10.415,54.609918],[10.425,54.609915],[10.43,54.604915],[10.445,54.604922],[10.45,54.599923],[10.465,54.599919],[10.47,54.594919],[10.48,54.594918],[10.485,54.589917],[10.5,54.589923],[10.505,54.584923],[10.515,54.584922],[10.52,54.579922],[10.535,54.579922],[10.54,54.574925],[10.55,54.574925],[10.555,54.569925],[10.565,54.569924],[10.57,54.564923],[10.595,54.559928],[10.6,54.554925],[10.62,54.55492],[10.625,54.549919],[10.65,54.549914],[10.655,54.544915],[10.685,54.544902],[10.69,54.549902],[10.735,54.5499],[10.74,54.554898],[10.745,54.554898],[10.75,54.559896],[10.755,54.559896],[10.755001,54.559897]]}},{"type":"Feature","properties":{"depth":2,"source":"DDM 2024 coarse contour","resolution":"0.005 degree sampled grid","scope":"denmark","tileSource":"contours-denmark-coarse.geojson"},"geometry":{"type":"LineString","coordinates":[[10.755001,54.785009],[10.754994,54.785],[10.749985,54.765],[10.739989,54.75],[10.739992,54.745],[10.725,54.730013],[10.715,54.725011],[10.705,54.725],[10.7,54.720017],[10.685,54.720022],[10.665011,54.74],[10.665003,54.75],[10.67,54.754984],[10.674571,54.755],[10.670012,54.76],[10.670004,54.765],[10.655016,54.78],[10.659767,54.79],[10.654079,54.8],[10.644643,54.81],[10.64,54.810013],[10.62,54.824538],[10.605739,54.825001]]}},{"type":"Feature","properties":{"depth":2,"source":"DDM 2024 coarse contour","resolution":"0.005 degree sampled grid","scope":"denmark","tileSource":"contours-denmark-coarse.geojson"},"geometry":{"type":"LineString","coordinates":[[10.439989,54.825001],[10.439989,54.825],[10.43,54.815013],[10.415,54.815014],[10.399374,54.825001]]}},{"type":"Feature","properties":{"depth":3,"source":"DDM 2024 coarse contour","resolution":"0.005 degree sampled grid","scope":"denmark","tileSource":"contours-denmark-coarse.geojson"},"geometry":{"type":"LineString","coordinates":[[10.279999,54.704907],[10.335,54.649913],[10.34,54.649913],[10.36,54.629916],[10.365,54.629916],[10.375,54.619919],[10.39,54.619921],[10.395,54.614922],[10.41,54.614926],[10.415,54.609923],[10.425,54.60992],[10.43,54.604919],[10.445,54.604927],[10.45,54.599928],[10.465,54.599924],[10.47,54.594924],[10.48,54.594923],[10.485,54.589922],[10.5,54.589928],[10.505,54.584928],[10.515,54.584927],[10.52,54.579927],[10.535,54.579927],[10.54,54.57493],[10.55,54.57493],[10.555,54.56993],[10.565,54.569929],[10.57,54.564928],[10.595,54.559933],[10.6,54.55493],[10.62,54.554925],[10.625,54.549924],[10.65,54.549919],[10.655,54.544919],[10.685,54.544906],[10.69,54.549907],[10.735,54.549905],[10.74,54.554903],[10.745,54.554903],[10.75,54.559901],[10.755,54.559901],[10.755001,54.559902]]}},{"type":"Feature","properties":{"depth":3,"source":"DDM 2024 coarse contour","resolution":"0.005 degree sampled grid","scope":"denmark","tileSource":"contours-denmark-coarse.geojson"},"geometry":{"type":"LineString","coordinates":[[10.755001,54.785002],[10.754999,54.785],[10.74999,54.765],[10.739994,54.75],[10.739997,54.745],[10.725,54.730008],[10.7,54.720012],[10.685,54.720017],[10.665006,54.74],[10.663824,54.75],[10.673143,54.755],[10.669687,54.765],[10.655011,54.78],[10.658605,54.79],[10.65,54.804375],[10.62,54.823769],[10.605228,54.825001]]}},{"type":"Feature","properties":{"depth":3,"source":"DDM 2024 coarse contour","resolution":"0.005 degree sampled grid","scope":"denmark","tileSource":"contours-denmark-coarse.geojson"},"geometry":{"type":"LineString","coordinates":[[10.439994,54.825001],[10.439994,54.825],[10.43,54.815008],[10.415,54.815009],[10.398129,54.825001]]}},{"type":"Feature","properties":{"depth":5,"source":"DDM 2024 coarse contour","resolution":"0.005 degree sampled grid","scope":"denmark","tileSource":"contours-denmark-coarse.geojson"},"geometry":{"type":"LineString","coordinates":[[10.279999,54.704917],[10.335,54.649923],[10.34,54.649923],[10.36,54.629925],[10.365,54.629925],[10.375,54.619929],[10.39,54.619931],[10.395,54.614932],[10.41,54.614936],[10.415,54.609933],[10.425,54.60993],[10.43,54.604929],[10.445,54.604937],[10.45,54.599938],[10.465,54.599934],[10.47,54.594934],[10.48,54.594933],[10.485,54.589932],[10.5,54.589938],[10.505,54.584938],[10.515,54.584937],[10.52,54.579937],[10.535,54.579937],[10.54,54.574939],[10.55,54.57494],[10.555,54.569939],[10.565,54.569939],[10.57,54.564938],[10.595,54.559943],[10.6,54.55494],[10.62,54.554935],[10.625,54.549934],[10.65,54.549929],[10.655,54.544929],[10.685,54.544916],[10.69,54.549917],[10.735,54.549914],[10.74,54.554913],[10.745,54.554912],[10.75,54.559911],[10.755,54.55991],[10.755001,54.559911]]}},{"type":"Feature","properties":{"depth":5,"source":"DDM 2024 coarse contour","resolution":"0.005 degree sampled grid","scope":"denmark","tileSource":"contours-denmark-coarse.geojson"},"geometry":{"type":"LineString","coordinates":[[10.755001,54.771861],[10.754615,54.77],[10.75,54.765385],[10.75,54.755],[10.745,54.755143],[10.743043,54.745],[10.72,54.725481],[10.71,54.720465],[10.68,54.718375],[10.678333,54.725],[10.67,54.733667],[10.664839,54.735],[10.665,54.746364],[10.659397,54.75],[10.67,54.756429],[10.655001,54.78],[10.656279,54.79],[10.65,54.800208],[10.62,54.822231],[10.610344,54.825001]]}},{"type":"Feature","properties":{"depth":5,"source":"DDM 2024 coarse contour","resolution":"0.005 degree sampled grid","scope":"denmark","tileSource":"contours-denmark-coarse.geojson"},"geometry":{"type":"LineString","coordinates":[[10.440192,54.825001],[10.435,54.817321],[10.425,54.812558],[10.392854,54.825001]]}},{"type":"Feature","properties":{"depth":10,"source":"DDM 2024 coarse contour","resolution":"0.005 degree sampled grid","scope":"denmark","tileSource":"contours-denmark-coarse.geojson"},"geometry":{"type":"LineString","coordinates":[[10.279999,54.704941],[10.335,54.649947],[10.375,54.619954],[10.41,54.61496],[10.43,54.604954],[10.445,54.604961],[10.485,54.589957],[10.5,54.589963],[10.52,54.579961],[10.535,54.579961],[10.6,54.554965],[10.65,54.549953],[10.655,54.544954],[10.735,54.549939],[10.755001,54.559941]]}},{"type":"Feature","properties":{"depth":10,"source":"DDM 2024 coarse contour","resolution":"0.005 degree sampled grid","scope":"denmark","tileSource":"contours-denmark-coarse.geojson"},"geometry":{"type":"LineString","coordinates":[[10.755001,54.745438],[10.754828,54.745],[10.725,54.705357],[10.68,54.711167],[10.66,54.726207],[10.654492,54.735],[10.6552,54.755],[10.640577,54.78],[10.645463,54.8],[10.625,54.816049],[10.601073,54.825001]]}},{"type":"Feature","properties":{"depth":10,"source":"DDM 2024 coarse contour","resolution":"0.005 degree sampled grid","scope":"denmark","tileSource":"contours-denmark-coarse.geojson"},"geometry":{"type":"LineString","coordinates":[[10.551134,54.825001],[10.550652,54.82],[10.555,54.815],[10.55,54.8125],[10.541923,54.815],[10.535,54.824444],[10.533202,54.825001]]}},{"type":"Feature","properties":{"depth":10,"source":"DDM 2024 coarse contour","resolution":"0.005 degree sampled grid","scope":"denmark","tileSource":"contours-denmark-coarse.geojson"},"geometry":{"type":"LineString","coordinates":[[10.453223,54.825001],[10.435,54.809014],[10.405,54.804545],[10.395,54.812727],[10.38,54.815417],[10.369146,54.825001]]}},{"type":"Feature","properties":{"depth":10,"source":"DDM 2024 coarse contour","resolution":"0.005 degree sampled grid","scope":"denmark","tileSource":"contours-denmark-coarse.geojson"},"geometry":{"type":"LineString","coordinates":[[10.446875,54.76],[10.45069,54.755],[10.448235,54.745],[10.44,54.737105],[10.42,54.73617],[10.401875,54.745],[10.431,54.75],[10.41,54.755],[10.42,54.76],[10.446875,54.76]]}},{"type":"Feature","properties":{"depth":10,"source":"DDM 2024 coarse contour","resolution":"0.005 degree sampled grid","scope":"denmark","tileSource":"contours-denmark-coarse.geojson"},"geometry":{"type":"LineString","coordinates":[[10.560431,54.775],[10.545,54.770156],[10.538095,54.775],[10.560431,54.775]]}},{"type":"Feature","properties":{"depth":15,"source":"DDM 2024 coarse contour","resolution":"0.005 degree sampled grid","scope":"denmark","tileSource":"contours-denmark-coarse.geojson"},"geometry":{"type":"LineString","coordinates":[[10.755001,54.734648],[10.724531,54.7],[10.718542,54.67],[10.706863,54.66],[10.695,54.655694],[10.674211,54.66],[10.665952,54.685],[10.670385,54.69],[10.664091,54.695],[10.6685,54.705],[10.656538,54.71],[10.661951,54.715],[10.65,54.725],[10.65,54.736071],[10.641875,54.745],[10.645,54.75],[10.635,54.771538],[10.63,54.774444],[10.62125,54.77],[10.63,54.754333],[10.5845,54.75],[10.595313,54.76],[10.59,54.775],[10.62,54.770625],[10.624375,54.775],[10.622857,54.78],[10.61,54.78375],[10.6025,54.795],[10.62,54.795],[10.6225,54.79],[10.615,54.805],[10.605,54.811875],[10.59,54.816667],[10.58,54.810938],[10.565,54.817],[10.57,54.802],[10.56,54.800435],[10.535,54.813137],[10.53,54.8204],[10.515,54.820926],[10.50471,54.825001]]}},{"type":"Feature","properties":{"depth":15,"source":"DDM 2024 coarse contour","resolution":"0.005 degree sampled grid","scope":"denmark","tileSource":"contours-denmark-coarse.geojson"},"geometry":{"type":"LineString","coordinates":[[10.490001,54.825001],[10.49,54.825],[10.49375,54.82],[10.475,54.822174],[10.44,54.806275],[10.415,54.799745],[10.4,54.801087],[10.357266,54.825001]]}},{"type":"Feature","properties":{"depth":15,"source":"DDM 2024 coarse contour","resolution":"0.005 degree sampled grid","scope":"denmark","tileSource":"contours-denmark-coarse.geojson"},"geometry":{"type":"LineString","coordinates":[[10.279999,54.704966],[10.335,54.649972],[10.375,54.619978],[10.41,54.614985],[10.43,54.604978],[10.445,54.604986],[10.485,54.589981],[10.5,54.589987],[10.52,54.579986],[10.535,54.579986],[10.6,54.554989],[10.65,54.549978],[10.655,54.544978],[10.735,54.549963],[10.755001,54.559965]]}},{"type":"Feature","properties":{"depth":15,"source":"DDM 2024 coarse contour","resolution":"0.005 degree sampled grid","scope":"denmark","tileSource":"contours-denmark-coarse.geojson"},"geometry":{"type":"LineString","coordinates":[[10.52,54.71],[10.5035,54.705],[10.51,54.710833],[10.52,54.71]]}},{"type":"Feature","properties":{"depth":15,"source":"DDM 2024 coarse contour","resolution":"0.005 degree sampled grid","scope":"denmark","tileSource":"contours-denmark-coarse.geojson"},"geometry":{"type":"LineString","coordinates":[[10.425593,54.77],[10.43,54.763594],[10.451862,54.76],[10.460263,54.74],[10.445,54.731176],[10.425,54.729667],[10.41,54.717],[10.395,54.721],[10.3375,54.71],[10.3425,54.715],[10.333571,54.72],[10.351071,54.73],[10.355,54.741818],[10.37,54.75],[10.371,54.745],[10.391296,54.74],[10.39,54.746379],[10.37,54.75],[10.37275,54.76],[10.4,54.772292],[10.425593,54.77]]}},{"type":"Feature","properties":{"depth":15,"source":"DDM 2024 coarse contour","resolution":"0.005 degree sampled grid","scope":"denmark","tileSource":"contours-denmark-coarse.geojson"},"geometry":{"type":"LineString","coordinates":[[10.291667,54.75],[10.3095,54.745],[10.305,54.73],[10.279999,54.736667]]}},{"type":"Feature","properties":{"depth":15,"source":"DDM 2024 coarse contour","resolution":"0.005 degree sampled grid","scope":"denmark","tileSource":"contours-denmark-coarse.geojson"},"geometry":{"type":"LineString","coordinates":[[10.279999,54.749473],[10.28,54.749474],[10.291667,54.75]]}},{"type":"Feature","properties":{"depth":15,"source":"DDM 2024 coarse contour","resolution":"0.005 degree sampled grid","scope":"denmark","tileSource":"contours-denmark-coarse.geojson"},"geometry":{"type":"LineString","coordinates":[[10.513889,54.76],[10.526277,54.755],[10.52,54.753259],[10.50934,54.76],[10.513889,54.76]]}},{"type":"Feature","properties":{"depth":15,"source":"DDM 2024 coarse contour","resolution":"0.005 degree sampled grid","scope":"denmark","tileSource":"contours-denmark-coarse.geojson"},"geometry":{"type":"LineString","coordinates":[[10.52619,54.805],[10.540882,54.795],[10.545667,54.785],[10.564741,54.775],[10.566667,54.765],[10.56,54.764615],[10.555789,54.755],[10.531,54.76],[10.537895,54.77],[10.497222,54.805],[10.51,54.808534],[10.52619,54.805]]}},{"type":"Feature","properties":{"depth":15,"source":"DDM 2024 coarse contour","resolution":"0.005 degree sampled grid","scope":"denmark","tileSource":"contours-denmark-coarse.geojson"},"geometry":{"type":"LineString","coordinates":[[10.319561,54.825001],[10.32,54.824375],[10.319126,54.825001]]}},{"type":"Feature","properties":{"depth":20,"source":"DDM 2024 coarse contour","resolution":"0.005 degree sampled grid","scope":"denmark","tileSource":"contours-denmark-coarse.geojson"},"geometry":{"type":"LineString","coordinates":[[10.755001,54.726133],[10.742,54.715],[10.723919,54.665],[10.695,54.652727],[10.658492,54.655],[10.664167,54.665],[10.65,54.68],[10.6564,54.69],[10.651719,54.7],[10.6545,54.705],[10.645,54.715],[10.56,54.748256],[10.535,54.754433],[10.515,54.752545],[10.505,54.760909],[10.53141,54.77],[10.49,54.796875],[10.485,54.791923],[10.455,54.8],[10.4,54.797938],[10.36,54.820106],[10.345596,54.825001]]}},{"type":"Feature","properties":{"depth":20,"source":"DDM 2024 coarse contour","resolution":"0.005 degree sampled grid","scope":"denmark","tileSource":"contours-denmark-coarse.geojson"},"geometry":{"type":"LineString","coordinates":[[10.330073,54.825001],[10.337321,54.815],[10.356818,54.81],[10.335,54.809481],[10.317667,54.815],[10.310381,54.825001]]}},{"type":"Feature","properties":{"depth":20,"source":"DDM 2024 coarse contour","resolution":"0.005 degree sampled grid","scope":"denmark","tileSource":"contours-denmark-coarse.geojson"},"geometry":{"type":"LineString","coordinates":[[10.279999,54.705779],[10.36,54.629999],[10.375,54.6275],[10.41,54.638182],[10.435,54.6275],[10.43,54.63],[10.431429,54.635],[10.413214,54.645],[10.42,54.65],[10.4,54.655],[10.39,54.665],[10.395,54.66],[10.403333,54.665],[10.379444,54.67],[10.385,54.671739],[10.41,54.671842],[10.416667,54.66],[10.43,54.653333],[10.445,54.654],[10.4325,54.66],[10.435,54.666875],[10.445,54.67],[10.46,54.67],[10.47,54.6625],[10.475,54.66625],[10.48,54.662],[10.49,54.665],[10.49,54.659],[10.49,54.665],[10.5,54.671029],[10.555,54.666923],[10.575,54.6718],[10.598333,54.67],[10.635326,54.655],[10.6325,54.65],[10.638,54.645],[10.64,54.63],[10.630714,54.625],[10.639615,54.615],[10.64,54.595],[10.625,54.59],[10.625,54.58],[10.66,54.555],[10.665,54.545],[10.685,54.54499],[10.69,54.54999],[10.735,54.549988],[10.755001,54.55999]]}},{"type":"Feature","properties":{"depth":20,"source":"DDM 2024 coarse contour","resolution":"0.005 degree sampled grid","scope":"denmark","tileSource":"contours-denmark-coarse.geojson"},"geometry":{"type":"LineString","coordinates":[[10.755001,54.627499],[10.755,54.6275],[10.745,54.622955],[10.741667,54.63],[10.755001,54.63529]]}},{"type":"Feature","properties":{"depth":20,"source":"DDM 2024 coarse contour","resolution":"0.005 degree sampled grid","scope":"denmark","tileSource":"contours-denmark-coarse.geojson"},"geometry":{"type":"LineString","coordinates":[[10.393333,54.78],[10.45,54.763795],[10.47,54.744375],[10.489,54.74],[10.495,54.731111],[10.508929,54.735],[10.50069,54.745],[10.54,54.745172],[10.55,54.736903],[10.555,54.73825],[10.593857,54.72],[10.603889,54.71],[10.604286,54.7],[10.58375,54.7],[10.5625,54.69],[10.51,54.693311],[10.485,54.689637],[10.43,54.697778],[10.406154,54.695],[10.385,54.702719],[10.355,54.699619],[10.32,54.703839],[10.305682,54.71],[10.325,54.72875],[10.333889,54.73],[10.337321,54.74],[10.361034,54.755],[10.361389,54.76],[10.354565,54.765],[10.37375,54.775],[10.375,54.782188],[10.393333,54.78]]}},{"type":"Feature","properties":{"depth":20,"source":"DDM 2024 coarse contour","resolution":"0.005 degree sampled grid","scope":"denmark","tileSource":"contours-denmark-coarse.geojson"},"geometry":{"type":"LineString","coordinates":[[10.3,54.76],[10.321731,54.745],[10.314706,54.73],[10.295,54.7144],[10.279999,54.7186]]}},{"type":"Feature","properties":{"depth":20,"source":"DDM 2024 coarse contour","resolution":"0.005 degree sampled grid","scope":"denmark","tileSource":"contours-denmark-coarse.geojson"},"geometry":{"type":"LineString","coordinates":[[10.279999,54.759409],[10.3,54.76]]}},{"type":"Feature","properties":{"depth":20,"source":"DDM 2024 coarse contour","resolution":"0.005 degree sampled grid","scope":"denmark","tileSource":"contours-denmark-coarse.geojson"},"geometry":{"type":"LineString","coordinates":[[10.490761,54.755],[10.49,54.746739],[10.477931,54.755],[10.48,54.758158],[10.490761,54.755]]}},{"type":"Feature","properties":{"depth":30,"source":"DDM 2024 coarse contour","resolution":"0.005 degree sampled grid","scope":"denmark","tileSource":"contours-denmark-coarse.geojson"},"geometry":{"type":"LineString","coordinates":[[10.41,54.690455],[10.39,54.69],[10.413235,54.69],[10.41,54.690455]]}},{"type":"Feature","properties":{"depth":30,"source":"DDM 2024 coarse contour","resolution":"0.005 degree sampled grid","scope":"denmark","tileSource":"contours-denmark-coarse.geojson"},"geometry":{"type":"LineString","coordinates":[[10.295,54.815278],[10.28375,54.815],[10.338333,54.8],[10.337917,54.805],[10.295,54.815278]]}}]}