{"type":"FeatureCollection","name":"DDM contour tile r02_c02","bbox":[8.36,55.31,8.835,55.785],"metadata":{"schema":"waternav-ddm-contour-tile-v1","version":"v45.3","tileId":"r02_c02","source":"Danmarks Dybdemodel 2024 ddm_50m.dybde.tiff via bundled DDM contour GeoJSON files"},"features":[{"type":"Feature","properties":{"depth":1,"source":"DDM 2024 coarse contour","resolution":"0.005 degree sampled grid","scope":"denmark","tileSource":"contours-denmark-coarse.geojson"},"geometry":{"type":"LineString","coordinates":[[8.545625,55.309999],[8.545625,55.31],[8.548,55.315],[8.542143,55.32],[8.555,55.3325],[8.595,55.335],[8.59,55.3375],[8.565,55.33625],[8.556786,55.35],[8.559286,55.355],[8.572,55.36],[8.575,55.365],[8.5825,55.365],[8.575,55.365],[8.5725,55.37],[8.58,55.37375],[8.5775,55.38],[8.58,55.384167],[8.585,55.3825],[8.588333,55.385],[8.593333,55.395],[8.59,55.39625],[8.58,55.385714],[8.57,55.395],[8.565278,55.385],[8.56875,55.38],[8.565,55.3755],[8.555,55.3695],[8.5445,55.37],[8.548,55.365],[8.542812,55.355],[8.543462,55.345],[8.537105,55.33],[8.53,55.324333],[8.505,55.318636],[8.485,55.318261],[8.475,55.313824],[8.459545,55.315],[8.455,55.322857],[8.445,55.326875],[8.42,55.322857],[8.416667,55.325],[8.42,55.33125],[8.408571,55.335],[8.423333,55.34],[8.42,55.343333],[8.40875,55.345],[8.42,55.35],[8.40875,55.355],[8.415,55.36],[8.403333,55.37],[8.404062,55.375],[8.394545,55.38],[8.399333,55.385],[8.39,55.3925],[8.385,55.3925],[8.385001,55.4],[8.374545,55.405],[8.375,55.410001],[8.359999,55.419092]]}},{"type":"Feature","properties":{"depth":1,"source":"DDM 2024 coarse contour","resolution":"0.005 degree sampled grid","scope":"denmark","tileSource":"contours-denmark-coarse.geojson"},"geometry":{"type":"LineString","coordinates":[[8.359999,55.475478],[8.39,55.478571],[8.4,55.474091],[8.405,55.475],[8.410833,55.46],[8.41,55.441667],[8.415,55.435],[8.445,55.442273],[8.4625,55.44],[8.475,55.430345],[8.48,55.435161],[8.4875,55.43],[8.48,55.4345],[8.475909,55.43],[8.48,55.4125],[8.505,55.425357],[8.535,55.42],[8.5375,55.425],[8.528333,55.43],[8.5325,55.445],[8.49,55.449167],[8.485,55.445007],[8.48,55.45],[8.45,55.450022],[8.44,55.460006],[8.435,55.455047],[8.425016,55.465],[8.43,55.470004],[8.42,55.47005],[8.415,55.475049],[8.405,55.475],[8.405,55.4875],[8.402143,55.49],[8.385,55.497222],[8.38,55.495],[8.377222,55.505],[8.371875,55.51],[8.36,55.515004],[8.359999,55.515005]]}},{"type":"Feature","properties":{"depth":1,"source":"DDM 2024 coarse contour","resolution":"0.005 degree sampled grid","scope":"denmark","tileSource":"contours-denmark-coarse.geojson"},"geometry":{"type":"LineString","coordinates":[[8.413333,55.315],[8.414941,55.309999]]}},{"type":"Feature","properties":{"depth":1,"source":"DDM 2024 coarse contour","resolution":"0.005 degree sampled grid","scope":"denmark","tileSource":"contours-denmark-coarse.geojson"},"geometry":{"type":"LineString","coordinates":[[8.414694,55.309999],[8.406364,55.315],[8.413333,55.315]]}},{"type":"Feature","properties":{"depth":1,"source":"DDM 2024 coarse contour","resolution":"0.005 degree sampled grid","scope":"denmark","tileSource":"contours-denmark-coarse.geojson"},"geometry":{"type":"LineString","coordinates":[[8.58,55.315909],[8.565714,55.315],[8.57,55.312692],[8.5825,55.315],[8.58,55.315909]]}},{"type":"Feature","properties":{"depth":2,"source":"DDM 2024 coarse contour","resolution":"0.005 degree sampled grid","scope":"denmark","tileSource":"contours-denmark-coarse.geojson"},"geometry":{"type":"LineString","coordinates":[[8.503055,55.309999],[8.505,55.311818],[8.506667,55.31],[8.506666,55.309999]]}},{"type":"Feature","properties":{"depth":2,"source":"DDM 2024 coarse contour","resolution":"0.005 degree sampled grid","scope":"denmark","tileSource":"contours-denmark-coarse.geojson"},"geometry":{"type":"LineString","coordinates":[[8.54091,55.309999],[8.540909,55.31],[8.54375,55.315],[8.54,55.317143],[8.535,55.312903],[8.525,55.313684],[8.520238,55.315],[8.52,55.32],[8.515,55.3175],[8.49,55.3175],[8.48,55.312419],[8.465,55.312568],[8.445,55.321818],[8.435,55.322941],[8.42,55.318889],[8.417609,55.31],[8.408636,55.31],[8.401111,55.315],[8.405909,55.325],[8.414375,55.33],[8.40375,55.34],[8.402083,55.365],[8.395556,55.37],[8.400937,55.375],[8.39,55.38],[8.377917,55.395],[8.38325,55.4],[8.37,55.405],[8.364,55.41],[8.365,55.415],[8.359999,55.4172]]}},{"type":"Feature","properties":{"depth":2,"source":"DDM 2024 coarse contour","resolution":"0.005 degree sampled grid","scope":"denmark","tileSource":"contours-denmark-coarse.geojson"},"geometry":{"type":"LineString","coordinates":[[8.359999,55.474377],[8.365,55.475851],[8.37,55.48028],[8.39,55.480482],[8.395,55.476429],[8.405,55.47551],[8.405,55.484889],[8.399211,55.485],[8.39,55.493684],[8.375,55.492778],[8.359999,55.511595]]}},{"type":"Feature","properties":{"depth":2,"source":"DDM 2024 coarse contour","resolution":"0.005 degree sampled grid","scope":"denmark","tileSource":"contours-denmark-coarse.geojson"},"geometry":{"type":"LineString","coordinates":[[8.55,55.331],[8.54,55.330714],[8.53,55.321],[8.52,55.32],[8.536,55.32],[8.545,55.325],[8.545,55.33],[8.55,55.331]]}},{"type":"Feature","properties":{"depth":2,"source":"DDM 2024 coarse contour","resolution":"0.005 degree sampled grid","scope":"denmark","tileSource":"contours-denmark-coarse.geojson"},"geometry":{"type":"LineString","coordinates":[[8.51,55.436818],[8.5,55.438333],[8.496154,55.435],[8.505,55.428929],[8.51,55.43],[8.512857,55.435],[8.51,55.436818]]}},{"type":"Feature","properties":{"depth":2,"source":"DDM 2024 coarse contour","resolution":"0.005 degree sampled grid","scope":"denmark","tileSource":"contours-denmark-coarse.geojson"},"geometry":{"type":"LineString","coordinates":[[8.415,55.475044],[8.4054,55.475],[8.415,55.451458],[8.42,55.453333],[8.43,55.4455],[8.475,55.440377],[8.485,55.433438],[8.49125,55.435],[8.494444,55.44],[8.478594,55.45],[8.45,55.450017],[8.44,55.460001],[8.435,55.455042],[8.425011,55.465],[8.4298,55.47],[8.42,55.470045],[8.415,55.475044]]}},{"type":"Feature","properties":{"depth":3,"source":"DDM 2024 coarse contour","resolution":"0.005 degree sampled grid","scope":"denmark","tileSource":"contours-denmark-coarse.geojson"},"geometry":{"type":"LineString","coordinates":[[8.486248,55.309999],[8.48625,55.31],[8.46,55.3115],[8.435,55.32],[8.425,55.318056],[8.417017,55.309999]]}},{"type":"Feature","properties":{"depth":3,"source":"DDM 2024 coarse contour","resolution":"0.005 degree sampled grid","scope":"denmark","tileSource":"contours-denmark-coarse.geojson"},"geometry":{"type":"LineString","coordinates":[[8.39501,55.309999],[8.395,55.31],[8.396,55.315],[8.387692,55.32],[8.401923,55.325],[8.4,55.328571],[8.3925,55.33],[8.402222,55.335],[8.39875,55.34],[8.400333,55.355],[8.393125,55.36],[8.397222,55.365],[8.38875,55.37],[8.38125,55.39],[8.374,55.395],[8.38075,55.4],[8.37,55.402368],[8.359999,55.409153]]}},{"type":"Feature","properties":{"depth":3,"source":"DDM 2024 coarse contour","resolution":"0.005 degree sampled grid","scope":"denmark","tileSource":"contours-denmark-coarse.geojson"},"geometry":{"type":"LineString","coordinates":[[8.359999,55.41157],[8.362727,55.415],[8.359999,55.4162]]}},{"type":"Feature","properties":{"depth":3,"source":"DDM 2024 coarse contour","resolution":"0.005 degree sampled grid","scope":"denmark","tileSource":"contours-denmark-coarse.geojson"},"geometry":{"type":"LineString","coordinates":[[8.359999,55.475529],[8.368021,55.48],[8.39,55.481084],[8.405,55.47602],[8.405,55.484333],[8.396579,55.485],[8.39,55.491053],[8.373913,55.49],[8.359999,55.50886]]}},{"type":"Feature","properties":{"depth":3,"source":"DDM 2024 coarse contour","resolution":"0.005 degree sampled grid","scope":"denmark","tileSource":"contours-denmark-coarse.geojson"},"geometry":{"type":"LineString","coordinates":[[8.535,55.31129],[8.51,55.314286],[8.507869,55.309999]]}},{"type":"Feature","properties":{"depth":3,"source":"DDM 2024 coarse contour","resolution":"0.005 degree sampled grid","scope":"denmark","tileSource":"contours-denmark-coarse.geojson"},"geometry":{"type":"LineString","coordinates":[[8.535953,55.309999],[8.535,55.31129]]}},{"type":"Feature","properties":{"depth":3,"source":"DDM 2024 coarse contour","resolution":"0.005 degree sampled grid","scope":"denmark","tileSource":"contours-denmark-coarse.geojson"},"geometry":{"type":"LineString","coordinates":[[8.505,55.315606],[8.486923,55.315],[8.49,55.311364],[8.509,55.315],[8.505,55.315606]]}},{"type":"Feature","properties":{"depth":3,"source":"DDM 2024 coarse contour","resolution":"0.005 degree sampled grid","scope":"denmark","tileSource":"contours-denmark-coarse.geojson"},"geometry":{"type":"LineString","coordinates":[[8.415,55.475039],[8.4058,55.475],[8.415,55.453542],[8.42,55.4558],[8.435,55.448125],[8.475,55.441321],[8.485,55.436042],[8.489524,55.44],[8.477031,55.45],[8.45,55.450012],[8.44,55.459239],[8.435,55.455037],[8.425006,55.465],[8.4278,55.47],[8.42,55.47004],[8.415,55.475039]]}},{"type":"Feature","properties":{"depth":5,"source":"DDM 2024 coarse contour","resolution":"0.005 degree sampled grid","scope":"denmark","tileSource":"contours-denmark-coarse.geojson"},"geometry":{"type":"LineString","coordinates":[[8.359999,55.325],[8.36,55.325],[8.359999,55.325001]]}},{"type":"Feature","properties":{"depth":5,"source":"DDM 2024 coarse contour","resolution":"0.005 degree sampled grid","scope":"denmark","tileSource":"contours-denmark-coarse.geojson"},"geometry":{"type":"LineString","coordinates":[[8.359999,55.341795],[8.382857,55.35],[8.368889,55.355],[8.384167,55.36],[8.38,55.364167],[8.372778,55.365],[8.38,55.37],[8.3675,55.375],[8.3635,55.385],[8.359999,55.386645]]}},{"type":"Feature","properties":{"depth":5,"source":"DDM 2024 coarse contour","resolution":"0.005 degree sampled grid","scope":"denmark","tileSource":"contours-denmark-coarse.geojson"},"geometry":{"type":"LineString","coordinates":[[8.359999,55.392812],[8.365556,55.395],[8.359999,55.395893]]}},{"type":"Feature","properties":{"depth":5,"source":"DDM 2024 coarse contour","resolution":"0.005 degree sampled grid","scope":"denmark","tileSource":"contours-denmark-coarse.geojson"},"geometry":{"type":"LineString","coordinates":[[8.44,55.315217],[8.425,55.312353],[8.420998,55.309999]]}},{"type":"Feature","properties":{"depth":5,"source":"DDM 2024 coarse contour","resolution":"0.005 degree sampled grid","scope":"denmark","tileSource":"contours-denmark-coarse.geojson"},"geometry":{"type":"LineString","coordinates":[[8.457797,55.309999],[8.4578,55.31],[8.44,55.315217]]}},{"type":"Feature","properties":{"depth":5,"source":"DDM 2024 coarse contour","resolution":"0.005 degree sampled grid","scope":"denmark","tileSource":"contours-denmark-coarse.geojson"},"geometry":{"type":"LineString","coordinates":[[8.375,55.320625],[8.365,55.323571],[8.363684,55.32],[8.373333,55.315],[8.366207,55.31],[8.366208,55.309999]]}},{"type":"Feature","properties":{"depth":5,"source":"DDM 2024 coarse contour","resolution":"0.005 degree sampled grid","scope":"denmark","tileSource":"contours-denmark-coarse.geojson"},"geometry":{"type":"LineString","coordinates":[[8.383004,55.309999],[8.383,55.31],[8.375714,55.315],[8.375,55.320625]]}},{"type":"Feature","properties":{"depth":5,"source":"DDM 2024 coarse contour","resolution":"0.005 degree sampled grid","scope":"denmark","tileSource":"contours-denmark-coarse.geojson"},"geometry":{"type":"LineString","coordinates":[[8.53,55.310581],[8.515,55.312],[8.514387,55.309999]]}},{"type":"Feature","properties":{"depth":5,"source":"DDM 2024 coarse contour","resolution":"0.005 degree sampled grid","scope":"denmark","tileSource":"contours-denmark-coarse.geojson"},"geometry":{"type":"LineString","coordinates":[[8.530241,55.309999],[8.53,55.310581]]}},{"type":"Feature","properties":{"depth":5,"source":"DDM 2024 coarse contour","resolution":"0.005 degree sampled grid","scope":"denmark","tileSource":"contours-denmark-coarse.geojson"},"geometry":{"type":"LineString","coordinates":[[8.415,55.475029],[8.4066,55.475],[8.417027,55.46],[8.43,55.452838],[8.455,55.449259],[8.47,55.443158],[8.477639,55.445],[8.474364,55.45],[8.445,55.45],[8.445,55.455031],[8.44,55.457065],[8.435,55.455027],[8.424429,55.465],[8.424545,55.47],[8.42,55.47003],[8.415,55.475029]]}},{"type":"Feature","properties":{"depth":5,"source":"DDM 2024 coarse contour","resolution":"0.005 degree sampled grid","scope":"denmark","tileSource":"contours-denmark-coarse.geojson"},"geometry":{"type":"LineString","coordinates":[[8.359999,55.490396],[8.36034,55.49],[8.359999,55.489619]]}},{"type":"Feature","properties":{"depth":5,"source":"DDM 2024 coarse contour","resolution":"0.005 degree sampled grid","scope":"denmark","tileSource":"contours-denmark-coarse.geojson"},"geometry":{"type":"LineString","coordinates":[[8.359999,55.476261],[8.365938,55.48],[8.385,55.481371],[8.393814,55.485],[8.39,55.488689],[8.37,55.489919],[8.368947,55.495],[8.359999,55.502671]]}},{"type":"Feature","properties":{"depth":5,"source":"DDM 2024 coarse contour","resolution":"0.005 degree sampled grid","scope":"denmark","tileSource":"contours-denmark-coarse.geojson"},"geometry":{"type":"LineString","coordinates":[[8.405,55.483222],[8.394419,55.48],[8.405,55.477041],[8.405,55.483222]]}},{"type":"Feature","properties":{"depth":10,"source":"DDM 2024 coarse contour","resolution":"0.005 degree sampled grid","scope":"denmark","tileSource":"contours-denmark-coarse.geojson"},"geometry":{"type":"LineString","coordinates":[[8.415,55.475004],[8.4086,55.475],[8.42,55.4635],[8.420758,55.47],[8.415,55.475004]]}},{"type":"Feature","properties":{"depth":10,"source":"DDM 2024 coarse contour","resolution":"0.005 degree sampled grid","scope":"denmark","tileSource":"contours-denmark-coarse.geojson"},"geometry":{"type":"LineString","coordinates":[[8.36,55.486392],[8.359999,55.486391]]}},{"type":"Feature","properties":{"depth":10,"source":"DDM 2024 coarse contour","resolution":"0.005 degree sampled grid","scope":"denmark","tileSource":"contours-denmark-coarse.geojson"},"geometry":{"type":"LineString","coordinates":[[8.359999,55.478469],[8.363066,55.48],[8.36,55.486392]]}},{"type":"Feature","properties":{"depth":10,"source":"DDM 2024 coarse contour","resolution":"0.005 degree sampled grid","scope":"denmark","tileSource":"contours-denmark-coarse.geojson"},"geometry":{"type":"LineString","coordinates":[[8.385,55.486923],[8.365663,55.485],[8.389444,55.485],[8.385,55.486923]]}},{"type":"Feature","properties":{"depth":10,"source":"DDM 2024 coarse contour","resolution":"0.005 degree sampled grid","scope":"denmark","tileSource":"contours-denmark-coarse.geojson"},"geometry":{"type":"LineString","coordinates":[[8.365,55.496289],[8.359999,55.495095]]}},{"type":"Feature","properties":{"depth":10,"source":"DDM 2024 coarse contour","resolution":"0.005 degree sampled grid","scope":"denmark","tileSource":"contours-denmark-coarse.geojson"},"geometry":{"type":"LineString","coordinates":[[8.359999,55.494337],[8.365,55.485965],[8.365,55.496289]]}}]}