{"type":"FeatureCollection","name":"DDM contour tile r02_c01","bbox":[7.88,55.31,8.355,55.785],"metadata":{"schema":"waternav-ddm-contour-tile-v1","version":"v45.3","tileId":"r02_c01","source":"Danmarks Dybdemodel 2024 ddm_50m.dybde.tiff via bundled DDM contour GeoJSON files"},"features":[{"type":"Feature","properties":{"depth":1,"source":"DDM 2024 coarse contour","resolution":"0.005 degree sampled grid","scope":"denmark","tileSource":"contours-denmark-coarse.geojson"},"geometry":{"type":"LineString","coordinates":[[8.355001,55.423667],[8.348958,55.43],[8.325,55.44],[8.325003,55.445],[8.318333,55.45],[8.32,55.452647],[8.355,55.474963],[8.355001,55.474963]]}},{"type":"Feature","properties":{"depth":1,"source":"DDM 2024 coarse contour","resolution":"0.005 degree sampled grid","scope":"denmark","tileSource":"contours-denmark-coarse.geojson"},"geometry":{"type":"LineString","coordinates":[[8.355001,55.520002],[8.35,55.525002],[8.345,55.525009],[8.335,55.535009],[8.33,55.535007],[8.29,55.564375],[8.285,55.557727],[8.275,55.559474],[8.24,55.5545],[8.25,55.542778],[8.26,55.54],[8.265,55.542273],[8.274444,55.535],[8.258333,55.525],[8.279,55.515],[8.285,55.514999],[8.292273,55.505],[8.298,55.505],[8.296667,55.51],[8.3,55.513333],[8.305,55.5125],[8.305,55.518],[8.301667,55.52],[8.305,55.525],[8.31,55.525],[8.335,55.505],[8.33,55.5],[8.31,55.494265],[8.31,55.485],[8.304984,55.485],[8.31,55.485],[8.309991,55.48],[8.305,55.475001],[8.285,55.475007],[8.273939,55.485],[8.22,55.510004],[8.215,55.515002],[8.185,55.525008],[8.179167,55.53],[8.162941,55.535],[8.145,55.535015],[8.137222,55.54],[8.125,55.54001],[8.119286,55.545],[8.11,55.545004],[8.1025,55.55],[8.08,55.552],[8.06,55.548125],[8.04,55.530625],[8.03,55.527],[8.0285,55.53],[8.04,55.549995],[8.065,55.558333],[8.095005,55.595],[8.100005,55.61],[8.110007,55.62],[8.115003,55.635],[8.125006,55.645],[8.124545,55.65],[8.160004,55.715],[8.160009,55.725],[8.165,55.730357],[8.16501,55.74],[8.17,55.746458],[8.170018,55.76],[8.174677,55.77],[8.174318,55.785],[8.174317,55.785001]]}},{"type":"Feature","properties":{"depth":1,"source":"DDM 2024 coarse contour","resolution":"0.005 degree sampled grid","scope":"denmark","tileSource":"contours-denmark-coarse.geojson"},"geometry":{"type":"LineString","coordinates":[[7.977,55.53],[7.975,55.51987],[7.974535,55.53],[7.977,55.53]]}},{"type":"Feature","properties":{"depth":2,"source":"DDM 2024 coarse contour","resolution":"0.005 degree sampled grid","scope":"denmark","tileSource":"contours-denmark-coarse.geojson"},"geometry":{"type":"LineString","coordinates":[[8.355001,55.419399],[8.353636,55.42],[8.347727,55.425],[8.346875,55.43],[8.31,55.439167],[8.297885,55.445],[8.315,55.446],[8.318889,55.455],[8.325,55.454998],[8.345,55.469956],[8.355001,55.472904]]}},{"type":"Feature","properties":{"depth":2,"source":"DDM 2024 coarse contour","resolution":"0.005 degree sampled grid","scope":"denmark","tileSource":"contours-denmark-coarse.geojson"},"geometry":{"type":"LineString","coordinates":[[8.355001,55.517865],[8.35,55.524138],[8.315,55.545013],[8.305,55.554444],[8.29,55.5575],[8.285,55.548571],[8.275,55.556842],[8.256,55.555],[8.27,55.545],[8.305,55.540556],[8.32,55.527917],[8.33,55.526667],[8.340625,55.52],[8.335,55.519231],[8.331765,55.515],[8.348333,55.5],[8.345,55.497333],[8.325,55.497941],[8.31,55.492794],[8.31,55.486724],[8.322,55.48],[8.32,55.469265],[8.311923,55.47],[8.31375,55.475],[8.31,55.482222],[8.308636,55.475],[8.305,55.473889],[8.285,55.475002],[8.272424,55.485],[8.235,55.504118],[8.176389,55.53],[8.125,55.540005],[8.1175,55.545],[8.110625,55.545],[8.11,55.53931],[8.1,55.54],[8.103333,55.545],[8.1,55.548333],[8.095,55.548333],[8.07,55.524762],[8.07,55.53],[8.077857,55.54],[8.075,55.544444],[8.057143,55.54],[8.062222,55.535],[8.0595,55.53],[8.04,55.515],[8.044167,55.52],[8.044,55.525],[8.04,55.527857],[8.025,55.518846],[8.019571,55.52],[8.03,55.5405],[8.04025,55.55],[8.04,55.555],[8.035,55.555],[8.045,55.554524],[8.061,55.56],[8.06,55.565909],[8.07,55.567708],[8.085,55.579996],[8.087188,55.59],[8.095,55.595],[8.1,55.61],[8.110002,55.62],[8.114,55.635],[8.125001,55.645],[8.12303,55.65],[8.14,55.677885],[8.154318,55.71],[8.159697,55.715],[8.158182,55.72],[8.17,55.748542],[8.173421,55.775],[8.172417,55.785001]]}},{"type":"Feature","properties":{"depth":2,"source":"DDM 2024 coarse contour","resolution":"0.005 degree sampled grid","scope":"denmark","tileSource":"contours-denmark-coarse.geojson"},"geometry":{"type":"LineString","coordinates":[[7.982222,55.53],[7.98,55.515],[7.96975,55.525],[7.975,55.531489],[7.982222,55.53]]}},{"type":"Feature","properties":{"depth":3,"source":"DDM 2024 coarse contour","resolution":"0.005 degree sampled grid","scope":"denmark","tileSource":"contours-denmark-coarse.geojson"},"geometry":{"type":"LineString","coordinates":[[8.355001,55.418399],[8.34,55.425],[8.344583,55.43],[8.335,55.431364],[8.33,55.427857],[8.323333,55.43],[8.32,55.436458],[8.31,55.435],[8.295962,55.445],[8.314091,55.45],[8.31125,55.455],[8.325,55.45625],[8.345,55.469961],[8.35,55.469957],[8.355001,55.472744]]}},{"type":"Feature","properties":{"depth":3,"source":"DDM 2024 coarse contour","resolution":"0.005 degree sampled grid","scope":"denmark","tileSource":"contours-denmark-coarse.geojson"},"geometry":{"type":"LineString","coordinates":[[8.355001,55.515635],[8.35,55.522414],[8.334706,55.515],[8.345,55.506429],[8.35,55.5125],[8.351667,55.51],[8.346081,55.505],[8.35,55.495714],[8.345,55.493125],[8.325,55.496471],[8.31,55.491324],[8.31,55.488448],[8.32,55.482187],[8.33,55.48],[8.345,55.481667],[8.35,55.48625],[8.345096,55.48],[8.325,55.477778],[8.32,55.468775],[8.295,55.473],[8.28,55.47],[8.28,55.480003],[8.275,55.479231],[8.270909,55.485],[8.255,55.489412],[8.235,55.502647],[8.175,55.527917],[8.135,55.5368],[8.131923,55.54],[8.12,55.5402],[8.115714,55.545],[8.11,55.537586],[8.095,55.532857],[8.09,55.538333],[8.07,55.522381],[8.065417,55.525],[8.065,55.532727],[8.04,55.513684],[8.03,55.518158],[8.017727,55.515],[8.028333,55.545],[8.02125,55.55],[8.019848,55.56],[8.025,55.560333],[8.03,55.556],[8.035,55.558846],[8.04,55.556786],[8.056,55.56],[8.055,55.568571],[8.025,55.569118],[8.025,55.57375],[8.045,55.575526],[8.055,55.570588],[8.070227,55.57],[8.074286,55.58],[8.108437,55.62],[8.1115,55.635],[8.121667,55.645],[8.121515,55.65],[8.130735,55.665],[8.129773,55.67],[8.14,55.679808],[8.152045,55.71],[8.158182,55.715],[8.155909,55.72],[8.17,55.75125],[8.172105,55.775],[8.17139,55.785001]]}},{"type":"Feature","properties":{"depth":3,"source":"DDM 2024 coarse contour","resolution":"0.005 degree sampled grid","scope":"denmark","tileSource":"contours-denmark-coarse.geojson"},"geometry":{"type":"LineString","coordinates":[[8.000263,55.55],[8.002206,55.545],[7.99525,55.54],[8.000833,55.535],[7.995,55.539667],[7.985,55.528333],[7.984545,55.515],[7.971071,55.52],[7.9685,55.525],[7.972209,55.53],[7.985,55.541923],[8.000263,55.55]]}},{"type":"Feature","properties":{"depth":3,"source":"DDM 2024 coarse contour","resolution":"0.005 degree sampled grid","scope":"denmark","tileSource":"contours-denmark-coarse.geojson"},"geometry":{"type":"LineString","coordinates":[[8.04,55.525476],[8.032917,55.52],[8.035,55.515],[8.042083,55.52],[8.04,55.525476]]}},{"type":"Feature","properties":{"depth":3,"source":"DDM 2024 coarse contour","resolution":"0.005 degree sampled grid","scope":"denmark","tileSource":"contours-denmark-coarse.geojson"},"geometry":{"type":"LineString","coordinates":[[7.938333,55.55],[7.94,55.545],[7.95,55.548],[7.955,55.546429],[7.95,55.533519],[7.945,55.543846],[7.934938,55.545],[7.935,55.551875],[7.938333,55.55]]}},{"type":"Feature","properties":{"depth":3,"source":"DDM 2024 coarse contour","resolution":"0.005 degree sampled grid","scope":"denmark","tileSource":"contours-denmark-coarse.geojson"},"geometry":{"type":"LineString","coordinates":[[8.315,55.545008],[8.30625,55.545],[8.31,55.539643],[8.32,55.53875],[8.315,55.545008]]}},{"type":"Feature","properties":{"depth":5,"source":"DDM 2024 coarse contour","resolution":"0.005 degree sampled grid","scope":"denmark","tileSource":"contours-denmark-coarse.geojson"},"geometry":{"type":"LineString","coordinates":[[8.350715,55.309999],[8.35,55.32],[8.355001,55.322501]]}},{"type":"Feature","properties":{"depth":5,"source":"DDM 2024 coarse contour","resolution":"0.005 degree sampled grid","scope":"denmark","tileSource":"contours-denmark-coarse.geojson"},"geometry":{"type":"LineString","coordinates":[[8.355001,55.328333],[8.3525,55.33],[8.355001,55.331819]]}},{"type":"Feature","properties":{"depth":5,"source":"DDM 2024 coarse contour","resolution":"0.005 degree sampled grid","scope":"denmark","tileSource":"contours-denmark-coarse.geojson"},"geometry":{"type":"LineString","coordinates":[[8.355001,55.339999],[8.355,55.34],[8.355001,55.34]]}},{"type":"Feature","properties":{"depth":5,"source":"DDM 2024 coarse contour","resolution":"0.005 degree sampled grid","scope":"denmark","tileSource":"contours-denmark-coarse.geojson"},"geometry":{"type":"LineString","coordinates":[[8.355001,55.388993],[8.352857,55.39],[8.355001,55.390844]]}},{"type":"Feature","properties":{"depth":5,"source":"DDM 2024 coarse contour","resolution":"0.005 degree sampled grid","scope":"denmark","tileSource":"contours-denmark-coarse.geojson"},"geometry":{"type":"LineString","coordinates":[[8.355001,55.396696],[8.35,55.3975],[8.345,55.403889],[8.3375,55.405],[8.345,55.4075],[8.345,55.411111],[8.34,55.41325],[8.335,55.414],[8.33,55.41],[8.333333,55.415],[8.33,55.4175],[8.316667,55.42],[8.32,55.4255],[8.31,55.421667],[8.295,55.42375],[8.29,55.417895],[8.274,55.42],[8.285,55.42],[8.29,55.425],[8.28,55.428421],[8.27,55.427353],[8.267,55.43],[8.27,55.435],[8.28,55.433333],[8.293333,55.445],[8.308514,55.45],[8.2855,55.46],[8.29,55.465909],[8.27875,55.465],[8.28,55.459286],[8.27,55.461667],[8.266,55.465],[8.266842,55.47],[8.273043,55.475],[8.27,55.477414],[8.255,55.48],[8.25,55.486905],[8.245,55.48625],[8.222,55.5],[8.22,55.505676],[8.208333,55.505],[8.195,55.51625],[8.1875,55.515],[8.18,55.521562],[8.17,55.5175],[8.15,55.525],[8.145,55.52],[8.135,55.52],[8.138846,55.525],[8.135,55.528125],[8.130455,55.525],[8.135,55.52],[8.125,55.525],[8.12,55.521667],[8.115,55.525],[8.105,55.52],[8.1,55.526875],[8.086875,55.515],[8.09,55.51],[8.080714,55.515],[8.083,55.52],[8.08,55.526724],[8.06,55.51],[8.05,55.509038],[8.045,55.513125],[8.03,55.507222],[8.025,55.51],[8.005,55.508846],[8,55.514],[7.98,55.514239],[7.966,55.525],[7.99,55.552],[8,55.553621],[8.006429,55.55],[8.000556,55.54],[8.009167,55.535],[8.001667,55.52],[8.005,55.515],[8.01,55.514],[8.015286,55.52],[8.015625,55.54],[8.011667,55.55],[8.016818,55.56],[8.02,55.562763],[8.041667,55.565],[8.025,55.566176],[8.018636,55.57],[8.014615,55.575],[8.018125,55.58],[8.025,55.585833],[8.03,55.582778],[8.04,55.587561],[8.055,55.581944],[8.07,55.583889],[8.0785,55.59],[8.075,55.593889],[8.063,55.595],[8.08,55.598571],[8.100357,55.615],[8.1,55.621],[8.105811,55.625],[8.102273,55.635],[8.115,55.652778],[8.121176,55.655],[8.121818,55.665],[8.135,55.688571],[8.140192,55.69],[8.139091,55.695],[8.154583,55.725],[8.158421,55.745],[8.1675,55.76],[8.163882,55.785001]]}},{"type":"Feature","properties":{"depth":5,"source":"DDM 2024 coarse contour","resolution":"0.005 degree sampled grid","scope":"denmark","tileSource":"contours-denmark-coarse.geojson"},"geometry":{"type":"LineString","coordinates":[[8.355,55.506957],[8.35,55.508115],[8.347432,55.505],[8.355001,55.496204]]}},{"type":"Feature","properties":{"depth":5,"source":"DDM 2024 coarse contour","resolution":"0.005 degree sampled grid","scope":"denmark","tileSource":"contours-denmark-coarse.geojson"},"geometry":{"type":"LineString","coordinates":[[8.355001,55.48461],[8.311667,55.465],[8.311923,55.46],[8.32,55.458077],[8.35,55.469967],[8.355001,55.473115]]}},{"type":"Feature","properties":{"depth":5,"source":"DDM 2024 coarse contour","resolution":"0.005 degree sampled grid","scope":"denmark","tileSource":"contours-denmark-coarse.geojson"},"geometry":{"type":"LineString","coordinates":[[8.355001,55.506956],[8.355,55.506957]]}},{"type":"Feature","properties":{"depth":5,"source":"DDM 2024 coarse contour","resolution":"0.005 degree sampled grid","scope":"denmark","tileSource":"contours-denmark-coarse.geojson"},"geometry":{"type":"LineString","coordinates":[[8.33,55.491842],[8.32,55.493193],[8.3125,55.49],[8.325,55.484444],[8.3335,55.49],[8.33,55.491842]]}},{"type":"Feature","properties":{"depth":5,"source":"DDM 2024 coarse contour","resolution":"0.005 degree sampled grid","scope":"denmark","tileSource":"contours-denmark-coarse.geojson"},"geometry":{"type":"LineString","coordinates":[[8,55.525333],[7.995,55.528889],[7.99,55.518333],[7.995,55.515682],[8.0025,55.525],[8,55.525333]]}},{"type":"Feature","properties":{"depth":5,"source":"DDM 2024 coarse contour","resolution":"0.005 degree sampled grid","scope":"denmark","tileSource":"contours-denmark-coarse.geojson"},"geometry":{"type":"LineString","coordinates":[[7.955769,55.555],[7.961389,55.54],[7.951,55.53],[7.93,55.55],[7.935,55.56],[7.945,55.553],[7.95,55.55875],[7.955769,55.555]]}},{"type":"Feature","properties":{"depth":5,"source":"DDM 2024 coarse contour","resolution":"0.005 degree sampled grid","scope":"denmark","tileSource":"contours-denmark-coarse.geojson"},"geometry":{"type":"LineString","coordinates":[[8.05,55.583],[8.034167,55.58],[8.045,55.578158],[8.0515,55.58],[8.05,55.583]]}},{"type":"Feature","properties":{"depth":10,"source":"DDM 2024 coarse contour","resolution":"0.005 degree sampled grid","scope":"denmark","tileSource":"contours-denmark-coarse.geojson"},"geometry":{"type":"LineString","coordinates":[[8.319092,55.309999],[8.319091,55.31],[8.325,55.315],[8.325,55.309999]]}},{"type":"Feature","properties":{"depth":10,"source":"DDM 2024 coarse contour","resolution":"0.005 degree sampled grid","scope":"denmark","tileSource":"contours-denmark-coarse.geojson"},"geometry":{"type":"LineString","coordinates":[[8.326071,55.309999],[8.330357,55.33],[8.327188,55.34],[8.33125,55.345],[8.325,55.365],[8.3125,55.375],[8.31,55.385],[8.29,55.4],[8.28,55.397419],[8.275789,55.4],[8.278,55.405],[8.265,55.41],[8.25,55.413333],[8.24,55.41],[8.24,55.416538],[8.24,55.41],[8.23,55.41],[8.227222,55.415],[8.234167,55.42],[8.23,55.427174],[8.195,55.432778],[8.178333,55.445],[8.18,55.4525],[8.17,55.453438],[8.16,55.466],[8.13,55.469],[8.125,55.48],[8.105,55.48],[8.105,55.49],[8.085,55.502069],[8.055,55.497391],[8.04,55.505333],[8.005,55.503925],[7.95,55.527371],[7.925,55.554643],[7.92,55.55],[7.925455,55.535],[7.92,55.533766],[7.905,55.54381],[7.879999,55.544943]]}},{"type":"Feature","properties":{"depth":10,"source":"DDM 2024 coarse contour","resolution":"0.005 degree sampled grid","scope":"denmark","tileSource":"contours-denmark-coarse.geojson"},"geometry":{"type":"LineString","coordinates":[[7.879999,55.584288],[7.905,55.5865],[7.915,55.578333],[8.031667,55.63],[8.055,55.6225],[8.061667,55.625],[8.088889,55.655],[8.106667,55.69],[8.116667,55.7],[8.11625,55.71],[8.124091,55.715],[8.134167,55.745],[8.14,55.75],[8.145591,55.785001]]}},{"type":"Feature","properties":{"depth":10,"source":"DDM 2024 coarse contour","resolution":"0.005 degree sampled grid","scope":"denmark","tileSource":"contours-denmark-coarse.geojson"},"geometry":{"type":"LineString","coordinates":[[7.879999,55.518126],[7.885198,55.515],[7.883667,55.51],[7.89,55.505595],[7.92,55.49275],[7.96,55.486981],[8.05,55.493846],[8.051222,55.485],[8.03,55.477716],[8.015,55.482],[8.01,55.475135],[7.978333,55.465],[7.97,55.456563],[7.935,55.466],[7.936429,55.46],[7.905,55.455],[7.89,55.447049],[7.879999,55.447306]]}},{"type":"Feature","properties":{"depth":10,"source":"DDM 2024 coarse contour","resolution":"0.005 degree sampled grid","scope":"denmark","tileSource":"contours-denmark-coarse.geojson"},"geometry":{"type":"LineString","coordinates":[[8.35,55.477738],[8.319255,55.465],[8.35,55.469992],[8.353026,55.475],[8.35,55.477738]]}},{"type":"Feature","properties":{"depth":10,"source":"DDM 2024 coarse contour","resolution":"0.005 degree sampled grid","scope":"denmark","tileSource":"contours-denmark-coarse.geojson"},"geometry":{"type":"LineString","coordinates":[[8.355001,55.482772],[8.351173,55.48],[8.355,55.475974],[8.355001,55.475974]]}},{"type":"Feature","properties":{"depth":15,"source":"DDM 2024 coarse contour","resolution":"0.005 degree sampled grid","scope":"denmark","tileSource":"contours-denmark-coarse.geojson"},"geometry":{"type":"LineString","coordinates":[[8.2425,55.309999],[8.24,55.315],[8.2525,55.325],[8.255,55.355],[8.2495,55.36],[8.255,55.355],[8.2575,55.365],[8.225,55.37375],[8.18,55.41],[8.14,55.416667],[8.125,55.4345],[8.11,55.435833],[8.105833,55.425],[8.11,55.42],[8.125,55.415],[8.13,55.41],[8.128333,55.405],[8.155,55.39],[8.157857,55.375],[8.165,55.365625],[8.193333,55.345],[8.19,55.337857],[8.16,55.33],[8.150666,55.309999]]}},{"type":"Feature","properties":{"depth":15,"source":"DDM 2024 coarse contour","resolution":"0.005 degree sampled grid","scope":"denmark","tileSource":"contours-denmark-coarse.geojson"},"geometry":{"type":"LineString","coordinates":[[8.139339,55.309999],[8.13,55.31125],[8.12,55.315],[8.1125,55.325],[8.115,55.34],[8.101,55.385],[8.09,55.398333],[8.08,55.4],[8.09,55.405],[8.093,55.415],[8.09,55.416875],[8.07,55.421875],[8.065,55.42],[8.06,55.405],[8.05,55.402857],[8.045,55.405],[8.044375,55.415],[8.035,55.426667],[8.01,55.435],[7.98,55.437857],[7.96,55.425455],[7.925,55.43875],[7.91,55.427941],[7.88,55.445263],[7.879999,55.445263]]}},{"type":"Feature","properties":{"depth":15,"source":"DDM 2024 coarse contour","resolution":"0.005 degree sampled grid","scope":"denmark","tileSource":"contours-denmark-coarse.geojson"},"geometry":{"type":"LineString","coordinates":[[7.879999,55.690455],[7.88,55.690455],[7.93,55.7018],[7.98,55.699667],[7.9925,55.695],[7.997,55.685],[7.99,55.6725],[7.97,55.661364],[7.94,55.673],[7.895,55.671667],[7.88,55.666],[7.879999,55.665999]]}},{"type":"Feature","properties":{"depth":15,"source":"DDM 2024 coarse contour","resolution":"0.005 degree sampled grid","scope":"denmark","tileSource":"contours-denmark-coarse.geojson"},"geometry":{"type":"LineString","coordinates":[[7.879999,55.517994],[7.89,55.508571],[7.905,55.501867],[8.005,55.491563],[8.040526,55.495],[8.04,55.500648],[8.005,55.502581],[7.945,55.526714],[7.935,55.522742],[7.91,55.532895],[7.9,55.529524],[7.879999,55.538706]]}},{"type":"Feature","properties":{"depth":15,"source":"DDM 2024 coarse contour","resolution":"0.005 degree sampled grid","scope":"denmark","tileSource":"contours-denmark-coarse.geojson"},"geometry":{"type":"LineString","coordinates":[[7.879999,55.604285],[7.89,55.61],[7.913,55.61],[7.925,55.62],[7.985,55.639583],[8.01,55.639231],[8.03,55.65],[8.02,55.66],[8.045,55.658571],[8.065,55.664583],[8.093333,55.7],[8.0925,55.71],[8.099167,55.715],[8.09875,55.73],[8.11,55.74],[8.11,55.75],[8.119167,55.76],[8.109,55.765],[8.12,55.775],[8.119333,55.785001]]}},{"type":"Feature","properties":{"depth":15,"source":"DDM 2024 coarse contour","resolution":"0.005 degree sampled grid","scope":"denmark","tileSource":"contours-denmark-coarse.geojson"},"geometry":{"type":"LineString","coordinates":[[7.880556,55.33],[7.879999,55.329796]]}},{"type":"Feature","properties":{"depth":15,"source":"DDM 2024 coarse contour","resolution":"0.005 degree sampled grid","scope":"denmark","tileSource":"contours-denmark-coarse.geojson"},"geometry":{"type":"LineString","coordinates":[[7.879999,55.330501],[7.880556,55.33]]}},{"type":"Feature","properties":{"depth":15,"source":"DDM 2024 coarse contour","resolution":"0.005 degree sampled grid","scope":"denmark","tileSource":"contours-denmark-coarse.geojson"},"geometry":{"type":"LineString","coordinates":[[8.105,55.44625],[8.08,55.445],[8.08,55.44],[8.09,55.4375],[8.105,55.44625]]}},{"type":"Feature","properties":{"depth":15,"source":"DDM 2024 coarse contour","resolution":"0.005 degree sampled grid","scope":"denmark","tileSource":"contours-denmark-coarse.geojson"},"geometry":{"type":"LineString","coordinates":[[8.075,55.495263],[8.057264,55.49],[8.056818,55.47],[8.065,55.458333],[8.075,55.455],[8.101667,55.46],[8.093095,55.475],[8.082812,55.48],[8.08475,55.49],[8.075,55.495263]]}},{"type":"Feature","properties":{"depth":20,"source":"DDM 2024 coarse contour","resolution":"0.005 degree sampled grid","scope":"denmark","tileSource":"contours-denmark-coarse.geojson"},"geometry":{"type":"LineString","coordinates":[[7.940001,55.309999],[7.94,55.31],[7.958333,55.345],[7.951667,55.36],[7.92125,55.36],[7.89,55.323077],[7.879999,55.321458]]}},{"type":"Feature","properties":{"depth":20,"source":"DDM 2024 coarse contour","resolution":"0.005 degree sampled grid","scope":"denmark","tileSource":"contours-denmark-coarse.geojson"},"geometry":{"type":"LineString","coordinates":[[7.879999,55.384998],[7.88,55.385],[7.879999,55.385001]]}},{"type":"Feature","properties":{"depth":20,"source":"DDM 2024 coarse contour","resolution":"0.005 degree sampled grid","scope":"denmark","tileSource":"contours-denmark-coarse.geojson"},"geometry":{"type":"LineString","coordinates":[[8.07,55.49129],[8.062059,55.49],[8.065,55.483167],[8.071,55.485],[8.073333,55.49],[8.07,55.49129]]}},{"type":"Feature","properties":{"depth":20,"source":"DDM 2024 coarse contour","resolution":"0.005 degree sampled grid","scope":"denmark","tileSource":"contours-denmark-coarse.geojson"},"geometry":{"type":"LineString","coordinates":[[7.96,55.515116],[7.93,55.515],[7.929643,55.51],[7.97,55.497921],[8.01,55.492759],[8.036515,55.495],[8.034808,55.5],[8.005,55.501237],[7.96,55.515116]]}},{"type":"Feature","properties":{"depth":20,"source":"DDM 2024 coarse contour","resolution":"0.005 degree sampled grid","scope":"denmark","tileSource":"contours-denmark-coarse.geojson"},"geometry":{"type":"LineString","coordinates":[[7.879999,55.519253],[7.89,55.512766],[7.897857,55.515],[7.883036,55.53],[7.879999,55.531606]]}}]}