{"type":"FeatureCollection","name":"DDM contour tile r03_c05","bbox":[9.8,55.79,10.275,56.265],"metadata":{"schema":"waternav-ddm-contour-tile-v1","version":"v45.3","tileId":"r03_c05","source":"Danmarks Dybdemodel 2024 ddm_50m.dybde.tiff via bundled DDM contour GeoJSON files"},"features":[{"type":"Feature","properties":{"depth":1,"source":"DDM 2024 coarse contour","resolution":"0.005 degree sampled grid","scope":"denmark","tileSource":"contours-denmark-coarse.geojson"},"geometry":{"type":"LineString","coordinates":[[10.275001,56.195016],[10.275,56.195015],[10.260426,56.195],[10.245,56.185026],[10.240351,56.185],[10.225,56.17],[10.23,56.16997],[10.234954,56.165],[10.235,56.154954],[10.24,56.15494],[10.245,56.159933],[10.254953,56.15],[10.24,56.140047],[10.23,56.14003],[10.225,56.135053],[10.211143,56.135],[10.22,56.124999],[10.225,56.124975],[10.22999,56.12],[10.23,56.114993],[10.235,56.114986],[10.239983,56.11],[10.239994,56.105],[10.249987,56.095],[10.250976,56.085],[10.259987,56.07],[10.259996,56.06],[10.274996,56.045],[10.27,56.026667],[10.275001,56.025831]]}},{"type":"Feature","properties":{"depth":1,"source":"DDM 2024 coarse contour","resolution":"0.005 degree sampled grid","scope":"denmark","tileSource":"contours-denmark-coarse.geojson"},"geometry":{"type":"LineString","coordinates":[[10.275001,56.01334],[10.27,56.010009],[10.26,55.995021],[10.255426,55.995],[10.255614,55.975],[10.269994,55.96],[10.265,55.953056],[10.264989,55.945],[10.26,55.933929],[10.26,55.914643],[10.255,55.908889],[10.245,55.907353],[10.236667,55.9],[10.235952,55.895],[10.2458,55.89],[10.2475,55.88],[10.235,55.875006],[10.225,55.8834],[10.21,55.883636],[10.2,55.875],[10.208462,55.86],[10.209999,55.85],[10.2025,55.845],[10.206176,55.84],[10.195,55.835002],[10.185,55.83501],[10.176364,55.84],[10.165,55.840009],[10.145,55.853333],[10.135,55.853929],[10.13,55.852857],[10.125,55.845003],[10.115,55.845011],[10.1,55.854444],[10.09,55.852667],[10.08,55.845012],[10.059375,55.845],[10.045,55.840001],[10.04,55.840005],[10.034219,55.845],[10.0315,55.85],[10.04,55.86],[10.0344,55.865],[10.04,55.86],[10.06,55.874988],[10.065,55.871429],[10.095,55.873125],[10.1,55.87],[10.105,55.873636],[10.115,55.867857],[10.117727,55.87],[10.11,55.87],[10.11,55.87625],[10.095,55.876667],[10.092,55.88],[10.025,55.873676],[9.995,55.860006],[9.98,55.865],[9.979844,55.87],[9.975,55.874559],[9.970571,55.87],[9.97375,55.865],[9.971346,55.86],[9.965,55.855027],[9.95,55.855028],[9.945,55.859297],[9.93,55.860006],[9.915,55.855024],[9.9,55.863929],[9.895,55.860004],[9.88,55.859861],[9.88,55.851111],[9.89,55.845],[9.91,55.844974],[9.915,55.839999],[9.935,55.839972],[9.94,55.835672],[9.97,55.834971],[9.975,55.830652],[10.005,55.82998],[10.013542,55.835],[10.015,55.84],[10.01,55.845],[9.999205,55.845],[10.02,55.84375],[10.02375,55.84],[10.025,55.83],[10.035,55.8268],[10.045,55.829975],[10.055273,55.82],[10.056522,55.815],[10.065865,55.81],[10.045,55.790015],[10.04496,55.789999]]}},{"type":"Feature","properties":{"depth":1,"source":"DDM 2024 coarse contour","resolution":"0.005 degree sampled grid","scope":"denmark","tileSource":"contours-denmark-coarse.geojson"},"geometry":{"type":"LineString","coordinates":[[10.082,55.84],[10.089444,55.835],[10.09,55.829996],[10.1,55.830682],[10.104999,55.825],[10.09,55.815031],[10.07,55.815094],[10.055002,55.83],[10.06,55.834986],[10.082,55.84]]}},{"type":"Feature","properties":{"depth":1,"source":"DDM 2024 coarse contour","resolution":"0.005 degree sampled grid","scope":"denmark","tileSource":"contours-denmark-coarse.geojson"},"geometry":{"type":"LineString","coordinates":[[10.275001,55.9025],[10.275,55.9025],[10.275,55.906667],[10.275001,55.906667]]}},{"type":"Feature","properties":{"depth":2,"source":"DDM 2024 coarse contour","resolution":"0.005 degree sampled grid","scope":"denmark","tileSource":"contours-denmark-coarse.geojson"},"geometry":{"type":"LineString","coordinates":[[10.275001,56.195011],[10.275,56.19501],[10.261489,56.195],[10.241228,56.185],[10.22575,56.17],[10.23,56.169975],[10.234959,56.165],[10.235,56.154959],[10.24,56.154945],[10.245,56.159938],[10.254958,56.15],[10.24,56.140042],[10.23,56.140025],[10.225,56.135048],[10.212571,56.135],[10.220729,56.125],[10.225,56.12498],[10.229995,56.12],[10.23,56.114998],[10.235,56.114991],[10.239988,56.11],[10.239999,56.105],[10.249992,56.095],[10.255272,56.075],[10.259992,56.07],[10.260625,56.06],[10.2745,56.05],[10.275001,56.044754]]}},{"type":"Feature","properties":{"depth":2,"source":"DDM 2024 coarse contour","resolution":"0.005 degree sampled grid","scope":"denmark","tileSource":"contours-denmark-coarse.geojson"},"geometry":{"type":"LineString","coordinates":[[10.275001,56.039047],[10.27069,56.03],[10.275001,56.027146]]}},{"type":"Feature","properties":{"depth":2,"source":"DDM 2024 coarse contour","resolution":"0.005 degree sampled grid","scope":"denmark","tileSource":"contours-denmark-coarse.geojson"},"geometry":{"type":"LineString","coordinates":[[10.275001,56.013169],[10.27,56.010004],[10.264988,56],[10.256489,55.995],[10.256491,55.975],[10.269999,55.96],[10.26,55.930357],[10.26,55.911071],[10.24,55.9],[10.238333,55.895],[10.2478,55.89],[10.251176,55.88],[10.24,55.8734],[10.22,55.8825],[10.21,55.881364],[10.202941,55.875],[10.209,55.87],[10.210909,55.86],[10.211667,55.85],[10.206111,55.845],[10.209118,55.84],[10.195,55.83375],[10.155,55.843261],[10.145,55.85125],[10.135,55.852143],[10.13,55.845],[10.125,55.844231],[10.095,55.852045],[10.08,55.845007],[10.06225,55.845],[10.05,55.839222],[10.04,55.84],[10.028478,55.85],[10.036429,55.86],[10.0324,55.865],[10.035,55.867321],[10.04,55.861724],[10.06,55.874993],[10.065,55.872857],[10.0825,55.875],[10.0825,55.88],[10.025,55.872206],[9.99,55.859],[9.975,55.862647],[9.965,55.855022],[9.95,55.855023],[9.935789,55.86],[9.925,55.85875],[9.92,55.855019],[9.90625,55.86],[9.88,55.858472],[9.88,55.852222],[9.895,55.845761],[9.91,55.844979],[9.917333,55.84],[9.935,55.839977],[9.94,55.836418],[9.97,55.834976],[9.975,55.831377],[10.005,55.829985],[10.011458,55.835],[10.0125,55.84],[9.998068,55.845],[10.005,55.8468],[10.02,55.845217],[10.03125,55.83],[10.045,55.82998],[10.05,55.825395],[10.065,55.838276],[10.08,55.842727],[10.104643,55.83],[10.107692,55.825],[10.095,55.820005],[10.095,55.815],[10.085,55.814615],[10.07,55.815089],[10.055,55.829814],[10.050441,55.825],[10.066827,55.81],[10.045,55.79001],[10.044974,55.789999]]}},{"type":"Feature","properties":{"depth":2,"source":"DDM 2024 coarse contour","resolution":"0.005 degree sampled grid","scope":"denmark","tileSource":"contours-denmark-coarse.geojson"},"geometry":{"type":"LineString","coordinates":[[10.275001,55.899531],[10.275,55.899531],[10.275,55.909048],[10.275001,55.909048]]}},{"type":"Feature","properties":{"depth":3,"source":"DDM 2024 coarse contour","resolution":"0.005 degree sampled grid","scope":"denmark","tileSource":"contours-denmark-coarse.geojson"},"geometry":{"type":"LineString","coordinates":[[10.275001,56.195005],[10.275,56.195005],[10.262553,56.195],[10.242105,56.185],[10.226583,56.17],[10.234964,56.165],[10.235,56.154964],[10.24,56.15495],[10.245,56.159943],[10.254963,56.15],[10.24,56.140037],[10.23,56.14002],[10.225,56.135043],[10.214,56.135],[10.239993,56.11],[10.249997,56.095],[10.26375,56.06],[10.275001,56.052442]]}},{"type":"Feature","properties":{"depth":3,"source":"DDM 2024 coarse contour","resolution":"0.005 degree sampled grid","scope":"denmark","tileSource":"contours-denmark-coarse.geojson"},"geometry":{"type":"LineString","coordinates":[[10.275001,56.03235],[10.271552,56.03],[10.275001,56.027757]]}},{"type":"Feature","properties":{"depth":3,"source":"DDM 2024 coarse contour","resolution":"0.005 degree sampled grid","scope":"denmark","tileSource":"contours-denmark-coarse.geojson"},"geometry":{"type":"LineString","coordinates":[[10.275001,56.012367],[10.27,56.009167],[10.264993,56],[10.257553,55.995],[10.257368,55.975],[10.271667,55.96],[10.265,55.94625],[10.26629,55.94],[10.260714,55.925],[10.265,55.8975],[10.26,55.902273],[10.255,55.9],[10.254643,55.905],[10.2498,55.89],[10.254118,55.88],[10.24,55.8714],[10.23,55.871667],[10.22,55.880833],[10.206667,55.875],[10.218684,55.87],[10.21225,55.865],[10.215,55.834048],[10.195,55.83125],[10.155,55.841087],[10.145,55.848462],[10.115,55.839375],[10.1125,55.84],[10.116364,55.845],[10.095,55.8495],[10.08,55.845002],[10.06475,55.845],[10.065,55.84],[10.07,55.845],[10.1075,55.84],[10.100833,55.835],[10.11125,55.83],[10.1125,55.825],[10.095,55.82],[10.096064,55.815],[10.086019,55.815],[10.085,55.810769],[10.07,55.815084],[10.055,55.829503],[10.050735,55.825],[10.07044,55.805],[10.065,55.806375],[10.045,55.790005],[10.044987,55.789999]]}},{"type":"Feature","properties":{"depth":3,"source":"DDM 2024 coarse contour","resolution":"0.005 degree sampled grid","scope":"denmark","tileSource":"contours-denmark-coarse.geojson"},"geometry":{"type":"LineString","coordinates":[[10.22454,55.789999],[10.224545,55.79],[10.223333,55.795],[10.23,55.797593],[10.236,55.795],[10.23681,55.789999]]}},{"type":"Feature","properties":{"depth":3,"source":"DDM 2024 coarse contour","resolution":"0.005 degree sampled grid","scope":"denmark","tileSource":"contours-denmark-coarse.geojson"},"geometry":{"type":"LineString","coordinates":[[10.275,55.789999],[10.275,55.79],[10.275001,55.79]]}},{"type":"Feature","properties":{"depth":3,"source":"DDM 2024 coarse contour","resolution":"0.005 degree sampled grid","scope":"denmark","tileSource":"contours-denmark-coarse.geojson"},"geometry":{"type":"LineString","coordinates":[[10.170312,55.825],[10.175,55.821053],[10.185294,55.82],[10.175,55.819259],[10.17,55.824444],[10.165,55.8225],[10.1575,55.825],[10.170312,55.825]]}},{"type":"Feature","properties":{"depth":3,"source":"DDM 2024 coarse contour","resolution":"0.005 degree sampled grid","scope":"denmark","tileSource":"contours-denmark-coarse.geojson"},"geometry":{"type":"LineString","coordinates":[[10.045,55.874687],[10.025,55.870735],[9.99,55.857],[9.975,55.859583],[9.965,55.855017],[9.95,55.855018],[9.93,55.859146],[9.915,55.855014],[9.91,55.858488],[9.89,55.858636],[9.88,55.857083],[9.88,55.853333],[9.92,55.84027],[10.002667,55.83],[10.009348,55.835],[10.01,55.84],[10,55.841538],[9.996932,55.845],[10.01,55.847778],[10.020966,55.845],[10.035,55.830385],[10.045,55.829985],[10.05,55.825658],[10.061184,55.835],[10.06,55.8395],[10.04,55.839609],[10.026304,55.85],[10.0304,55.865],[10.035,55.869107],[10.04,55.863448],[10.049286,55.87],[10.045,55.874687]]}},{"type":"Feature","properties":{"depth":3,"source":"DDM 2024 coarse contour","resolution":"0.005 degree sampled grid","scope":"denmark","tileSource":"contours-denmark-coarse.geojson"},"geometry":{"type":"LineString","coordinates":[[10.248182,55.865],[10.2675,55.85],[10.26875,55.845],[10.263846,55.845],[10.235526,55.865],[10.24,55.868542],[10.248182,55.865]]}},{"type":"Feature","properties":{"depth":3,"source":"DDM 2024 coarse contour","resolution":"0.005 degree sampled grid","scope":"denmark","tileSource":"contours-denmark-coarse.geojson"},"geometry":{"type":"LineString","coordinates":[[10.065,55.875714],[10.051,55.875],[10.069167,55.875],[10.065,55.875714]]}},{"type":"Feature","properties":{"depth":3,"source":"DDM 2024 coarse contour","resolution":"0.005 degree sampled grid","scope":"denmark","tileSource":"contours-denmark-coarse.geojson"},"geometry":{"type":"LineString","coordinates":[[10.275001,55.897969],[10.275,55.897969],[10.275,55.911667],[10.275001,55.911666]]}},{"type":"Feature","properties":{"depth":5,"source":"DDM 2024 coarse contour","resolution":"0.005 degree sampled grid","scope":"denmark","tileSource":"contours-denmark-coarse.geojson"},"geometry":{"type":"LineString","coordinates":[[10.275001,56.19576],[10.253103,56.19],[10.24386,56.185],[10.238,56.175],[10.22825,56.17],[10.234974,56.165],[10.235,56.154974],[10.24,56.154959],[10.245,56.159953],[10.254973,56.15],[10.24,56.140027],[10.23,56.14001],[10.225,56.135033],[10.216121,56.135],[10.218534,56.13],[10.245802,56.105],[10.256,56.085],[10.256902,56.075],[10.265,56.062162],[10.275001,56.057864]]}},{"type":"Feature","properties":{"depth":5,"source":"DDM 2024 coarse contour","resolution":"0.005 degree sampled grid","scope":"denmark","tileSource":"contours-denmark-coarse.geojson"},"geometry":{"type":"LineString","coordinates":[[10.275001,56.002564],[10.27,55.998636],[10.259681,55.995],[10.259123,55.975],[10.275001,55.965461]]}},{"type":"Feature","properties":{"depth":5,"source":"DDM 2024 coarse contour","resolution":"0.005 degree sampled grid","scope":"denmark","tileSource":"contours-denmark-coarse.geojson"},"geometry":{"type":"LineString","coordinates":[[10.275001,55.962394],[10.265455,55.93],[10.275,55.922857],[10.275001,55.922857]]}},{"type":"Feature","properties":{"depth":5,"source":"DDM 2024 coarse contour","resolution":"0.005 degree sampled grid","scope":"denmark","tileSource":"contours-denmark-coarse.geojson"},"geometry":{"type":"LineString","coordinates":[[10.275001,55.894087],[10.27,55.89375],[10.265,55.885952],[10.259474,55.885],[10.264444,55.88],[10.254062,55.87],[10.254,55.865],[10.275001,55.852395]]}},{"type":"Feature","properties":{"depth":5,"source":"DDM 2024 coarse contour","resolution":"0.005 degree sampled grid","scope":"denmark","tileSource":"contours-denmark-coarse.geojson"},"geometry":{"type":"LineString","coordinates":[[10.195,55.789999],[10.195,55.79],[10.2,55.795],[10.1975,55.8],[10.205,55.804062],[10.21,55.797308],[10.23,55.803182],[10.245,55.800417],[10.25,55.793333],[10.255,55.798636],[10.26,55.799091],[10.275,55.793846],[10.275001,55.793847]]}},{"type":"Feature","properties":{"depth":5,"source":"DDM 2024 coarse contour","resolution":"0.005 degree sampled grid","scope":"denmark","tileSource":"contours-denmark-coarse.geojson"},"geometry":{"type":"LineString","coordinates":[[10.275001,55.838907],[10.255,55.844118],[10.249167,55.85],[10.24,55.8525],[10.223947,55.845],[10.23,55.83],[10.225,55.825],[10.205,55.83],[10.195,55.826053],[10.19,55.829167],[10.185455,55.825],[10.195769,55.82],[10.185,55.8158],[10.17,55.815385],[10.155,55.820333],[10.15,55.8175],[10.146,55.82],[10.143333,55.83],[10.14,55.831],[10.139091,55.825],[10.143333,55.82],[10.12,55.822917],[10.115,55.820294],[10.105,55.821224],[10.09,55.808721],[10.085,55.808125],[10.07,55.815074],[10.055,55.828882],[10.051324,55.825],[10.069712,55.81],[10.071538,55.805],[10.065,55.80375],[10.06,55.798108],[10.055,55.799394],[10.046287,55.789999]]}},{"type":"Feature","properties":{"depth":5,"source":"DDM 2024 coarse contour","resolution":"0.005 degree sampled grid","scope":"denmark","tileSource":"contours-denmark-coarse.geojson"},"geometry":{"type":"LineString","coordinates":[[10.01,55.860781],[10,55.860727],[10,55.854783],[9.994545,55.855],[9.99,55.850833],[9.985455,55.855],[9.97875,55.855],[9.98375,55.85],[9.975,55.849032],[9.95625,55.85],[9.97,55.851563],[9.97275,55.855],[9.97,55.855948],[9.8875,55.855],[9.895,55.849022],[9.92881,55.84],[9.96,55.838145],[9.975,55.833551],[10.005,55.835],[10.005,55.83],[10.005,55.835],[9.997647,55.84],[9.995,55.8465],[10.01,55.850286],[10.02,55.846149],[10.024493,55.85],[10.02,55.8575],[10.01,55.860781]]}},{"type":"Feature","properties":{"depth":5,"source":"DDM 2024 coarse contour","resolution":"0.005 degree sampled grid","scope":"denmark","tileSource":"contours-denmark-coarse.geojson"},"geometry":{"type":"LineString","coordinates":[[10.03,55.846373],[10.025,55.848923],[10.022102,55.845],[10.035,55.832308],[10.05,55.826184],[10.05875,55.835],[10.04,55.838739],[10.03,55.846373]]}},{"type":"Feature","properties":{"depth":5,"source":"DDM 2024 coarse contour","resolution":"0.005 degree sampled grid","scope":"denmark","tileSource":"contours-denmark-coarse.geojson"},"geometry":{"type":"LineString","coordinates":[[10.165,55.835227],[10.149286,55.835],[10.16,55.831667],[10.165,55.8325],[10.165,55.835227]]}},{"type":"Feature","properties":{"depth":5,"source":"DDM 2024 coarse contour","resolution":"0.005 degree sampled grid","scope":"denmark","tileSource":"contours-denmark-coarse.geojson"},"geometry":{"type":"LineString","coordinates":[[10.27,55.913158],[10.266389,55.905],[10.27,55.895161],[10.272902,55.905],[10.27,55.913158]]}},{"type":"Feature","properties":{"depth":5,"source":"DDM 2024 coarse contour","resolution":"0.005 degree sampled grid","scope":"denmark","tileSource":"contours-denmark-coarse.geojson"},"geometry":{"type":"LineString","coordinates":[[10.275001,56.174768],[10.275,56.174767],[10.265,56.173929],[10.261818,56.18],[10.265,56.184375],[10.275001,56.181134]]}},{"type":"Feature","properties":{"depth":10,"source":"DDM 2024 coarse contour","resolution":"0.005 degree sampled grid","scope":"denmark","tileSource":"contours-denmark-coarse.geojson"},"geometry":{"type":"LineString","coordinates":[[10.275001,56.191579],[10.26725,56.19],[10.275001,56.185945]]}},{"type":"Feature","properties":{"depth":10,"source":"DDM 2024 coarse contour","resolution":"0.005 degree sampled grid","scope":"denmark","tileSource":"contours-denmark-coarse.geojson"},"geometry":{"type":"LineString","coordinates":[[10.275001,56.17086],[10.26,56.167895],[10.255,56.184],[10.245,56.169444],[10.234999,56.165],[10.235,56.154999],[10.245,56.159977],[10.254998,56.15],[10.24,56.140002],[10.221136,56.135],[10.223511,56.13],[10.242258,56.115],[10.262075,56.085],[10.25962,56.075],[10.265,56.068452],[10.275001,56.062047]]}},{"type":"Feature","properties":{"depth":10,"source":"DDM 2024 coarse contour","resolution":"0.005 degree sampled grid","scope":"denmark","tileSource":"contours-denmark-coarse.geojson"},"geometry":{"type":"LineString","coordinates":[[10.275001,55.981281],[10.273889,55.98],[10.275001,55.979083]]}},{"type":"Feature","properties":{"depth":10,"source":"DDM 2024 coarse contour","resolution":"0.005 degree sampled grid","scope":"denmark","tileSource":"contours-denmark-coarse.geojson"},"geometry":{"type":"LineString","coordinates":[[10.16553,55.789999],[10.165435,55.8],[10.13,55.811447],[10.13,55.805417],[10.142143,55.8],[10.14,55.795714],[10.125,55.806786],[10.105,55.807273],[10.096667,55.8],[10.095114,55.789999]]}},{"type":"Feature","properties":{"depth":10,"source":"DDM 2024 coarse contour","resolution":"0.005 degree sampled grid","scope":"denmark","tileSource":"contours-denmark-coarse.geojson"},"geometry":{"type":"LineString","coordinates":[[10.09356,55.789999],[10.08375,55.795],[10.084029,55.805],[10.075,55.812921],[10.066103,55.789999]]}},{"type":"Feature","properties":{"depth":10,"source":"DDM 2024 coarse contour","resolution":"0.005 degree sampled grid","scope":"denmark","tileSource":"contours-denmark-coarse.geojson"},"geometry":{"type":"LineString","coordinates":[[10.065,55.820021],[10.06,55.823708],[10.058,55.82],[10.07,55.811588],[10.072886,55.815],[10.065,55.820021]]}},{"type":"Feature","properties":{"depth":15,"source":"DDM 2024 coarse contour","resolution":"0.005 degree sampled grid","scope":"denmark","tileSource":"contours-denmark-coarse.geojson"},"geometry":{"type":"LineString","coordinates":[[10.08,55.806634],[10.074737,55.795],[10.08,55.79],[10.08,55.806634]]}}]}