{"type":"FeatureCollection","name":"DDM contour tile r03_c11","bbox":[12.68,55.79,13.155,56.265],"metadata":{"schema":"waternav-ddm-contour-tile-v1","version":"v45.3","tileId":"r03_c11","source":"Danmarks Dybdemodel 2024 ddm_50m.dybde.tiff via bundled DDM contour GeoJSON files"},"features":[{"type":"Feature","properties":{"depth":1,"source":"DDM 2024 coarse contour","resolution":"0.005 degree sampled grid","scope":"denmark","tileSource":"contours-denmark-coarse.geojson"},"geometry":{"type":"LineString","coordinates":[[12.745086,55.789999],[12.725,55.810096],[12.72,55.810094],[12.695082,55.835],[12.695065,55.845],[12.690065,55.85],[12.690062,55.865],[12.680062,55.88],[12.679999,55.880189]]}},{"type":"Feature","properties":{"depth":2,"source":"DDM 2024 coarse contour","resolution":"0.005 degree sampled grid","scope":"denmark","tileSource":"contours-denmark-coarse.geojson"},"geometry":{"type":"LineString","coordinates":[[12.745081,55.789999],[12.725,55.810091],[12.72,55.810089],[12.695077,55.835],[12.69506,55.845],[12.69006,55.85],[12.690057,55.865],[12.680057,55.88],[12.679999,55.880174]]}},{"type":"Feature","properties":{"depth":3,"source":"DDM 2024 coarse contour","resolution":"0.005 degree sampled grid","scope":"denmark","tileSource":"contours-denmark-coarse.geojson"},"geometry":{"type":"LineString","coordinates":[[12.745076,55.789999],[12.725,55.810086],[12.72,55.810084],[12.695072,55.835],[12.695055,55.845],[12.690055,55.85],[12.690052,55.865],[12.680052,55.88],[12.679999,55.880159]]}},{"type":"Feature","properties":{"depth":5,"source":"DDM 2024 coarse contour","resolution":"0.005 degree sampled grid","scope":"denmark","tileSource":"contours-denmark-coarse.geojson"},"geometry":{"type":"LineString","coordinates":[[12.745066,55.789999],[12.725,55.810076],[12.72,55.810075],[12.695062,55.835],[12.695045,55.845],[12.690045,55.85],[12.690042,55.865],[12.680042,55.88],[12.679999,55.880129]]}},{"type":"Feature","properties":{"depth":10,"source":"DDM 2024 coarse contour","resolution":"0.005 degree sampled grid","scope":"denmark","tileSource":"contours-denmark-coarse.geojson"},"geometry":{"type":"LineString","coordinates":[[12.744116,55.789999],[12.695038,55.835],[12.690018,55.865],[12.679999,55.88505]]}},{"type":"Feature","properties":{"depth":10,"source":"DDM 2024 coarse contour","resolution":"0.005 degree sampled grid","scope":"denmark","tileSource":"contours-denmark-coarse.geojson"},"geometry":{"type":"LineString","coordinates":[[12.686333,55.81],[12.69,55.799167],[12.679999,55.809818]]}},{"type":"Feature","properties":{"depth":10,"source":"DDM 2024 coarse contour","resolution":"0.005 degree sampled grid","scope":"denmark","tileSource":"contours-denmark-coarse.geojson"},"geometry":{"type":"LineString","coordinates":[[12.679999,55.810132],[12.685,55.814],[12.686333,55.81]]}},{"type":"Feature","properties":{"depth":15,"source":"DDM 2024 coarse contour","resolution":"0.005 degree sampled grid","scope":"denmark","tileSource":"contours-denmark-coarse.geojson"},"geometry":{"type":"LineString","coordinates":[[12.679999,55.832701],[12.697768,55.815],[12.699375,55.795],[12.702876,55.789999]]}},{"type":"Feature","properties":{"depth":15,"source":"DDM 2024 coarse contour","resolution":"0.005 degree sampled grid","scope":"denmark","tileSource":"contours-denmark-coarse.geojson"},"geometry":{"type":"LineString","coordinates":[[12.745039,55.789999],[12.745,55.790038],[12.744954,55.789999]]}},{"type":"Feature","properties":{"depth":15,"source":"DDM 2024 coarse contour","resolution":"0.005 degree sampled grid","scope":"denmark","tileSource":"contours-denmark-coarse.geojson"},"geometry":{"type":"LineString","coordinates":[[12.734375,55.789999],[12.734375,55.79],[12.740028,55.795],[12.695013,55.835],[12.695,55.843519],[12.685,55.844483],[12.679999,55.849863]]}},{"type":"Feature","properties":{"depth":20,"source":"DDM 2024 coarse contour","resolution":"0.005 degree sampled grid","scope":"denmark","tileSource":"contours-denmark-coarse.geojson"},"geometry":{"type":"LineString","coordinates":[[12.685,55.840172],[12.68,55.84463],[12.679999,55.844628]]}},{"type":"Feature","properties":{"depth":20,"source":"DDM 2024 coarse contour","resolution":"0.005 degree sampled grid","scope":"denmark","tileSource":"contours-denmark-coarse.geojson"},"geometry":{"type":"LineString","coordinates":[[12.679999,55.838043],[12.705,55.8122],[12.725,55.806429],[12.685,55.840172]]}}]}