{"type":"FeatureCollection","name":"DDM contour tile r03_c00","bbox":[7.4,55.79,7.875,56.265],"metadata":{"schema":"waternav-ddm-contour-tile-v1","version":"v45.3","tileId":"r03_c00","source":"Danmarks Dybdemodel 2024 ddm_50m.dybde.tiff via bundled DDM contour GeoJSON files"},"features":[{"type":"Feature","properties":{"depth":15,"source":"DDM 2024 coarse contour","resolution":"0.005 degree sampled grid","scope":"denmark","tileSource":"contours-denmark-coarse.geojson"},"geometry":{"type":"LineString","coordinates":[[7.558571,55.85],[7.5725,55.84],[7.569,55.83],[7.555,55.827941],[7.533333,55.835],[7.532222,55.84],[7.54,55.8475],[7.558571,55.85]]}},{"type":"Feature","properties":{"depth":20,"source":"DDM 2024 coarse contour","resolution":"0.005 degree sampled grid","scope":"denmark","tileSource":"contours-denmark-coarse.geojson"},"geometry":{"type":"LineString","coordinates":[[7.499998,55.789999],[7.5,55.79],[7.5125,55.82],[7.496667,55.84],[7.51,55.859167],[7.535,55.869444],[7.57,55.86],[7.5875,55.875],[7.58,55.883333],[7.55,55.886],[7.545,55.890909],[7.635,55.899286],[7.66375,55.89],[7.661667,55.88],[7.641667,55.86],[7.643333,55.855],[7.7,55.8],[7.698333,55.79],[7.698334,55.789999]]}},{"type":"Feature","properties":{"depth":20,"source":"DDM 2024 coarse contour","resolution":"0.005 degree sampled grid","scope":"denmark","tileSource":"contours-denmark-coarse.geojson"},"geometry":{"type":"LineString","coordinates":[[7.833332,55.789999],[7.833333,55.79],[7.833352,55.789999]]}},{"type":"Feature","properties":{"depth":30,"source":"DDM 2024 coarse contour","resolution":"0.005 degree sampled grid","scope":"denmark","tileSource":"contours-denmark-coarse.geojson"},"geometry":{"type":"LineString","coordinates":[[7.645,56.0075],[7.635,56.005],[7.635,55.995],[7.645,55.99],[7.66,55.995],[7.655,56.005],[7.645,56.0075]]}},{"type":"Feature","properties":{"depth":30,"source":"DDM 2024 coarse contour","resolution":"0.005 degree sampled grid","scope":"denmark","tileSource":"contours-denmark-coarse.geojson"},"geometry":{"type":"LineString","coordinates":[[7.4,56.011429],[7.53,56.02],[7.55,56.025],[7.56,56.035],[7.465,56.063333],[7.4,56.066667]]}},{"type":"Feature","properties":{"depth":30,"source":"DDM 2024 coarse contour","resolution":"0.005 degree sampled grid","scope":"denmark","tileSource":"contours-denmark-coarse.geojson"},"geometry":{"type":"LineString","coordinates":[[7.4,56.102143],[7.535,56.11],[7.645,56.10125],[7.665,56.09625],[7.683333,56.085],[7.69,56.07],[7.69,56.05],[7.685,56.045],[7.69,56.04],[7.705,56.04],[7.725,56.05],[7.7825,56.14],[7.821667,56.16],[7.821667,56.165],[7.815,56.1675],[7.78,56.171111],[7.715,56.160294],[7.67,56.166],[7.66,56.185],[7.66,56.205],[7.6475,56.215],[7.645,56.225],[7.651667,56.24],[7.665,56.25],[7.685,56.256],[7.75,56.258333],[7.758573,56.265001]]}},{"type":"Feature","properties":{"depth":30,"source":"DDM 2024 coarse contour","resolution":"0.005 degree sampled grid","scope":"denmark","tileSource":"contours-denmark-coarse.geojson"},"geometry":{"type":"LineString","coordinates":[[7.431137,56.265001],[7.442857,56.25],[7.435,56.2395],[7.425,56.237],[7.4,56.250909]]}}]}