{"type":"FeatureCollection","name":"DDM contour tile r04_c05","bbox":[9.8,56.27,10.275,56.745],"metadata":{"schema":"waternav-ddm-contour-tile-v1","version":"v45.3","tileId":"r04_c05","source":"Danmarks Dybdemodel 2024 ddm_50m.dybde.tiff via bundled DDM contour GeoJSON files"},"features":[{"type":"Feature","properties":{"depth":1,"source":"DDM 2024 coarse contour","resolution":"0.005 degree sampled grid","scope":"denmark","tileSource":"contours-denmark-coarse.geojson"},"geometry":{"type":"LineString","coordinates":[[10.225,56.544],[10.219996,56.54],[10.222308,56.535],[10.219997,56.53],[10.225,56.527083],[10.225,56.544]]}},{"type":"Feature","properties":{"depth":1,"source":"DDM 2024 coarse contour","resolution":"0.005 degree sampled grid","scope":"denmark","tileSource":"contours-denmark-coarse.geojson"},"geometry":{"type":"LineString","coordinates":[[10.25,56.569194],[10.240465,56.56],[10.245,56.555357],[10.25,56.557353],[10.254194,56.565],[10.25,56.569194]]}},{"type":"Feature","properties":{"depth":1,"source":"DDM 2024 coarse contour","resolution":"0.005 degree sampled grid","scope":"denmark","tileSource":"contours-denmark-coarse.geojson"},"geometry":{"type":"LineString","coordinates":[[10.275001,56.586777],[10.26,56.58125],[10.251087,56.57],[10.255,56.566087],[10.26,56.573125],[10.27,56.5765],[10.275,56.583125],[10.275001,56.583124]]}},{"type":"Feature","properties":{"depth":1,"source":"DDM 2024 coarse contour","resolution":"0.005 degree sampled grid","scope":"denmark","tileSource":"contours-denmark-coarse.geojson"},"geometry":{"type":"LineString","coordinates":[[9.87,56.645018],[9.86,56.645039],[9.855,56.649683],[9.85,56.645018],[9.82,56.645014],[9.82,56.640882],[9.849792,56.64],[9.855,56.644971],[9.875,56.645],[9.87,56.645018]]}},{"type":"Feature","properties":{"depth":1,"source":"DDM 2024 coarse contour","resolution":"0.005 degree sampled grid","scope":"denmark","tileSource":"contours-denmark-coarse.geojson"},"geometry":{"type":"LineString","coordinates":[[9.93,56.655012],[9.925,56.650061],[9.885385,56.65],[9.89,56.645435],[9.895,56.649962],[9.939808,56.65],[9.935,56.654771],[9.93,56.655012]]}},{"type":"Feature","properties":{"depth":1,"source":"DDM 2024 coarse contour","resolution":"0.005 degree sampled grid","scope":"denmark","tileSource":"contours-denmark-coarse.geojson"},"geometry":{"type":"LineString","coordinates":[[10.105,56.71],[10.104994,56.705],[10.095,56.695006],[10.085,56.695001],[10.08,56.690009],[10.075,56.690008],[10.065,56.700015],[10.055,56.700011],[10.05,56.695019],[10.04,56.695015],[10.035,56.690033],[10.02,56.690011],[10.01,56.680049],[10,56.680067],[9.995,56.675096],[9.98,56.675016],[9.965,56.665069],[9.955,56.665009],[9.955533,56.66],[9.95,56.660016],[9.945,56.655052],[9.935811,56.655],[9.940275,56.65],[9.95,56.649936],[9.965,56.654989],[9.97,56.659879],[9.975,56.659915],[9.98,56.654976],[9.995,56.669884],[10.005,56.669913],[10.01,56.674912],[10.015,56.674919],[10.02,56.669998],[10.025,56.674934],[10.03,56.674982],[10.05,56.694981],[10.055,56.694977],[10.06,56.689993],[10.07,56.689994],[10.075,56.684994],[10.085,56.684999],[10.110002,56.7],[10.11,56.7095],[10.105,56.71]]}},{"type":"Feature","properties":{"depth":1,"source":"DDM 2024 coarse contour","resolution":"0.005 degree sampled grid","scope":"denmark","tileSource":"contours-denmark-coarse.geojson"},"geometry":{"type":"LineString","coordinates":[[10.225,56.720002],[10.21,56.715005],[10.2,56.705002],[10.19,56.700014],[10.174999,56.7],[10.186087,56.69],[10.195,56.688],[10.205,56.69],[10.213333,56.695],[10.225,56.714999],[10.23,56.706667],[10.230009,56.71],[10.23825,56.715],[10.23,56.715004],[10.225,56.720002]]}},{"type":"Feature","properties":{"depth":1,"source":"DDM 2024 coarse contour","resolution":"0.005 degree sampled grid","scope":"denmark","tileSource":"contours-denmark-coarse.geojson"},"geometry":{"type":"LineString","coordinates":[[10.255,56.710003],[10.24,56.712812],[10.241667,56.705],[10.235556,56.7],[10.274773,56.7],[10.26,56.71],[10.255,56.710003]]}},{"type":"Feature","properties":{"depth":1,"source":"DDM 2024 coarse contour","resolution":"0.005 degree sampled grid","scope":"denmark","tileSource":"contours-denmark-coarse.geojson"},"geometry":{"type":"LineString","coordinates":[[10.155,56.715006],[10.13,56.715],[10.135,56.714993],[10.14,56.709993],[10.16,56.709988],[10.16,56.714032],[10.155,56.715006]]}},{"type":"Feature","properties":{"depth":2,"source":"DDM 2024 coarse contour","resolution":"0.005 degree sampled grid","scope":"denmark","tileSource":"contours-denmark-coarse.geojson"},"geometry":{"type":"LineString","coordinates":[[9.87,56.645013],[9.86,56.645034],[9.855,56.648889],[9.85,56.645013],[9.82,56.645009],[9.82,56.642353],[9.847708,56.64],[9.855,56.644976],[9.873649,56.645],[9.87,56.645013]]}},{"type":"Feature","properties":{"depth":2,"source":"DDM 2024 coarse contour","resolution":"0.005 degree sampled grid","scope":"denmark","tileSource":"contours-denmark-coarse.geojson"},"geometry":{"type":"LineString","coordinates":[[9.93,56.655007],[9.925,56.650056],[9.885934,56.65],[9.89,56.645978],[9.895,56.649967],[9.939423,56.65],[9.93,56.655007]]}},{"type":"Feature","properties":{"depth":2,"source":"DDM 2024 coarse contour","resolution":"0.005 degree sampled grid","scope":"denmark","tileSource":"contours-denmark-coarse.geojson"},"geometry":{"type":"LineString","coordinates":[[10.065,56.70001],[10.055,56.700006],[10.05,56.695014],[10.04,56.69501],[10.035,56.690028],[10.02,56.690006],[10.01,56.680044],[10,56.680062],[9.995,56.675091],[9.98,56.675011],[9.965,56.665064],[9.955,56.665004],[9.9562,56.66],[9.937162,56.655],[9.940824,56.65],[9.95,56.649941],[9.965,56.654994],[9.97,56.659883],[9.975,56.65992],[9.98,56.654981],[9.995,56.669889],[10.005,56.669918],[10.01,56.674917],[10.015,56.674924],[10.02,56.670153],[10.025,56.674939],[10.03,56.674987],[10.05,56.694986],[10.055,56.694982],[10.06,56.689998],[10.07,56.689999],[10.075,56.684999],[10.092222,56.69],[10.09,56.695],[10.075,56.690003],[10.065,56.70001]]}},{"type":"Feature","properties":{"depth":2,"source":"DDM 2024 coarse contour","resolution":"0.005 degree sampled grid","scope":"denmark","tileSource":"contours-denmark-coarse.geojson"},"geometry":{"type":"LineString","coordinates":[[10.105,56.696875],[10.1,56.699255],[10.09,56.695],[10.105,56.696875]]}},{"type":"Feature","properties":{"depth":2,"source":"DDM 2024 coarse contour","resolution":"0.005 degree sampled grid","scope":"denmark","tileSource":"contours-denmark-coarse.geojson"},"geometry":{"type":"LineString","coordinates":[[10.2,56.7025],[10.184167,56.7],[10.1809,56.695],[10.185,56.691339],[10.19,56.696538],[10.2,56.696667],[10.204286,56.7],[10.2,56.7025]]}},{"type":"Feature","properties":{"depth":2,"source":"DDM 2024 coarse contour","resolution":"0.005 degree sampled grid","scope":"denmark","tileSource":"contours-denmark-coarse.geojson"},"geometry":{"type":"LineString","coordinates":[[10.27,56.702037],[10.265,56.7],[10.26,56.704643],[10.25675,56.7],[10.2725,56.7],[10.27,56.702037]]}},{"type":"Feature","properties":{"depth":2,"source":"DDM 2024 coarse contour","resolution":"0.005 degree sampled grid","scope":"denmark","tileSource":"contours-denmark-coarse.geojson"},"geometry":{"type":"LineString","coordinates":[[10.155,56.715001],[10.145,56.7128],[10.133571,56.715],[10.14,56.709998],[10.16,56.709993],[10.155,56.715001]]}},{"type":"Feature","properties":{"depth":2,"source":"DDM 2024 coarse contour","resolution":"0.005 degree sampled grid","scope":"denmark","tileSource":"contours-denmark-coarse.geojson"},"geometry":{"type":"LineString","coordinates":[[10.21,56.715],[10.204987,56.71],[10.205,56.705],[10.22,56.70625],[10.22,56.713971],[10.21,56.715]]}},{"type":"Feature","properties":{"depth":3,"source":"DDM 2024 coarse contour","resolution":"0.005 degree sampled grid","scope":"denmark","tileSource":"contours-denmark-coarse.geojson"},"geometry":{"type":"LineString","coordinates":[[9.87,56.645008],[9.855,56.648095],[9.85,56.645008],[9.82,56.643824],[9.845625,56.64],[9.855,56.644981],[9.872297,56.645],[9.87,56.645008]]}},{"type":"Feature","properties":{"depth":3,"source":"DDM 2024 coarse contour","resolution":"0.005 degree sampled grid","scope":"denmark","tileSource":"contours-denmark-coarse.geojson"},"geometry":{"type":"LineString","coordinates":[[9.93,56.655002],[9.925,56.650051],[9.886484,56.65],[9.89,56.646522],[9.895,56.649972],[9.939038,56.65],[9.93,56.655002]]}},{"type":"Feature","properties":{"depth":3,"source":"DDM 2024 coarse contour","resolution":"0.005 degree sampled grid","scope":"denmark","tileSource":"contours-denmark-coarse.geojson"},"geometry":{"type":"LineString","coordinates":[[10.065,56.700005],[10.055,56.700001],[10.05,56.695009],[10.04,56.695005],[10.035,56.690023],[10.02,56.690001],[10.020115,56.685],[10.015,56.685005],[10.01,56.680039],[10,56.680057],[9.995,56.675086],[9.98,56.675006],[9.965,56.665059],[9.955357,56.665],[9.956867,56.66],[9.938514,56.655],[9.941374,56.65],[9.95,56.649946],[9.965,56.654999],[9.97,56.659888],[9.975,56.659925],[9.98,56.654986],[9.995,56.669894],[10.005,56.669923],[10.01,56.674922],[10.015,56.674929],[10.02,56.67046],[10.025,56.674944],[10.03,56.674992],[10.05,56.694991],[10.06,56.691034],[10.07,56.693636],[10.065,56.700005]]}},{"type":"Feature","properties":{"depth":3,"source":"DDM 2024 coarse contour","resolution":"0.005 degree sampled grid","scope":"denmark","tileSource":"contours-denmark-coarse.geojson"},"geometry":{"type":"LineString","coordinates":[[10.22,56.7125],[10.205,56.710008],[10.205,56.706923],[10.22,56.707639],[10.22,56.7125]]}},{"type":"Feature","properties":{"depth":5,"source":"DDM 2024 coarse contour","resolution":"0.005 degree sampled grid","scope":"denmark","tileSource":"contours-denmark-coarse.geojson"},"geometry":{"type":"LineString","coordinates":[[9.935,56.653244],[9.93,56.654149],[9.925,56.650041],[9.887582,56.65],[9.89,56.647609],[9.895,56.649982],[9.938269,56.65],[9.935,56.653244]]}},{"type":"Feature","properties":{"depth":5,"source":"DDM 2024 coarse contour","resolution":"0.005 degree sampled grid","scope":"denmark","tileSource":"contours-denmark-coarse.geojson"},"geometry":{"type":"LineString","coordinates":[[10.045,56.69501],[10.035,56.690013],[10.024286,56.69],[10.02,56.684052],[10,56.680047],[9.995,56.675077],[9.980389,56.675],[9.975,56.669347],[9.958929,56.665],[9.9582,56.66],[9.940608,56.655],[9.942473,56.65],[9.953272,56.65],[9.97,56.659898],[9.975,56.659935],[9.98,56.654996],[9.995,56.669903],[10.005,56.669933],[10.01,56.674932],[10.02,56.671074],[10.029845,56.675],[10.04,56.688621],[10.049762,56.695],[10.045,56.69501]]}},{"type":"Feature","properties":{"depth":10,"source":"DDM 2024 coarse contour","resolution":"0.005 degree sampled grid","scope":"denmark","tileSource":"contours-denmark-coarse.geojson"},"geometry":{"type":"LineString","coordinates":[[9.96,56.658991],[9.943986,56.655],[9.945465,56.65],[9.962862,56.655],[9.96,56.658991]]}},{"type":"Feature","properties":{"depth":10,"source":"DDM 2024 coarse contour","resolution":"0.005 degree sampled grid","scope":"denmark","tileSource":"contours-denmark-coarse.geojson"},"geometry":{"type":"LineString","coordinates":[[10.025,56.68621],[9.995,56.675052],[9.983167,56.675],[9.96234,56.665],[9.96095,56.66],[9.98,56.657211],[9.995,56.669928],[10.027268,56.675],[10.031783,56.68],[10.025,56.68621]]}},{"type":"Feature","properties":{"depth":15,"source":"DDM 2024 coarse contour","resolution":"0.005 degree sampled grid","scope":"denmark","tileSource":"contours-denmark-coarse.geojson"},"geometry":{"type":"LineString","coordinates":[[10.02,56.679118],[10,56.679636],[9.965,56.665],[9.963017,56.66],[9.98,56.659842],[9.995,56.669952],[10.024118,56.675],[10.02,56.679118]]}},{"type":"Feature","properties":{"depth":20,"source":"DDM 2024 coarse contour","resolution":"0.005 degree sampled grid","scope":"denmark","tileSource":"contours-denmark-coarse.geojson"},"geometry":{"type":"LineString","coordinates":[[10.005,56.675346],[9.99,56.674],[9.965164,56.66],[10.003968,56.67],[10.005,56.675346]]}}]}