{"type":"FeatureCollection","name":"DDM contour tile r05_c05","bbox":[9.8,56.75,10.275,57.225],"metadata":{"schema":"waternav-ddm-contour-tile-v1","version":"v45.3","tileId":"r05_c05","source":"Danmarks Dybdemodel 2024 ddm_50m.dybde.tiff via bundled DDM contour GeoJSON files"},"features":[{"type":"Feature","properties":{"depth":1,"source":"DDM 2024 coarse contour","resolution":"0.005 degree sampled grid","scope":"denmark","tileSource":"contours-denmark-coarse.geojson"},"geometry":{"type":"LineString","coordinates":[[10.275001,56.907751],[10.271094,56.895],[10.275001,56.883468]]}},{"type":"Feature","properties":{"depth":1,"source":"DDM 2024 coarse contour","resolution":"0.005 degree sampled grid","scope":"denmark","tileSource":"contours-denmark-coarse.geojson"},"geometry":{"type":"LineString","coordinates":[[10.275001,56.826296],[10.275,56.82625],[10.275001,56.826246]]}},{"type":"Feature","properties":{"depth":1,"source":"DDM 2024 coarse contour","resolution":"0.005 degree sampled grid","scope":"denmark","tileSource":"contours-denmark-coarse.geojson"},"geometry":{"type":"LineString","coordinates":[[10.035,57.075013],[10.026286,57.075],[10.04,57.05999],[10.045,57.059988],[10.06,57.049988],[10.07,57.049955],[10.08,57.039988],[10.09,57.039986],[10.12,57.025],[10.14,57.009977],[10.16,57.004984],[10.185769,56.99],[10.2,56.989947],[10.205,56.984994],[10.225,56.984944],[10.23,56.979986],[10.24,56.979962],[10.25,56.979989],[10.255,56.984947],[10.275001,56.985051]]}},{"type":"Feature","properties":{"depth":1,"source":"DDM 2024 coarse contour","resolution":"0.005 degree sampled grid","scope":"denmark","tileSource":"contours-denmark-coarse.geojson"},"geometry":{"type":"LineString","coordinates":[[10.275001,56.990001],[10.27,56.990001],[10.265,56.985056],[10.225,56.985056],[10.22,56.990005],[10.21,56.990033],[10.205,56.995],[10.18,57.00501],[10.159565,57.02],[10.15,57.020018],[10.145,57.025004],[10.14,57.025031],[10.13,57.034943],[10.125,57.035008],[10.11,57.044651],[10.1,57.045013],[10.095,57.05],[10.07,57.05501],[10.055,57.065003],[10.045,57.065046],[10.035,57.075013]]}},{"type":"Feature","properties":{"depth":1,"source":"DDM 2024 coarse contour","resolution":"0.005 degree sampled grid","scope":"denmark","tileSource":"contours-denmark-coarse.geojson"},"geometry":{"type":"LineString","coordinates":[[9.799999,57.055353],[9.8,57.055352],[9.805,57.057],[9.808,57.06],[9.799999,57.067338]]}},{"type":"Feature","properties":{"depth":1,"source":"DDM 2024 coarse contour","resolution":"0.005 degree sampled grid","scope":"denmark","tileSource":"contours-denmark-coarse.geojson"},"geometry":{"type":"LineString","coordinates":[[9.815,57.0575],[9.81,57.059796],[9.805204,57.055],[9.805918,57.05],[9.825,57.049963],[9.83,57.044999],[9.84,57.045],[9.83,57.05375],[9.815,57.0575]]}},{"type":"Feature","properties":{"depth":1,"source":"DDM 2024 coarse contour","resolution":"0.005 degree sampled grid","scope":"denmark","tileSource":"contours-denmark-coarse.geojson"},"geometry":{"type":"LineString","coordinates":[[9.865,57.05505],[9.850061,57.05],[9.86,57.049987],[9.865,57.05505]]}},{"type":"Feature","properties":{"depth":1,"source":"DDM 2024 coarse contour","resolution":"0.005 degree sampled grid","scope":"denmark","tileSource":"contours-denmark-coarse.geojson"},"geometry":{"type":"LineString","coordinates":[[9.89,57.065004],[9.875,57.06454],[9.870123,57.06],[9.89,57.059998],[9.89,57.065004]]}},{"type":"Feature","properties":{"depth":1,"source":"DDM 2024 coarse contour","resolution":"0.005 degree sampled grid","scope":"denmark","tileSource":"contours-denmark-coarse.geojson"},"geometry":{"type":"LineString","coordinates":[[10.015,57.085048],[9.985,57.085001],[9.965,57.070455],[9.96,57.070001],[9.959995,57.06],[9.965,57.059978],[9.98,57.074967],[9.985,57.074996],[9.99,57.079983],[10.02,57.079992],[10.025,57.075391],[10.025,57.080052],[10.019619,57.085],[10.015,57.085048]]}},{"type":"Feature","properties":{"depth":1,"source":"DDM 2024 coarse contour","resolution":"0.005 degree sampled grid","scope":"denmark","tileSource":"contours-denmark-coarse.geojson"},"geometry":{"type":"LineString","coordinates":[[9.85,57.080001],[9.84,57.083276],[9.835,57.0795],[9.845,57.077273],[9.8525,57.08],[9.85,57.080001]]}},{"type":"Feature","properties":{"depth":2,"source":"DDM 2024 coarse contour","resolution":"0.005 degree sampled grid","scope":"denmark","tileSource":"contours-denmark-coarse.geojson"},"geometry":{"type":"LineString","coordinates":[[10.275001,56.900816],[10.272656,56.895],[10.275001,56.889557]]}},{"type":"Feature","properties":{"depth":2,"source":"DDM 2024 coarse contour","resolution":"0.005 degree sampled grid","scope":"denmark","tileSource":"contours-denmark-coarse.geojson"},"geometry":{"type":"LineString","coordinates":[[10.275001,56.837858],[10.275,56.837857],[10.275,56.829375],[10.275001,56.829372]]}},{"type":"Feature","properties":{"depth":2,"source":"DDM 2024 coarse contour","resolution":"0.005 degree sampled grid","scope":"denmark","tileSource":"contours-denmark-coarse.geojson"},"geometry":{"type":"LineString","coordinates":[[10.035,57.075008],[10.027714,57.075],[10.04,57.059995],[10.045,57.059993],[10.06,57.049993],[10.07,57.04996],[10.08,57.039993],[10.09,57.039991],[10.106481,57.03],[10.121957,57.025],[10.14,57.009982],[10.16,57.004989],[10.186731,56.99],[10.2,56.989952],[10.205,56.984999],[10.225,56.984949],[10.23,56.979991],[10.24,56.979967],[10.25,56.979994],[10.255,56.984952],[10.275001,56.985256]]}},{"type":"Feature","properties":{"depth":2,"source":"DDM 2024 coarse contour","resolution":"0.005 degree sampled grid","scope":"denmark","tileSource":"contours-denmark-coarse.geojson"},"geometry":{"type":"LineString","coordinates":[[10.275001,56.99],[10.270673,56.99],[10.265,56.985051],[10.225,56.985051],[10.22,56.99],[10.21,56.990028],[10.18,57.005005],[10.157391,57.02],[10.15,57.020013],[10.144906,57.025],[10.14,57.025026],[10.13,57.034368],[10.11,57.04407],[10.07,57.055005],[10.055,57.0647],[10.045,57.065041],[10.035,57.075008]]}},{"type":"Feature","properties":{"depth":2,"source":"DDM 2024 coarse contour","resolution":"0.005 degree sampled grid","scope":"denmark","tileSource":"contours-denmark-coarse.geojson"},"geometry":{"type":"LineString","coordinates":[[9.81,57.059286],[9.805714,57.055],[9.806939,57.05],[9.825,57.049968],[9.83,57.046818],[9.832593,57.05],[9.825,57.054012],[9.815,57.05375],[9.81,57.059286]]}},{"type":"Feature","properties":{"depth":2,"source":"DDM 2024 coarse contour","resolution":"0.005 degree sampled grid","scope":"denmark","tileSource":"contours-denmark-coarse.geojson"},"geometry":{"type":"LineString","coordinates":[[9.8,57.068898],[9.799999,57.068897]]}},{"type":"Feature","properties":{"depth":2,"source":"DDM 2024 coarse contour","resolution":"0.005 degree sampled grid","scope":"denmark","tileSource":"contours-denmark-coarse.geojson"},"geometry":{"type":"LineString","coordinates":[[9.799999,57.056057],[9.8,57.056056],[9.804667,57.06],[9.8,57.068898]]}},{"type":"Feature","properties":{"depth":2,"source":"DDM 2024 coarse contour","resolution":"0.005 degree sampled grid","scope":"denmark","tileSource":"contours-denmark-coarse.geojson"},"geometry":{"type":"LineString","coordinates":[[9.885,57.065001],[9.875,57.063966],[9.870741,57.06],[9.888636,57.06],[9.88875,57.065],[9.885,57.065001]]}},{"type":"Feature","properties":{"depth":2,"source":"DDM 2024 coarse contour","resolution":"0.005 degree sampled grid","scope":"denmark","tileSource":"contours-denmark-coarse.geojson"},"geometry":{"type":"LineString","coordinates":[[10.015,57.085043],[9.985365,57.085],[9.970833,57.075],[9.96,57.06],[9.965,57.059983],[9.98,57.074972],[9.984831,57.075],[9.99,57.079988],[10.02,57.079997],[10.025,57.075826],[10.025,57.080047],[10.015,57.08],[10.019143,57.085],[10.015,57.085043]]}},{"type":"Feature","properties":{"depth":3,"source":"DDM 2024 coarse contour","resolution":"0.005 degree sampled grid","scope":"denmark","tileSource":"contours-denmark-coarse.geojson"},"geometry":{"type":"LineString","coordinates":[[10.275001,56.896932],[10.274219,56.895],[10.275001,56.893787]]}},{"type":"Feature","properties":{"depth":3,"source":"DDM 2024 coarse contour","resolution":"0.005 degree sampled grid","scope":"denmark","tileSource":"contours-denmark-coarse.geojson"},"geometry":{"type":"LineString","coordinates":[[10.035,57.075003],[10.029143,57.075],[10.029984,57.07],[10.04,57.06],[10.045,57.059998],[10.06,57.049998],[10.07,57.049965],[10.08,57.039998],[10.09,57.039996],[10.107407,57.03],[10.12413,57.025],[10.138333,57.015],[10.14,57.009987],[10.16,57.004994],[10.187692,56.99],[10.2,56.989957],[10.207353,56.985],[10.225,56.984954],[10.23,56.979996],[10.235,56.982073],[10.25,56.979999],[10.255,56.984956],[10.27471,56.985],[10.27,56.988963],[10.265,56.985046],[10.225,56.985046],[10.22,56.989565],[10.215,56.985],[10.216154,56.99],[10.21,56.990023],[10.155217,57.02],[10.14,57.025021],[10.12,57.038867],[10.07,57.055],[10.055,57.0637],[10.045,57.065036],[10.035,57.075003]]}},{"type":"Feature","properties":{"depth":3,"source":"DDM 2024 coarse contour","resolution":"0.005 degree sampled grid","scope":"denmark","tileSource":"contours-denmark-coarse.geojson"},"geometry":{"type":"LineString","coordinates":[[10.275001,56.990003],[10.271635,56.99],[10.275,56.985513],[10.275001,56.985513]]}},{"type":"Feature","properties":{"depth":3,"source":"DDM 2024 coarse contour","resolution":"0.005 degree sampled grid","scope":"denmark","tileSource":"contours-denmark-coarse.geojson"},"geometry":{"type":"LineString","coordinates":[[9.81,57.058776],[9.806224,57.055],[9.807959,57.05],[9.830741,57.05],[9.82,57.053678],[9.815,57.050625],[9.81,57.058776]]}},{"type":"Feature","properties":{"depth":3,"source":"DDM 2024 coarse contour","resolution":"0.005 degree sampled grid","scope":"denmark","tileSource":"contours-denmark-coarse.geojson"},"geometry":{"type":"LineString","coordinates":[[9.885,57.062308],[9.88,57.064286],[9.871358,57.06],[9.886364,57.06],[9.885,57.062308]]}},{"type":"Feature","properties":{"depth":3,"source":"DDM 2024 coarse contour","resolution":"0.005 degree sampled grid","scope":"denmark","tileSource":"contours-denmark-coarse.geojson"},"geometry":{"type":"LineString","coordinates":[[10.015,57.085038],[9.985885,57.085],[9.971591,57.075],[9.961471,57.06],[9.965,57.059988],[9.98,57.074977],[9.99,57.079993],[10.015,57.080575],[10.018667,57.085],[10.015,57.085038]]}},{"type":"Feature","properties":{"depth":5,"source":"DDM 2024 coarse contour","resolution":"0.005 degree sampled grid","scope":"denmark","tileSource":"contours-denmark-coarse.geojson"},"geometry":{"type":"LineString","coordinates":[[10.27,56.987744],[10.265,56.985037],[10.225,56.985036],[10.22,56.988696],[10.215952,56.985],[10.225,56.984964],[10.23,56.980887],[10.235,56.984512],[10.237534,56.98],[10.242466,56.98],[10.245,56.984111],[10.273261,56.985],[10.27,56.987744]]}},{"type":"Feature","properties":{"depth":5,"source":"DDM 2024 coarse contour","resolution":"0.005 degree sampled grid","scope":"denmark","tileSource":"contours-denmark-coarse.geojson"},"geometry":{"type":"LineString","coordinates":[[10.055,57.0617],[10.05,57.063611],[10.046176,57.06],[10.061339,57.05],[10.07,57.049975],[10.08,57.043571],[10.106957,57.035],[10.109259,57.03],[10.115,57.030662],[10.125,57.025952],[10.189615,56.99],[10.19875,56.995],[10.175,57.005119],[10.11,57.042326],[10.07,57.053571],[10.055,57.0617]]}},{"type":"Feature","properties":{"depth":5,"source":"DDM 2024 coarse contour","resolution":"0.005 degree sampled grid","scope":"denmark","tileSource":"contours-denmark-coarse.geojson"},"geometry":{"type":"LineString","coordinates":[[10.21,56.990013],[10.2,56.994589],[10.196359,56.99],[10.205,56.986284],[10.213023,56.99],[10.21,56.990013]]}},{"type":"Feature","properties":{"depth":5,"source":"DDM 2024 coarse contour","resolution":"0.005 degree sampled grid","scope":"denmark","tileSource":"contours-denmark-coarse.geojson"},"geometry":{"type":"LineString","coordinates":[[10.275001,56.990001],[10.273558,56.99],[10.275001,56.989688]]}},{"type":"Feature","properties":{"depth":5,"source":"DDM 2024 coarse contour","resolution":"0.005 degree sampled grid","scope":"denmark","tileSource":"contours-denmark-coarse.geojson"},"geometry":{"type":"LineString","coordinates":[[10.04,57.07001],[10.03,57.072308],[10.045,57.061159],[10.04863,57.065],[10.04,57.07001]]}},{"type":"Feature","properties":{"depth":5,"source":"DDM 2024 coarse contour","resolution":"0.005 degree sampled grid","scope":"denmark","tileSource":"contours-denmark-coarse.geojson"},"geometry":{"type":"LineString","coordinates":[[9.985,57.082431],[9.973106,57.075],[9.9689,57.07],[9.97,57.065417],[9.989268,57.08],[9.985,57.082431]]}},{"type":"Feature","properties":{"depth":5,"source":"DDM 2024 coarse contour","resolution":"0.005 degree sampled grid","scope":"denmark","tileSource":"contours-denmark-coarse.geojson"},"geometry":{"type":"LineString","coordinates":[[10.015,57.085028],[9.986927,57.085],[9.99,57.080462],[10.015,57.081724],[10.017714,57.085],[10.015,57.085028]]}},{"type":"Feature","properties":{"depth":10,"source":"DDM 2024 coarse contour","resolution":"0.005 degree sampled grid","scope":"denmark","tileSource":"contours-denmark-coarse.geojson"},"geometry":{"type":"LineString","coordinates":[[10.265,56.985012],[10.253571,56.985],[10.269138,56.985],[10.265,56.985012]]}}]}