{"type":"FeatureCollection","name":"DDM contour tile r05_c08","bbox":[11.24,56.75,11.715,57.225],"metadata":{"schema":"waternav-ddm-contour-tile-v1","version":"v45.3","tileId":"r05_c08","source":"Danmarks Dybdemodel 2024 ddm_50m.dybde.tiff via bundled DDM contour GeoJSON files"},"features":[{"type":"Feature","properties":{"depth":1,"source":"DDM 2024 coarse contour","resolution":"0.005 degree sampled grid","scope":"denmark","tileSource":"contours-denmark-coarse.geojson"},"geometry":{"type":"LineString","coordinates":[[11.715001,57.053085],[11.700157,57.07],[11.700153,57.075],[11.680174,57.095],[11.680169,57.1],[11.660189,57.12],[11.660174,57.125],[11.635225,57.15],[11.635258,57.155],[11.620351,57.17],[11.620203,57.175],[11.60013,57.195],[11.600177,57.2],[11.575287,57.225],[11.575287,57.225001]]}},{"type":"Feature","properties":{"depth":2,"source":"DDM 2024 coarse contour","resolution":"0.005 degree sampled grid","scope":"denmark","tileSource":"contours-denmark-coarse.geojson"},"geometry":{"type":"LineString","coordinates":[[11.715001,57.05308],[11.700152,57.07],[11.700148,57.075],[11.680169,57.095],[11.680164,57.1],[11.660184,57.12],[11.660169,57.125],[11.63522,57.15],[11.635253,57.155],[11.620346,57.17],[11.620199,57.175],[11.600125,57.195],[11.600172,57.2],[11.575282,57.225],[11.575282,57.225001]]}},{"type":"Feature","properties":{"depth":3,"source":"DDM 2024 coarse contour","resolution":"0.005 degree sampled grid","scope":"denmark","tileSource":"contours-denmark-coarse.geojson"},"geometry":{"type":"LineString","coordinates":[[11.715001,57.053074],[11.700147,57.07],[11.700143,57.075],[11.680164,57.095],[11.680159,57.1],[11.660179,57.12],[11.660165,57.125],[11.635215,57.15],[11.635248,57.155],[11.620341,57.17],[11.620194,57.175],[11.60012,57.195],[11.600167,57.2],[11.575277,57.225],[11.575277,57.225001]]}},{"type":"Feature","properties":{"depth":3,"source":"DDM 2024 coarse contour","resolution":"0.005 degree sampled grid","scope":"denmark","tileSource":"contours-denmark-coarse.geojson"},"geometry":{"type":"LineString","coordinates":[[11.708545,56.749999],[11.708542,56.75],[11.715001,56.75]]}},{"type":"Feature","properties":{"depth":5,"source":"DDM 2024 coarse contour","resolution":"0.005 degree sampled grid","scope":"denmark","tileSource":"contours-denmark-coarse.geojson"},"geometry":{"type":"LineString","coordinates":[[11.715001,57.053063],[11.700138,57.07],[11.700133,57.075],[11.680154,57.095],[11.68015,57.1],[11.66017,57.12],[11.660155,57.125],[11.635206,57.15],[11.635239,57.155],[11.620332,57.17],[11.620184,57.175],[11.600111,57.195],[11.600158,57.2],[11.575268,57.225],[11.575268,57.225001]]}},{"type":"Feature","properties":{"depth":5,"source":"DDM 2024 coarse contour","resolution":"0.005 degree sampled grid","scope":"denmark","tileSource":"contours-denmark-coarse.geojson"},"geometry":{"type":"LineString","coordinates":[[11.45125,56.775],[11.48,56.762419],[11.505,56.76],[11.526624,56.749999]]}},{"type":"Feature","properties":{"depth":5,"source":"DDM 2024 coarse contour","resolution":"0.005 degree sampled grid","scope":"denmark","tileSource":"contours-denmark-coarse.geojson"},"geometry":{"type":"LineString","coordinates":[[11.625,56.749999],[11.625,56.75],[11.63,56.751061],[11.645,56.75],[11.645,56.749999]]}},{"type":"Feature","properties":{"depth":5,"source":"DDM 2024 coarse contour","resolution":"0.005 degree sampled grid","scope":"denmark","tileSource":"contours-denmark-coarse.geojson"},"geometry":{"type":"LineString","coordinates":[[11.655002,56.749999],[11.655,56.75],[11.715001,56.75]]}},{"type":"Feature","properties":{"depth":5,"source":"DDM 2024 coarse contour","resolution":"0.005 degree sampled grid","scope":"denmark","tileSource":"contours-denmark-coarse.geojson"},"geometry":{"type":"LineString","coordinates":[[11.43381,56.749999],[11.43,56.755],[11.42,56.756125],[11.415811,56.76],[11.42,56.767187],[11.43,56.772],[11.45125,56.775]]}},{"type":"Feature","properties":{"depth":5,"source":"DDM 2024 coarse contour","resolution":"0.005 degree sampled grid","scope":"denmark","tileSource":"contours-denmark-coarse.geojson"},"geometry":{"type":"LineString","coordinates":[[11.249231,57.225001],[11.249231,57.225],[11.265,57.2102],[11.2675,57.2],[11.277857,57.19],[11.28,57.182813],[11.287857,57.18],[11.285556,57.175],[11.3,57.17],[11.305,57.16],[11.318,57.16],[11.317857,57.155],[11.31,57.147333],[11.286,57.155],[11.282,57.16],[11.268571,57.165],[11.272308,57.17],[11.26,57.18],[11.259,57.19],[11.255,57.194],[11.24,57.1925],[11.239999,57.192501]]}},{"type":"Feature","properties":{"depth":5,"source":"DDM 2024 coarse contour","resolution":"0.005 degree sampled grid","scope":"denmark","tileSource":"contours-denmark-coarse.geojson"},"geometry":{"type":"LineString","coordinates":[[11.239999,57.167501],[11.24,57.1675],[11.245,57.17],[11.243333,57.165],[11.246875,57.16],[11.239999,57.157963]]}},{"type":"Feature","properties":{"depth":10,"source":"DDM 2024 coarse contour","resolution":"0.005 degree sampled grid","scope":"denmark","tileSource":"contours-denmark-coarse.geojson"},"geometry":{"type":"LineString","coordinates":[[11.715001,57.054236],[11.660146,57.12],[11.660131,57.125],[11.635182,57.15],[11.600134,57.2],[11.579145,57.225001]]}},{"type":"Feature","properties":{"depth":10,"source":"DDM 2024 coarse contour","resolution":"0.005 degree sampled grid","scope":"denmark","tileSource":"contours-denmark-coarse.geojson"},"geometry":{"type":"LineString","coordinates":[[11.3775,56.815],[11.41,56.81375],[11.45,56.803333],[11.494,56.78],[11.497812,56.77],[11.503182,56.77],[11.505,56.775],[11.546847,56.749999]]}},{"type":"Feature","properties":{"depth":10,"source":"DDM 2024 coarse contour","resolution":"0.005 degree sampled grid","scope":"denmark","tileSource":"contours-denmark-coarse.geojson"},"geometry":{"type":"LineString","coordinates":[[11.556918,56.749999],[11.565,56.7522],[11.572169,56.749999]]}},{"type":"Feature","properties":{"depth":10,"source":"DDM 2024 coarse contour","resolution":"0.005 degree sampled grid","scope":"denmark","tileSource":"contours-denmark-coarse.geojson"},"geometry":{"type":"LineString","coordinates":[[11.596572,56.749999],[11.63,56.754848],[11.69,56.751359],[11.715001,56.752054]]}},{"type":"Feature","properties":{"depth":10,"source":"DDM 2024 coarse contour","resolution":"0.005 degree sampled grid","scope":"denmark","tileSource":"contours-denmark-coarse.geojson"},"geometry":{"type":"LineString","coordinates":[[11.366666,56.749999],[11.371667,56.765],[11.367083,56.775],[11.34,56.786667],[11.33,56.784875],[11.33625,56.79],[11.31,56.7942],[11.305909,56.8],[11.35,56.816154],[11.365,56.814231],[11.375,56.82],[11.3775,56.815]]}},{"type":"Feature","properties":{"depth":10,"source":"DDM 2024 coarse contour","resolution":"0.005 degree sampled grid","scope":"denmark","tileSource":"contours-denmark-coarse.geojson"},"geometry":{"type":"LineString","coordinates":[[11.263386,57.225001],[11.274079,57.205],[11.300976,57.175],[11.38,57.122],[11.387692,57.11],[11.385862,57.1],[11.398462,57.085],[11.461458,57.045],[11.481154,57.025],[11.479167,57.02],[11.488571,57.01],[11.485,57.001667],[11.47,57.005],[11.46,57],[11.461667,57.005],[11.455,57.01125],[11.45,57.006667],[11.44,57.0075],[11.425,57.026],[11.415,57.026364],[11.41,57.018929],[11.4,57.029375],[11.39125,57.025],[11.4,57.015833],[11.405,57.02],[11.4,57.014167],[11.39,57.024],[11.38,57.011667],[11.37,57.014167],[11.34,56.991],[11.33,56.989167],[11.315,56.99],[11.31,56.996667],[11.29,57],[11.285,57.0075],[11.265,57.005],[11.2625,56.99],[11.24625,56.97],[11.239999,56.967222]]}},{"type":"Feature","properties":{"depth":10,"source":"DDM 2024 coarse contour","resolution":"0.005 degree sampled grid","scope":"denmark","tileSource":"contours-denmark-coarse.geojson"},"geometry":{"type":"LineString","coordinates":[[11.24375,56.95],[11.239999,56.946785]]}},{"type":"Feature","properties":{"depth":10,"source":"DDM 2024 coarse contour","resolution":"0.005 degree sampled grid","scope":"denmark","tileSource":"contours-denmark-coarse.geojson"},"geometry":{"type":"LineString","coordinates":[[11.239999,56.95],[11.24375,56.95]]}},{"type":"Feature","properties":{"depth":10,"source":"DDM 2024 coarse contour","resolution":"0.005 degree sampled grid","scope":"denmark","tileSource":"contours-denmark-coarse.geojson"},"geometry":{"type":"LineString","coordinates":[[11.477381,56.995],[11.48,56.99],[11.465,56.994],[11.457692,56.99],[11.464286,56.995],[11.46,57],[11.477381,56.995]]}},{"type":"Feature","properties":{"depth":10,"source":"DDM 2024 coarse contour","resolution":"0.005 degree sampled grid","scope":"denmark","tileSource":"contours-denmark-coarse.geojson"},"geometry":{"type":"LineString","coordinates":[[11.305,57.07],[11.275,57.066154],[11.265,57.06],[11.265,57.055],[11.275,57.048],[11.29,57.047],[11.31,57.065],[11.305,57.07]]}},{"type":"Feature","properties":{"depth":10,"source":"DDM 2024 coarse contour","resolution":"0.005 degree sampled grid","scope":"denmark","tileSource":"contours-denmark-coarse.geojson"},"geometry":{"type":"LineString","coordinates":[[11.355,57.06125],[11.345,57.05],[11.35,57.046875],[11.360833,57.055],[11.355,57.06125]]}},{"type":"Feature","properties":{"depth":15,"source":"DDM 2024 coarse contour","resolution":"0.005 degree sampled grid","scope":"denmark","tileSource":"contours-denmark-coarse.geojson"},"geometry":{"type":"LineString","coordinates":[[11.273611,57.225001],[11.275,57.22],[11.29,57.195],[11.30925,57.175],[11.37,57.141522],[11.415,57.0825],[11.435,57.066964],[11.478333,57.05],[11.505,57.020455],[11.552,56.99],[11.56,56.975714],[11.56,56.95],[11.541667,56.93],[11.545,56.925],[11.580833,56.925],[11.565,56.91],[11.573333,56.905],[11.56,56.898333],[11.555,56.885],[11.56,56.879],[11.575,56.88],[11.581667,56.875],[11.575,56.868571],[11.5425,56.865],[11.529,56.835],[11.533,56.825],[11.526,56.815],[11.5275,56.8],[11.535,56.79],[11.57,56.77],[11.575,56.773158],[11.578333,56.77],[11.571667,56.765],[11.585,56.759583],[11.655,56.754065],[11.715001,56.754652]]}},{"type":"Feature","properties":{"depth":15,"source":"DDM 2024 coarse contour","resolution":"0.005 degree sampled grid","scope":"denmark","tileSource":"contours-denmark-coarse.geojson"},"geometry":{"type":"LineString","coordinates":[[11.318428,56.749999],[11.323571,56.76],[11.311667,56.785],[11.295,56.765],[11.274615,56.77],[11.28,56.7765],[11.293,56.78],[11.279286,56.79],[11.276897,56.8],[11.286667,56.82],[11.3125,56.84],[11.31,56.845],[11.295,56.841579],[11.265,56.815],[11.255,56.81625],[11.25,56.8255],[11.245,56.828929],[11.239999,56.827798]]}},{"type":"Feature","properties":{"depth":15,"source":"DDM 2024 coarse contour","resolution":"0.005 degree sampled grid","scope":"denmark","tileSource":"contours-denmark-coarse.geojson"},"geometry":{"type":"LineString","coordinates":[[11.239999,56.853103],[11.244444,56.86],[11.243333,56.865],[11.255,56.877],[11.255588,56.885],[11.245,56.88875],[11.239999,56.887083]]}},{"type":"Feature","properties":{"depth":15,"source":"DDM 2024 coarse contour","resolution":"0.005 degree sampled grid","scope":"denmark","tileSource":"contours-denmark-coarse.geojson"},"geometry":{"type":"LineString","coordinates":[[11.715001,57.054207],[11.660122,57.12],[11.660107,57.125],[11.635158,57.15],[11.600109,57.2],[11.579121,57.225001]]}},{"type":"Feature","properties":{"depth":15,"source":"DDM 2024 coarse contour","resolution":"0.005 degree sampled grid","scope":"denmark","tileSource":"contours-denmark-coarse.geojson"},"geometry":{"type":"LineString","coordinates":[[11.595714,56.91],[11.625,56.886667],[11.625,56.88],[11.605,56.884286],[11.595,56.878333],[11.59,56.89],[11.591,56.905],[11.586111,56.91],[11.595714,56.91]]}},{"type":"Feature","properties":{"depth":20,"source":"DDM 2024 coarse contour","resolution":"0.005 degree sampled grid","scope":"denmark","tileSource":"contours-denmark-coarse.geojson"},"geometry":{"type":"LineString","coordinates":[[11.28375,57.225001],[11.28375,57.225],[11.2972,57.2],[11.32,57.178182],[11.345,57.176923],[11.356765,57.17],[11.41,57.098636],[11.432,57.08],[11.471429,57.065],[11.495,57.061429],[11.5,57.051429],[11.517917,57.05],[11.512647,57.045],[11.515,57.036111],[11.533889,57.02],[11.55,57.016667],[11.555,57.010833],[11.552647,57],[11.569149,56.95],[11.580233,56.94],[11.59,56.933438],[11.6025,56.945],[11.615,56.946818],[11.63,56.934318],[11.67,56.915612],[11.676316,56.92],[11.692222,56.905],[11.686364,56.875],[11.67625,56.855],[11.67,56.855],[11.671667,56.845],[11.661429,56.835],[11.6625,56.825],[11.649167,56.815],[11.65,56.81],[11.6125,56.8],[11.62,56.7875],[11.635,56.79125],[11.645,56.802857],[11.652143,56.8],[11.655,56.775],[11.637,56.765],[11.637647,56.76],[11.715001,56.758314]]}},{"type":"Feature","properties":{"depth":20,"source":"DDM 2024 coarse contour","resolution":"0.005 degree sampled grid","scope":"denmark","tileSource":"contours-denmark-coarse.geojson"},"geometry":{"type":"LineString","coordinates":[[11.715001,57.054179],[11.660098,57.12],[11.660083,57.125],[11.635134,57.15],[11.600085,57.2],[11.579097,57.225001]]}},{"type":"Feature","properties":{"depth":20,"source":"DDM 2024 coarse contour","resolution":"0.005 degree sampled grid","scope":"denmark","tileSource":"contours-denmark-coarse.geojson"},"geometry":{"type":"LineString","coordinates":[[11.245,56.785],[11.239999,56.776998]]}},{"type":"Feature","properties":{"depth":20,"source":"DDM 2024 coarse contour","resolution":"0.005 degree sampled grid","scope":"denmark","tileSource":"contours-denmark-coarse.geojson"},"geometry":{"type":"LineString","coordinates":[[11.239999,56.77426],[11.25,56.768333],[11.25,56.78],[11.245,56.785]]}},{"type":"Feature","properties":{"depth":20,"source":"DDM 2024 coarse contour","resolution":"0.005 degree sampled grid","scope":"denmark","tileSource":"contours-denmark-coarse.geojson"},"geometry":{"type":"LineString","coordinates":[[11.650385,56.935],[11.64,56.93],[11.643333,56.935],[11.650385,56.935]]}},{"type":"Feature","properties":{"depth":20,"source":"DDM 2024 coarse contour","resolution":"0.005 degree sampled grid","scope":"denmark","tileSource":"contours-denmark-coarse.geojson"},"geometry":{"type":"LineString","coordinates":[[11.690568,56.965],[11.692778,56.96],[11.681406,56.96],[11.681923,56.965],[11.690568,56.965]]}},{"type":"Feature","properties":{"depth":20,"source":"DDM 2024 coarse contour","resolution":"0.005 degree sampled grid","scope":"denmark","tileSource":"contours-denmark-coarse.geojson"},"geometry":{"type":"LineString","coordinates":[[11.595594,57.02],[11.592292,57.01],[11.597273,57.005],[11.59,56.992917],[11.581875,57],[11.585,57.015],[11.579353,57.02],[11.585,57.015],[11.595594,57.02]]}},{"type":"Feature","properties":{"depth":20,"source":"DDM 2024 coarse contour","resolution":"0.005 degree sampled grid","scope":"denmark","tileSource":"contours-denmark-coarse.geojson"},"geometry":{"type":"LineString","coordinates":[[11.632353,57.005],[11.619167,57.005],[11.63,57.008333],[11.632353,57.005]]}},{"type":"Feature","properties":{"depth":20,"source":"DDM 2024 coarse contour","resolution":"0.005 degree sampled grid","scope":"denmark","tileSource":"contours-denmark-coarse.geojson"},"geometry":{"type":"LineString","coordinates":[[11.610568,57.09],[11.615,57.083148],[11.605,57.077105],[11.600417,57.08],[11.61,57.0825],[11.610568,57.09]]}},{"type":"Feature","properties":{"depth":30,"source":"DDM 2024 coarse contour","resolution":"0.005 degree sampled grid","scope":"denmark","tileSource":"contours-denmark-coarse.geojson"},"geometry":{"type":"LineString","coordinates":[[11.307993,57.225001],[11.311667,57.21],[11.322174,57.19],[11.351907,57.18],[11.379706,57.16],[11.42,57.104242],[11.44,57.095676],[11.47,57.092041],[11.494732,57.08],[11.491977,57.075],[11.505,57.062931],[11.516304,57.065],[11.541604,57.05],[11.531465,57.04],[11.533297,57.035],[11.555997,57.02],[11.567881,56.96],[11.58,56.948261],[11.585,56.944758],[11.595,56.95814],[11.625,56.956005],[11.649545,56.945],[11.664483,56.925],[11.68,56.921098],[11.700317,56.905],[11.71,56.88756],[11.715001,56.883135]]}},{"type":"Feature","properties":{"depth":30,"source":"DDM 2024 coarse contour","resolution":"0.005 degree sampled grid","scope":"denmark","tileSource":"contours-denmark-coarse.geojson"},"geometry":{"type":"LineString","coordinates":[[11.715001,56.844608],[11.691316,56.81],[11.691429,56.8],[11.7,56.785882],[11.715001,56.77806]]}},{"type":"Feature","properties":{"depth":30,"source":"DDM 2024 coarse contour","resolution":"0.005 degree sampled grid","scope":"denmark","tileSource":"contours-denmark-coarse.geojson"},"geometry":{"type":"LineString","coordinates":[[11.715001,57.054122],[11.66005,57.12],[11.660034,57.125],[11.635086,57.15],[11.620064,57.175],[11.595,57.185536],[11.591528,57.19],[11.600037,57.2],[11.57515,57.225],[11.57515,57.225001]]}},{"type":"Feature","properties":{"depth":30,"source":"DDM 2024 coarse contour","resolution":"0.005 degree sampled grid","scope":"denmark","tileSource":"contours-denmark-coarse.geojson"},"geometry":{"type":"LineString","coordinates":[[11.715001,56.918078],[11.71,56.919049],[11.701111,56.935],[11.702059,56.94],[11.71,56.941949],[11.715001,56.941369]]}},{"type":"Feature","properties":{"depth":30,"source":"DDM 2024 coarse contour","resolution":"0.005 degree sampled grid","scope":"denmark","tileSource":"contours-denmark-coarse.geojson"},"geometry":{"type":"LineString","coordinates":[[11.682273,56.98],[11.712783,56.97],[11.714919,56.96],[11.68,56.953349],[11.654114,56.965],[11.655,56.975],[11.675,56.983125],[11.682273,56.98]]}},{"type":"Feature","properties":{"depth":30,"source":"DDM 2024 coarse contour","resolution":"0.005 degree sampled grid","scope":"denmark","tileSource":"contours-denmark-coarse.geojson"},"geometry":{"type":"LineString","coordinates":[[11.605896,57.03],[11.602619,57.02],[11.616226,57.025],[11.648068,57.01],[11.647904,57.005],[11.623182,56.98],[11.6,56.974907],[11.58,56.985625],[11.577915,57.015],[11.568208,57.03],[11.57,57.033701],[11.575,57.027788],[11.605896,57.03]]}},{"type":"Feature","properties":{"depth":30,"source":"DDM 2024 coarse contour","resolution":"0.005 degree sampled grid","scope":"denmark","tileSource":"contours-denmark-coarse.geojson"},"geometry":{"type":"LineString","coordinates":[[11.585,57.025806],[11.578372,57.025],[11.585,57.01931],[11.585,57.025806]]}},{"type":"Feature","properties":{"depth":30,"source":"DDM 2024 coarse contour","resolution":"0.005 degree sampled grid","scope":"denmark","tileSource":"contours-denmark-coarse.geojson"},"geometry":{"type":"LineString","coordinates":[[11.568667,57.125],[11.575,57.117059],[11.6,57.118021],[11.615,57.1136],[11.63,57.117381],[11.64,57.112917],[11.64625,57.09],[11.629322,57.085],[11.645,57.073889],[11.64759,57.065],[11.565,57.059828],[11.545,57.07184],[11.54,57.082317],[11.52,57.09268],[11.505,57.094767],[11.504375,57.11],[11.490763,57.115],[11.494286,57.12],[11.51,57.122794],[11.515,57.129643],[11.54,57.13],[11.545,57.122143],[11.568667,57.125]]}},{"type":"Feature","properties":{"depth":30,"source":"DDM 2024 coarse contour","resolution":"0.005 degree sampled grid","scope":"denmark","tileSource":"contours-denmark-coarse.geojson"},"geometry":{"type":"LineString","coordinates":[[11.536579,57.165],[11.542708,57.15],[11.53,57.1365],[11.515,57.141212],[11.501406,57.155],[11.53,57.169184],[11.536579,57.165]]}},{"type":"Feature","properties":{"depth":30,"source":"DDM 2024 coarse contour","resolution":"0.005 degree sampled grid","scope":"denmark","tileSource":"contours-denmark-coarse.geojson"},"geometry":{"type":"LineString","coordinates":[[11.582586,57.155],[11.586848,57.15],[11.585,57.142885],[11.575,57.151034],[11.568611,57.145],[11.57125,57.14],[11.558409,57.14],[11.558542,57.15],[11.565,57.155962],[11.575,57.158594],[11.582586,57.155]]}},{"type":"Feature","properties":{"depth":30,"source":"DDM 2024 coarse contour","resolution":"0.005 degree sampled grid","scope":"denmark","tileSource":"contours-denmark-coarse.geojson"},"geometry":{"type":"LineString","coordinates":[[11.493846,57.19],[11.515,57.182742],[11.495,57.174259],[11.474113,57.185],[11.475,57.190479],[11.493846,57.19]]}},{"type":"Feature","properties":{"depth":30,"source":"DDM 2024 coarse contour","resolution":"0.005 degree sampled grid","scope":"denmark","tileSource":"contours-denmark-coarse.geojson"},"geometry":{"type":"LineString","coordinates":[[11.409512,57.225001],[11.405,57.217453],[11.396984,57.22],[11.404744,57.225001]]}},{"type":"Feature","properties":{"depth":50,"source":"DDM 2024 coarse contour","resolution":"0.005 degree sampled grid","scope":"denmark","tileSource":"contours-denmark-coarse.geojson"},"geometry":{"type":"LineString","coordinates":[[11.342112,57.225001],[11.344273,57.19],[11.39375,57.16],[11.43,57.125254],[11.476432,57.095],[11.48,57.087932],[11.545,57.05142],[11.543834,57.045],[11.563182,57.015],[11.57,56.978482],[11.575119,56.98],[11.562363,57.035],[11.57,57.039265],[11.595,57.039589],[11.645,57.0175],[11.665,56.99125],[11.695,56.981542],[11.715001,56.970719]]}},{"type":"Feature","properties":{"depth":50,"source":"DDM 2024 coarse contour","resolution":"0.005 degree sampled grid","scope":"denmark","tileSource":"contours-denmark-coarse.geojson"},"geometry":{"type":"LineString","coordinates":[[11.715001,56.955817],[11.712672,56.955],[11.715,56.951351],[11.715001,56.951351]]}},{"type":"Feature","properties":{"depth":50,"source":"DDM 2024 coarse contour","resolution":"0.005 degree sampled grid","scope":"denmark","tileSource":"contours-denmark-coarse.geojson"},"geometry":{"type":"LineString","coordinates":[[11.715001,56.910996],[11.7,56.926043],[11.676667,56.94],[11.675,56.949],[11.635,56.966229],[11.600238,56.965],[11.625,56.963511],[11.67,56.937333],[11.67,56.929192],[11.704286,56.905],[11.715,56.889153],[11.715001,56.889152]]}},{"type":"Feature","properties":{"depth":50,"source":"DDM 2024 coarse contour","resolution":"0.005 degree sampled grid","scope":"denmark","tileSource":"contours-denmark-coarse.geojson"},"geometry":{"type":"LineString","coordinates":[[11.715001,56.985173],[11.68,57.003346],[11.673712,57.015],[11.67925,57.02],[11.675893,57.025],[11.637877,57.035],[11.636022,57.04],[11.64,57.040637],[11.69,57.03875],[11.705,57.036773],[11.71,57.030079],[11.715001,57.029572]]}},{"type":"Feature","properties":{"depth":50,"source":"DDM 2024 coarse contour","resolution":"0.005 degree sampled grid","scope":"denmark","tileSource":"contours-denmark-coarse.geojson"},"geometry":{"type":"LineString","coordinates":[[11.715001,57.05157],[11.705,57.063585],[11.67,57.058183],[11.645,57.060909],[11.63,57.054231],[11.6,57.052917],[11.565,57.058016],[11.505,57.090891],[11.49,57.105605],[11.484023,57.12],[11.491923,57.125],[11.481108,57.13],[11.482241,57.14],[11.473257,57.155],[11.476197,57.165],[11.455,57.196667],[11.495,57.196174],[11.525,57.181879],[11.56,57.181045],[11.59,57.166961],[11.62,57.160128],[11.63,57.151702],[11.635,57.151319],[11.635025,57.155],[11.62,57.174],[11.595,57.178228],[11.572679,57.19],[11.575,57.196475],[11.59125,57.205],[11.578298,57.225001]]}},{"type":"Feature","properties":{"depth":50,"source":"DDM 2024 coarse contour","resolution":"0.005 degree sampled grid","scope":"denmark","tileSource":"contours-denmark-coarse.geojson"},"geometry":{"type":"LineString","coordinates":[[11.705,56.950728],[11.690179,56.95],[11.695,56.946143],[11.709583,56.95],[11.705,56.950728]]}},{"type":"Feature","properties":{"depth":50,"source":"DDM 2024 coarse contour","resolution":"0.005 degree sampled grid","scope":"denmark","tileSource":"contours-denmark-coarse.geojson"},"geometry":{"type":"LineString","coordinates":[[11.58,56.975233],[11.58,56.96943],[11.595543,56.97],[11.58,56.975233]]}},{"type":"Feature","properties":{"depth":50,"source":"DDM 2024 coarse contour","resolution":"0.005 degree sampled grid","scope":"denmark","tileSource":"contours-denmark-coarse.geojson"},"geometry":{"type":"LineString","coordinates":[[11.715,57.001244],[11.701795,57],[11.715001,57]]}},{"type":"Feature","properties":{"depth":50,"source":"DDM 2024 coarse contour","resolution":"0.005 degree sampled grid","scope":"denmark","tileSource":"contours-denmark-coarse.geojson"},"geometry":{"type":"LineString","coordinates":[[11.715001,57.001244],[11.715,57.001244]]}},{"type":"Feature","properties":{"depth":50,"source":"DDM 2024 coarse contour","resolution":"0.005 degree sampled grid","scope":"denmark","tileSource":"contours-denmark-coarse.geojson"},"geometry":{"type":"LineString","coordinates":[[11.441412,57.15],[11.45,57.144692],[11.45,57.135692],[11.439243,57.14],[11.436385,57.145],[11.44,57.154444],[11.441412,57.15]]}},{"type":"Feature","properties":{"depth":50,"source":"DDM 2024 coarse contour","resolution":"0.005 degree sampled grid","scope":"denmark","tileSource":"contours-denmark-coarse.geojson"},"geometry":{"type":"LineString","coordinates":[[11.419966,57.17],[11.43,57.157568],[11.415,57.160236],[11.402752,57.17],[11.405,57.174694],[11.419966,57.17]]}},{"type":"Feature","properties":{"depth":50,"source":"DDM 2024 coarse contour","resolution":"0.005 degree sampled grid","scope":"denmark","tileSource":"contours-denmark-coarse.geojson"},"geometry":{"type":"LineString","coordinates":[[11.406322,57.195],[11.412415,57.19],[11.41,57.187782],[11.4,57.189301],[11.396125,57.195],[11.406322,57.195]]}},{"type":"Feature","properties":{"depth":50,"source":"DDM 2024 coarse contour","resolution":"0.005 degree sampled grid","scope":"denmark","tileSource":"contours-denmark-coarse.geojson"},"geometry":{"type":"LineString","coordinates":[[11.422269,57.225001],[11.422269,57.225],[11.41338,57.215],[11.395,57.214325],[11.38922,57.22],[11.393614,57.225001]]}},{"type":"Feature","properties":{"depth":50,"source":"DDM 2024 coarse contour","resolution":"0.005 degree sampled grid","scope":"denmark","tileSource":"contours-denmark-coarse.geojson"},"geometry":{"type":"LineString","coordinates":[[11.548189,57.225001],[11.55,57.223676],[11.5527,57.225001]]}},{"type":"Feature","properties":{"depth":50,"source":"DDM 2024 coarse contour","resolution":"0.005 degree sampled grid","scope":"denmark","tileSource":"contours-denmark-coarse.geojson"},"geometry":{"type":"LineString","coordinates":[[11.555,57.225001],[11.555,57.222708],[11.54,57.217029],[11.53,57.221279],[11.525,57.217059],[11.51,57.217091],[11.503372,57.225001]]}},{"type":"Feature","properties":{"depth":100,"source":"DDM 2024 coarse contour","resolution":"0.005 degree sampled grid","scope":"denmark","tileSource":"contours-denmark-coarse.geojson"},"geometry":{"type":"LineString","coordinates":[[11.65,57.045989],[11.626598,57.045],[11.654345,57.045],[11.65,57.045989]]}},{"type":"Feature","properties":{"depth":100,"source":"DDM 2024 coarse contour","resolution":"0.005 degree sampled grid","scope":"denmark","tileSource":"contours-denmark-coarse.geojson"},"geometry":{"type":"LineString","coordinates":[[11.36,57.225001],[11.36,57.218767],[11.364058,57.22],[11.362536,57.225001]]}}]}