{"type":"FeatureCollection","name":"DDM contour tile r05_c01","bbox":[7.88,56.75,8.355,57.225],"metadata":{"schema":"waternav-ddm-contour-tile-v1","version":"v45.3","tileId":"r05_c01","source":"Danmarks Dybdemodel 2024 ddm_50m.dybde.tiff via bundled DDM contour GeoJSON files"},"features":[{"type":"Feature","properties":{"depth":1,"source":"DDM 2024 coarse contour","resolution":"0.005 degree sampled grid","scope":"denmark","tileSource":"contours-denmark-coarse.geojson"},"geometry":{"type":"LineString","coordinates":[[8.300002,56.749999],[8.300002,56.755],[8.2745,56.77],[8.265,56.770008],[8.26,56.775001],[8.254993,56.775],[8.255,56.771316],[8.2625,56.765],[8.259167,56.76],[8.2625,56.755],[8.26,56.75],[8.260001,56.749999]]}},{"type":"Feature","properties":{"depth":1,"source":"DDM 2024 coarse contour","resolution":"0.005 degree sampled grid","scope":"denmark","tileSource":"contours-denmark-coarse.geojson"},"geometry":{"type":"LineString","coordinates":[[8.220017,56.749999],[8.220017,56.75],[8.225,56.755],[8.22502,56.785],[8.230011,56.79],[8.235017,56.805],[8.245002,56.815],[8.255019,56.84],[8.265005,56.85],[8.265021,56.855],[8.285017,56.875],[8.285021,56.88],[8.325,56.920341],[8.32502,56.925],[8.355001,56.954982]]}},{"type":"Feature","properties":{"depth":2,"source":"DDM 2024 coarse contour","resolution":"0.005 degree sampled grid","scope":"denmark","tileSource":"contours-denmark-coarse.geojson"},"geometry":{"type":"LineString","coordinates":[[8.220012,56.749999],[8.220012,56.75],[8.225,56.761429],[8.225015,56.785],[8.230006,56.79],[8.235012,56.805],[8.250003,56.825],[8.255014,56.84],[8.265,56.85],[8.265016,56.855],[8.325,56.921477],[8.325015,56.925],[8.355001,56.954987]]}},{"type":"Feature","properties":{"depth":2,"source":"DDM 2024 coarse contour","resolution":"0.005 degree sampled grid","scope":"denmark","tileSource":"contours-denmark-coarse.geojson"},"geometry":{"type":"LineString","coordinates":[[8.27,56.770004],[8.261667,56.77],[8.269375,56.765],[8.27,56.758889],[8.275,56.762],[8.288405,56.749999]]}},{"type":"Feature","properties":{"depth":2,"source":"DDM 2024 coarse contour","resolution":"0.005 degree sampled grid","scope":"denmark","tileSource":"contours-denmark-coarse.geojson"},"geometry":{"type":"LineString","coordinates":[[8.299095,56.749999],[8.29875,56.755],[8.27,56.770004]]}},{"type":"Feature","properties":{"depth":3,"source":"DDM 2024 coarse contour","resolution":"0.005 degree sampled grid","scope":"denmark","tileSource":"contours-denmark-coarse.geojson"},"geometry":{"type":"LineString","coordinates":[[8.220921,56.749999],[8.22501,56.785],[8.265011,56.855],[8.285007,56.875],[8.285011,56.88],[8.310007,56.905],[8.32501,56.925],[8.355001,56.954992]]}},{"type":"Feature","properties":{"depth":5,"source":"DDM 2024 coarse contour","resolution":"0.005 degree sampled grid","scope":"denmark","tileSource":"contours-denmark-coarse.geojson"},"geometry":{"type":"LineString","coordinates":[[8.219484,56.749999],[8.225,56.785],[8.249576,56.835],[8.26,56.845],[8.260312,56.85],[8.3045,56.9],[8.30439,56.905],[8.355001,56.958306]]}},{"type":"Feature","properties":{"depth":10,"source":"DDM 2024 coarse contour","resolution":"0.005 degree sampled grid","scope":"denmark","tileSource":"contours-denmark-coarse.geojson"},"geometry":{"type":"LineString","coordinates":[[8.214728,56.749999],[8.222012,56.785],[8.253514,56.85],[8.31,56.920152],[8.355,56.965377],[8.355001,56.965378]]}},{"type":"Feature","properties":{"depth":15,"source":"DDM 2024 coarse contour","resolution":"0.005 degree sampled grid","scope":"denmark","tileSource":"contours-denmark-coarse.geojson"},"geometry":{"type":"LineString","coordinates":[[8.200416,56.749999],[8.215,56.775],[8.22625,56.815],[8.252083,56.86],[8.25,56.87],[8.272222,56.895],[8.2725,56.905],[8.295,56.917143],[8.302083,56.93],[8.31525,56.935],[8.355001,56.971591]]}},{"type":"Feature","properties":{"depth":20,"source":"DDM 2024 coarse contour","resolution":"0.005 degree sampled grid","scope":"denmark","tileSource":"contours-denmark-coarse.geojson"},"geometry":{"type":"LineString","coordinates":[[8.133169,56.749999],[8.14,56.753889],[8.144375,56.75],[8.144375,56.749999]]}},{"type":"Feature","properties":{"depth":20,"source":"DDM 2024 coarse contour","resolution":"0.005 degree sampled grid","scope":"denmark","tileSource":"contours-denmark-coarse.geojson"},"geometry":{"type":"LineString","coordinates":[[8.169287,56.749999],[8.169286,56.75],[8.196,56.765],[8.195,56.77],[8.187368,56.77],[8.193,56.775],[8.195,56.786667],[8.175,56.79125],[8.17,56.784231],[8.158846,56.79],[8.181,56.81],[8.1925,56.825],[8.19,56.83],[8.195,56.826667],[8.201,56.83],[8.2,56.845],[8.207143,56.85],[8.198333,56.855],[8.195,56.87],[8.210294,56.88],[8.208333,56.885],[8.18,56.89],[8.19,56.897143],[8.21,56.890833],[8.235,56.904375],[8.248333,56.915],[8.245,56.925],[8.255,56.92625],[8.274,56.955],[8.29,56.963333],[8.325,56.995238],[8.340625,56.99],[8.326562,56.98],[8.335,56.97675],[8.355001,56.987905]]}},{"type":"Feature","properties":{"depth":20,"source":"DDM 2024 coarse contour","resolution":"0.005 degree sampled grid","scope":"denmark","tileSource":"contours-denmark-coarse.geojson"},"geometry":{"type":"LineString","coordinates":[[8.355001,56.998621],[8.355,56.998621],[8.35,57.003636],[8.33,57.00625],[8.325,57.017143],[8.35,57.0205],[8.355001,57.024714]]}},{"type":"Feature","properties":{"depth":20,"source":"DDM 2024 coarse contour","resolution":"0.005 degree sampled grid","scope":"denmark","tileSource":"contours-denmark-coarse.geojson"},"geometry":{"type":"LineString","coordinates":[[8.155,56.92],[8.16,56.91],[8.155,56.906667],[8.138333,56.91],[8.140714,56.92],[8.15,56.923333],[8.155,56.92]]}},{"type":"Feature","properties":{"depth":20,"source":"DDM 2024 coarse contour","resolution":"0.005 degree sampled grid","scope":"denmark","tileSource":"contours-denmark-coarse.geojson"},"geometry":{"type":"LineString","coordinates":[[8.225,56.955],[8.236667,56.95],[8.24,56.9325],[8.21,56.935588],[8.197857,56.95],[8.205,56.955385],[8.225,56.955]]}},{"type":"Feature","properties":{"depth":20,"source":"DDM 2024 coarse contour","resolution":"0.005 degree sampled grid","scope":"denmark","tileSource":"contours-denmark-coarse.geojson"},"geometry":{"type":"LineString","coordinates":[[8.355001,57.062193],[8.345,57.055667],[8.338462,57.06],[8.355001,57.067751]]}},{"type":"Feature","properties":{"depth":20,"source":"DDM 2024 coarse contour","resolution":"0.005 degree sampled grid","scope":"denmark","tileSource":"contours-denmark-coarse.geojson"},"geometry":{"type":"LineString","coordinates":[[8.325,57.185],[8.305,57.17875],[8.32,57.186667],[8.325,57.185]]}},{"type":"Feature","properties":{"depth":20,"source":"DDM 2024 coarse contour","resolution":"0.005 degree sampled grid","scope":"denmark","tileSource":"contours-denmark-coarse.geojson"},"geometry":{"type":"LineString","coordinates":[[8.355001,57.193125],[8.35,57.193125],[8.335,57.186944],[8.333226,57.19],[8.355001,57.198438]]}},{"type":"Feature","properties":{"depth":30,"source":"DDM 2024 coarse contour","resolution":"0.005 degree sampled grid","scope":"denmark","tileSource":"contours-denmark-coarse.geojson"},"geometry":{"type":"LineString","coordinates":[[7.879999,56.887857],[7.915,56.884524],[7.93625,56.895],[7.938333,56.905],[7.957273,56.915],[7.960833,56.925],[7.990833,56.955],[7.99125,56.965],[7.977,56.975],[7.987917,56.985],[7.980625,56.99],[7.987143,56.995],[8.025,57.002963],[8.03,56.991786],[8.045682,57],[8.033333,57.005],[8.034333,57.01],[8.05,57.013421],[8.055,57.022143],[8.06875,57.03],[8.09,57.0325],[8.106667,57.04],[8.095,57.05],[8.095625,57.055],[8.115,57.064],[8.110833,57.07],[8.150714,57.075],[8.135,57.07625],[8.125,57.086042],[8.165,57.08],[8.175,57.073409],[8.18,57.079375],[8.185,57.08],[8.185417,57.075],[8.185,57.08],[8.195,57.085577],[8.205,57.085],[8.206,57.095],[8.19,57.102794],[8.18,57.095],[8.145,57.094286],[8.138846,57.09],[8.150333,57.105],[8.146667,57.11],[8.155,57.125],[8.16,57.122857],[8.169063,57.13],[8.175,57.144],[8.210833,57.155],[8.206,57.16],[8.215,57.17],[8.246786,57.165],[8.239189,57.175],[8.241053,57.185],[8.25,57.186042],[8.255,57.18],[8.267333,57.185],[8.257222,57.195],[8.26,57.201],[8.27,57.2],[8.268667,57.21],[8.28,57.215769],[8.305,57.214706],[8.31,57.210556],[8.319118,57.225001]]}},{"type":"Feature","properties":{"depth":30,"source":"DDM 2024 coarse contour","resolution":"0.005 degree sampled grid","scope":"denmark","tileSource":"contours-denmark-coarse.geojson"},"geometry":{"type":"LineString","coordinates":[[7.92,56.776875],[7.907857,56.775],[7.915,56.768793],[7.926,56.77],[7.92,56.776875]]}},{"type":"Feature","properties":{"depth":30,"source":"DDM 2024 coarse contour","resolution":"0.005 degree sampled grid","scope":"denmark","tileSource":"contours-denmark-coarse.geojson"},"geometry":{"type":"LineString","coordinates":[[7.955,57.02],[7.955,57.005294],[7.945,57.002632],[7.94,57.008333],[7.934286,57],[7.925,56.997333],[7.9075,56.97],[7.89,56.966415],[7.884167,56.97],[7.887308,56.98],[7.923065,57.01],[7.935,57.010385],[7.94,57.016724],[7.955,57.02]]}},{"type":"Feature","properties":{"depth":30,"source":"DDM 2024 coarse contour","resolution":"0.005 degree sampled grid","scope":"denmark","tileSource":"contours-denmark-coarse.geojson"},"geometry":{"type":"LineString","coordinates":[[8.27,57.040714],[8.2525,57.035],[8.244286,57.025],[8.265,57.026071],[8.270833,57.03],[8.27,57.040714]]}},{"type":"Feature","properties":{"depth":30,"source":"DDM 2024 coarse contour","resolution":"0.005 degree sampled grid","scope":"denmark","tileSource":"contours-denmark-coarse.geojson"},"geometry":{"type":"LineString","coordinates":[[8.135,57.11],[8.13,57.095333],[8.115,57.092241],[8.112083,57.085],[8.095217,57.08],[8.1,57.074286],[8.08,57.059167],[8.065,57.059265],[8.060857,57.055],[8.07,57.05],[8.0675,57.045],[8.04,57.052656],[8.03625,57.055],[8.048214,57.06],[8.035,57.062119],[8.01,57.045833],[7.992308,57.05],[8.035,57.0706],[8.042727,57.08],[8.07,57.088889],[8.08,57.086979],[8.09,57.096],[8.11,57.094848],[8.110625,57.1],[8.122308,57.105],[8.120625,57.11],[8.135,57.11]]}},{"type":"Feature","properties":{"depth":30,"source":"DDM 2024 coarse contour","resolution":"0.005 degree sampled grid","scope":"denmark","tileSource":"contours-denmark-coarse.geojson"},"geometry":{"type":"LineString","coordinates":[[8.155,57.066111],[8.150526,57.06],[8.162286,57.06],[8.155,57.066111]]}},{"type":"Feature","properties":{"depth":30,"source":"DDM 2024 coarse contour","resolution":"0.005 degree sampled grid","scope":"denmark","tileSource":"contours-denmark-coarse.geojson"},"geometry":{"type":"LineString","coordinates":[[8.275,57.1406],[8.265,57.143462],[8.245,57.1355],[8.225,57.123125],[8.218333,57.11],[8.238,57.115],[8.24,57.12275],[8.265,57.128333],[8.275,57.125909],[8.28,57.13],[8.271667,57.135],[8.275,57.1406]]}},{"type":"Feature","properties":{"depth":30,"source":"DDM 2024 coarse contour","resolution":"0.005 degree sampled grid","scope":"denmark","tileSource":"contours-denmark-coarse.geojson"},"geometry":{"type":"LineString","coordinates":[[8.285,57.137188],[8.275833,57.135],[8.28,57.13],[8.29,57.135],[8.285769,57.13],[8.29,57.127105],[8.2925,57.13],[8.285,57.137188]]}},{"type":"Feature","properties":{"depth":30,"source":"DDM 2024 coarse contour","resolution":"0.005 degree sampled grid","scope":"denmark","tileSource":"contours-denmark-coarse.geojson"},"geometry":{"type":"LineString","coordinates":[[8.345,57.167857],[8.335,57.1685],[8.335,57.16],[8.32,57.163125],[8.316429,57.16],[8.32,57.156667],[8.335,57.16],[8.32,57.145],[8.31,57.148333],[8.308,57.14],[8.349211,57.155],[8.345,57.167857]]}},{"type":"Feature","properties":{"depth":30,"source":"DDM 2024 coarse contour","resolution":"0.005 degree sampled grid","scope":"denmark","tileSource":"contours-denmark-coarse.geojson"},"geometry":{"type":"LineString","coordinates":[[8.29,57.160139],[8.26125,57.15],[8.28,57.148125],[8.29,57.155],[8.29,57.160139]]}},{"type":"Feature","properties":{"depth":30,"source":"DDM 2024 coarse contour","resolution":"0.005 degree sampled grid","scope":"denmark","tileSource":"contours-denmark-coarse.geojson"},"geometry":{"type":"LineString","coordinates":[[8.355001,57.179051],[8.349,57.18],[8.355001,57.174545]]}},{"type":"Feature","properties":{"depth":30,"source":"DDM 2024 coarse contour","resolution":"0.005 degree sampled grid","scope":"denmark","tileSource":"contours-denmark-coarse.geojson"},"geometry":{"type":"LineString","coordinates":[[8.230303,57.175],[8.215,57.17],[8.214167,57.175],[8.225,57.178],[8.230303,57.175]]}},{"type":"Feature","properties":{"depth":30,"source":"DDM 2024 coarse contour","resolution":"0.005 degree sampled grid","scope":"denmark","tileSource":"contours-denmark-coarse.geojson"},"geometry":{"type":"LineString","coordinates":[[8.345,57.176923],[8.331667,57.175],[8.335,57.171667],[8.349167,57.175],[8.345,57.176923]]}},{"type":"Feature","properties":{"depth":30,"source":"DDM 2024 coarse contour","resolution":"0.005 degree sampled grid","scope":"denmark","tileSource":"contours-denmark-coarse.geojson"},"geometry":{"type":"LineString","coordinates":[[8.28,57.205556],[8.266607,57.19],[8.27,57.186481],[8.284706,57.19],[8.28,57.205556]]}},{"type":"Feature","properties":{"depth":30,"source":"DDM 2024 coarse contour","resolution":"0.005 degree sampled grid","scope":"denmark","tileSource":"contours-denmark-coarse.geojson"},"geometry":{"type":"LineString","coordinates":[[8.321091,57.225001],[8.321087,57.225],[8.325,57.213056],[8.334831,57.22],[8.331515,57.225001]]}},{"type":"Feature","properties":{"depth":50,"source":"DDM 2024 coarse contour","resolution":"0.005 degree sampled grid","scope":"denmark","tileSource":"contours-denmark-coarse.geojson"},"geometry":{"type":"LineString","coordinates":[[7.879999,57.161041],[7.9,57.17],[7.879999,57.179715]]}},{"type":"Feature","properties":{"depth":50,"source":"DDM 2024 coarse contour","resolution":"0.005 degree sampled grid","scope":"denmark","tileSource":"contours-denmark-coarse.geojson"},"geometry":{"type":"LineString","coordinates":[[7.879999,57.198045],[7.885,57.191087],[7.895,57.193636],[7.903437,57.2],[7.899545,57.205],[7.902778,57.215],[7.929833,57.225],[7.929833,57.225001]]}},{"type":"Feature","properties":{"depth":50,"source":"DDM 2024 coarse contour","resolution":"0.005 degree sampled grid","scope":"denmark","tileSource":"contours-denmark-coarse.geojson"},"geometry":{"type":"LineString","coordinates":[[7.9,57.186111],[7.889545,57.185],[7.895,57.178158],[7.9075,57.18],[7.9,57.186111]]}},{"type":"Feature","properties":{"depth":50,"source":"DDM 2024 coarse contour","resolution":"0.005 degree sampled grid","scope":"denmark","tileSource":"contours-denmark-coarse.geojson"},"geometry":{"type":"LineString","coordinates":[[7.945,57.2225],[7.94,57.22],[7.943824,57.215],[7.94,57.21175],[7.925,57.217632],[7.920833,57.215],[7.928182,57.21],[7.921667,57.205],[7.945,57.198409],[7.951786,57.21],[7.945,57.2225]]}},{"type":"Feature","properties":{"depth":50,"source":"DDM 2024 coarse contour","resolution":"0.005 degree sampled grid","scope":"denmark","tileSource":"contours-denmark-coarse.geojson"},"geometry":{"type":"LineString","coordinates":[[7.963332,57.225001],[7.963333,57.225],[7.960588,57.22],[7.975,57.218462],[7.970572,57.225001]]}}]}