{"type":"FeatureCollection","name":"DDM contour tile r07_c07","bbox":[10.76,57.71,11.235,58],"metadata":{"schema":"waternav-ddm-contour-tile-v1","version":"v45.3","tileId":"r07_c07","source":"Danmarks Dybdemodel 2024 ddm_50m.dybde.tiff via bundled DDM contour GeoJSON files"},"features":[{"type":"Feature","properties":{"depth":1,"source":"DDM 2024 coarse contour","resolution":"0.005 degree sampled grid","scope":"denmark","tileSource":"contours-denmark-coarse.geojson"},"geometry":{"type":"LineString","coordinates":[[11.150183,57.709999],[11.150183,57.71],[11.130185,57.725],[11.130187,57.73],[11.04,57.820224],[11.035,57.820225],[11.025,57.830237],[11.01,57.835252],[10.985,57.855311],[10.98,57.855319],[10.97,57.865367],[10.955,57.870414],[10.93,57.890495],[10.915,57.895523],[10.89,57.91562],[10.875,57.920642],[10.85,57.94072],[10.835,57.945742],[10.825,57.955772],[10.82,57.955774],[10.795,57.975816],[10.78,57.980818],[10.77,57.990825],[10.765,57.99082],[10.759999,57.994055]]}},{"type":"Feature","properties":{"depth":2,"source":"DDM 2024 coarse contour","resolution":"0.005 degree sampled grid","scope":"denmark","tileSource":"contours-denmark-coarse.geojson"},"geometry":{"type":"LineString","coordinates":[[11.150178,57.709999],[11.150178,57.71],[11.13018,57.725],[11.130182,57.73],[11.04,57.820219],[11.035,57.82022],[11.025,57.830232],[11.01,57.835247],[10.985,57.855307],[10.98,57.855314],[10.97,57.865362],[10.955,57.87041],[10.93,57.89049],[10.915,57.895519],[10.89,57.915615],[10.875,57.920638],[10.85,57.940716],[10.835,57.945738],[10.825,57.955768],[10.82,57.95577],[10.795,57.975811],[10.78,57.980813],[10.77,57.990821],[10.765,57.990816],[10.759999,57.994052]]}},{"type":"Feature","properties":{"depth":3,"source":"DDM 2024 coarse contour","resolution":"0.005 degree sampled grid","scope":"denmark","tileSource":"contours-denmark-coarse.geojson"},"geometry":{"type":"LineString","coordinates":[[11.150173,57.709999],[11.150173,57.71],[11.130175,57.725],[11.130178,57.73],[11.04,57.820214],[11.035,57.820215],[11.025,57.830227],[11.01,57.835243],[10.985,57.855302],[10.98,57.855309],[10.97,57.865357],[10.955,57.870405],[10.93,57.890486],[10.915,57.895514],[10.89,57.915611],[10.875,57.920633],[10.85,57.940711],[10.835,57.945734],[10.825,57.955764],[10.82,57.955766],[10.795,57.975807],[10.78,57.980809],[10.77,57.990817],[10.765,57.990811],[10.759999,57.994047]]}},{"type":"Feature","properties":{"depth":5,"source":"DDM 2024 coarse contour","resolution":"0.005 degree sampled grid","scope":"denmark","tileSource":"contours-denmark-coarse.geojson"},"geometry":{"type":"LineString","coordinates":[[11.150164,57.709999],[11.150164,57.71],[11.130166,57.725],[11.130168,57.73],[11.04,57.820204],[11.035,57.820206],[11.025,57.830218],[11.01,57.835233],[10.985,57.855293],[10.98,57.8553],[10.97,57.865348],[10.955,57.870396],[10.93,57.890477],[10.915,57.895505],[10.89,57.915602],[10.875,57.920625],[10.85,57.940703],[10.835,57.945725],[10.825,57.955755],[10.82,57.955757],[10.795,57.975799],[10.78,57.980801],[10.77,57.990808],[10.765,57.990803],[10.759999,57.99404]]}},{"type":"Feature","properties":{"depth":10,"source":"DDM 2024 coarse contour","resolution":"0.005 degree sampled grid","scope":"denmark","tileSource":"contours-denmark-coarse.geojson"},"geometry":{"type":"LineString","coordinates":[[11.15014,57.709999],[11.15014,57.71],[11.130142,57.725],[11.130144,57.73],[11.04,57.820181],[11.01,57.835209],[10.97,57.865325],[10.955,57.870373],[10.93,57.890454],[10.915,57.895483],[10.89,57.91558],[10.875,57.920603],[10.85,57.940681],[10.835,57.945704],[10.795,57.975778],[10.759999,57.994947]]}},{"type":"Feature","properties":{"depth":15,"source":"DDM 2024 coarse contour","resolution":"0.005 degree sampled grid","scope":"denmark","tileSource":"contours-denmark-coarse.geojson"},"geometry":{"type":"LineString","coordinates":[[11.150116,57.709999],[11.150116,57.71],[11.130117,57.725],[11.13012,57.73],[11.04,57.820157],[11.01,57.835186],[10.97,57.865302],[10.955,57.87035],[10.93,57.890432],[10.915,57.895461],[10.89,57.915558],[10.875,57.920581],[10.85,57.94066],[10.835,57.945683],[10.795,57.975757],[10.759999,57.994933]]}},{"type":"Feature","properties":{"depth":20,"source":"DDM 2024 coarse contour","resolution":"0.005 degree sampled grid","scope":"denmark","tileSource":"contours-denmark-coarse.geojson"},"geometry":{"type":"LineString","coordinates":[[11.150092,57.709999],[11.150092,57.71],[11.130093,57.725],[11.130096,57.73],[11.04,57.820133],[11.01,57.835162],[10.97,57.865278],[10.955,57.870327],[10.93,57.890409],[10.915,57.895438],[10.89,57.915537],[10.875,57.920559],[10.85,57.940639],[10.835,57.945661],[10.795,57.975736],[10.759999,57.99492]]}},{"type":"Feature","properties":{"depth":30,"source":"DDM 2024 coarse contour","resolution":"0.005 degree sampled grid","scope":"denmark","tileSource":"contours-denmark-coarse.geojson"},"geometry":{"type":"LineString","coordinates":[[10.759999,57.749156],[10.875,57.710625],[10.876221,57.709999]]}},{"type":"Feature","properties":{"depth":30,"source":"DDM 2024 coarse contour","resolution":"0.005 degree sampled grid","scope":"denmark","tileSource":"contours-denmark-coarse.geojson"},"geometry":{"type":"LineString","coordinates":[[11.150043,57.709999],[11.150043,57.71],[11.130045,57.725],[11.130048,57.73],[11.04,57.820085],[11.01,57.835114],[10.97,57.865232],[10.955,57.870281],[10.93,57.890364],[10.915,57.895393],[10.89,57.915493],[10.875,57.920516],[10.85,57.940596],[10.835,57.945619],[10.795,57.975694],[10.759999,57.994893]]}},{"type":"Feature","properties":{"depth":50,"source":"DDM 2024 coarse contour","resolution":"0.005 degree sampled grid","scope":"denmark","tileSource":"contours-denmark-coarse.geojson"},"geometry":{"type":"LineString","coordinates":[[10.759999,57.780224],[10.875,57.78525],[10.945,57.7975],[11.025,57.8265],[10.97,57.865139],[10.955,57.870189],[10.93,57.890274],[10.915,57.895304],[10.89,57.915405],[10.875,57.920428],[10.85,57.94051],[10.835,57.945534],[10.795,57.975611],[10.759999,57.994839]]}},{"type":"Feature","properties":{"depth":100,"source":"DDM 2024 coarse contour","resolution":"0.005 degree sampled grid","scope":"denmark","tileSource":"contours-denmark-coarse.geojson"},"geometry":{"type":"LineString","coordinates":[[10.759999,57.844509],[10.895,57.875132],[10.942222,57.88],[10.759999,57.993992]]}}]}