{"type":"FeatureCollection","name":"DDM contour tile r01_c11","bbox":[12.68,54.83,13.155,55.305],"metadata":{"schema":"waternav-ddm-contour-tile-v1","version":"v45.7","tileId":"r01_c11","source":"Danmarks Dybdemodel 2024 ddm_50m.dybde.tiff via bundled DDM contour GeoJSON files"},"features":[{"type":"Feature","properties":{"depth":1,"source":"DDM 2024 coarse contour","resolution":"0.005 degree sampled grid","scope":"denmark","tileSource":"contours-denmark-coarse.geojson"},"geometry":{"type":"LineString","coordinates":[[12.915306,54.829999],[12.93,54.834892],[12.94,54.844886],[12.945,54.844885],[12.96,54.859867],[12.965,54.859864],[12.99,54.88482],[12.995,54.884818],[13.045,54.929806],[13.05,54.929806],[13.075,54.954806],[13.08,54.954805],[13.1,54.974841],[13.105,54.974842],[13.125,54.99488],[13.13,54.994879],[13.140108,55.005],[13.140107,55.01],[13.135,55.015107],[13.12,55.020097],[13.11,55.030094],[13.095,55.035088],[13.085,55.045084],[13.07,55.050087],[13.06,55.060085],[13.055,55.060088],[13.05,55.065086],[13.04,55.065088],[13.025,55.075088],[13.015,55.075087],[13,55.085112],[12.99,55.085109],[12.975,55.095128],[12.965,55.095129],[12.95,55.105156],[12.925,55.110154],[12.91,55.120162],[12.9,55.120161],[12.885,55.130164],[12.875,55.130164],[12.86,55.14016],[12.85,55.14016],[12.835,55.150157],[12.825,55.150157],[12.81,55.160154],[12.8,55.160154],[12.795,55.165153],[12.79,55.165153],[12.78,55.175152],[12.775,55.175151],[12.765,55.185147],[12.76,55.185147],[12.745,55.200141],[12.74,55.200142],[12.73,55.210133],[12.725,55.210133],[12.71,55.22511],[12.705,55.225115],[12.695,55.235102],[12.69,55.235111],[12.679999,55.245108]]}},{"type":"Feature","properties":{"depth":2,"source":"DDM 2024 coarse contour","resolution":"0.005 degree sampled grid","scope":"denmark","tileSource":"contours-denmark-coarse.geojson"},"geometry":{"type":"LineString","coordinates":[[12.915291,54.829999],[12.93,54.834897],[12.94,54.844891],[12.945,54.84489],[12.96,54.859872],[12.965,54.859869],[12.99,54.884825],[12.995,54.884823],[13.045,54.929811],[13.05,54.929811],[13.075,54.954811],[13.08,54.95481],[13.1,54.974846],[13.105,54.974847],[13.125,54.994885],[13.13,54.994883],[13.140103,55.005],[13.140102,55.01],[13.135,55.015102],[13.12,55.020092],[13.11,55.030089],[13.095,55.035083],[13.085,55.045079],[13.07,55.050082],[13.06,55.06008],[13.055,55.060083],[13.05,55.065081],[13.04,55.065083],[13.025,55.075083],[13.015,55.075082],[13,55.085107],[12.99,55.085104],[12.975,55.095123],[12.965,55.095124],[12.95,55.105151],[12.925,55.110149],[12.91,55.120157],[12.9,55.120156],[12.885,55.13016],[12.875,55.130159],[12.86,55.140155],[12.85,55.140155],[12.835,55.150152],[12.825,55.150152],[12.81,55.160149],[12.8,55.160149],[12.795,55.165148],[12.79,55.165148],[12.78,55.175147],[12.775,55.175146],[12.765,55.185142],[12.76,55.185142],[12.745,55.200136],[12.74,55.200137],[12.73,55.210128],[12.725,55.210128],[12.71,55.225105],[12.705,55.22511],[12.695,55.235097],[12.69,55.235107],[12.679999,55.245103]]}},{"type":"Feature","properties":{"depth":3,"source":"DDM 2024 coarse contour","resolution":"0.005 degree sampled grid","scope":"denmark","tileSource":"contours-denmark-coarse.geojson"},"geometry":{"type":"LineString","coordinates":[[12.915276,54.829999],[12.93,54.834902],[12.94,54.844895],[12.945,54.844894],[12.96,54.859876],[12.965,54.859874],[12.99,54.88483],[12.995,54.884828],[13.045,54.929815],[13.05,54.929815],[13.075,54.954816],[13.08,54.954815],[13.1,54.97485],[13.105,54.974851],[13.125,54.99489],[13.13,54.994888],[13.140098,55.005],[13.140097,55.01],[13.135,55.015097],[13.12,55.020087],[13.11,55.030084],[13.095,55.035079],[13.085,55.045074],[13.07,55.050077],[13.06,55.060075],[13.055,55.060078],[13.05,55.065076],[13.04,55.065079],[13.025,55.075078],[13.015,55.075077],[13,55.085102],[12.99,55.085099],[12.975,55.095118],[12.965,55.095119],[12.95,55.105146],[12.925,55.110144],[12.91,55.120152],[12.9,55.120151],[12.885,55.130155],[12.875,55.130154],[12.86,55.14015],[12.85,55.140151],[12.835,55.150147],[12.825,55.150147],[12.81,55.160144],[12.8,55.160144],[12.795,55.165143],[12.79,55.165143],[12.78,55.175143],[12.775,55.175142],[12.765,55.185137],[12.76,55.185137],[12.745,55.200131],[12.74,55.200132],[12.73,55.210123],[12.725,55.210123],[12.71,55.2251],[12.705,55.225106],[12.695,55.235093],[12.69,55.235102],[12.679999,55.245098]]}},{"type":"Feature","properties":{"depth":5,"source":"DDM 2024 coarse contour","resolution":"0.005 degree sampled grid","scope":"denmark","tileSource":"contours-denmark-coarse.geojson"},"geometry":{"type":"LineString","coordinates":[[12.915246,54.829999],[12.93,54.834911],[12.94,54.844905],[12.945,54.844904],[12.96,54.859886],[12.965,54.859883],[12.99,54.884839],[12.995,54.884838],[13.045,54.929825],[13.05,54.929825],[13.075,54.954826],[13.08,54.954824],[13.1,54.97486],[13.105,54.974861],[13.125,54.9949],[13.13,54.994898],[13.140089,55.005],[13.140087,55.01],[13.135,55.015087],[13.12,55.020077],[13.11,55.030074],[13.095,55.035069],[13.085,55.045064],[13.07,55.050067],[13.06,55.060065],[13.055,55.060068],[13.05,55.065066],[13.04,55.065069],[13.025,55.075068],[13.015,55.075067],[13,55.085092],[12.99,55.085089],[12.975,55.095109],[12.965,55.09511],[12.95,55.105136],[12.925,55.110135],[12.91,55.120143],[12.9,55.120141],[12.885,55.130145],[12.875,55.130145],[12.86,55.14014],[12.85,55.140141],[12.835,55.150138],[12.825,55.150138],[12.81,55.160134],[12.8,55.160134],[12.795,55.165134],[12.79,55.165133],[12.78,55.175133],[12.775,55.175132],[12.765,55.185128],[12.76,55.185127],[12.745,55.200121],[12.74,55.200122],[12.73,55.210113],[12.725,55.210113],[12.71,55.22509],[12.705,55.225096],[12.695,55.235083],[12.69,55.235092],[12.679999,55.245088]]}},{"type":"Feature","properties":{"depth":10,"source":"DDM 2024 coarse contour","resolution":"0.005 degree sampled grid","scope":"denmark","tileSource":"contours-denmark-coarse.geojson"},"geometry":{"type":"LineString","coordinates":[[12.917953,54.829999],[12.965,54.859908],[13.075,54.95485],[13.13,54.994922],[13.140064,55.005],[13.135,55.015063],[13.095,55.035044],[13.06,55.060041],[12.79,55.165109],[12.71,55.225066],[12.69,55.235067],[12.679999,55.245064]]}},{"type":"Feature","properties":{"depth":15,"source":"DDM 2024 coarse contour","resolution":"0.005 degree sampled grid","scope":"denmark","tileSource":"contours-denmark-coarse.geojson"},"geometry":{"type":"LineString","coordinates":[[12.917915,54.829999],[12.965,54.859932],[12.99,54.884888],[13.02,54.904872],[13.045,54.929873],[13.05,54.929873],[13.075,54.954874],[13.08,54.954872],[13.14004,55.005],[13.135,55.015038],[13.12,55.020028],[13.11,55.030025],[13.095,55.03502],[13.05,55.065017],[13.04,55.06502],[12.975,55.09506],[12.965,55.095061],[12.95,55.105088],[12.925,55.110086],[12.91,55.120094],[12.9,55.120093],[12.885,55.130097],[12.875,55.130096],[12.86,55.140092],[12.85,55.140092],[12.835,55.150089],[12.825,55.150089],[12.81,55.160086],[12.79,55.165085],[12.71,55.225041],[12.69,55.235043],[12.679999,55.245039]]}},{"type":"Feature","properties":{"depth":20,"source":"DDM 2024 coarse contour","resolution":"0.005 degree sampled grid","scope":"denmark","tileSource":"contours-denmark-coarse.geojson"},"geometry":{"type":"LineString","coordinates":[[12.679999,54.899572],[12.7,54.889],[12.73,54.885],[12.75,54.875],[12.75,54.865],[12.78,54.85],[12.795,54.835],[12.812504,54.829999]]}},{"type":"Feature","properties":{"depth":20,"source":"DDM 2024 coarse contour","resolution":"0.005 degree sampled grid","scope":"denmark","tileSource":"contours-denmark-coarse.geojson"},"geometry":{"type":"LineString","coordinates":[[12.918768,54.829999],[12.945,54.844978],[13.140015,55.005],[13.135,55.015014],[13.125,55.020008],[13.115,55.018889],[13.11,55.03],[13.095,55.031667],[13.08875,55.03],[13.105556,55.02],[13.1,55.0175],[13.102917,55.01],[13.095,55.003571],[13.095,55.013462],[13.075,55.00625],[13.04,55.01375],[13.035,55.009333],[13.01,55.01375],[12.985,55.025],[12.979375,55.02],[12.98,55.005],[12.95,54.994524],[12.915,54.9875],[12.89,54.9955],[12.885,55],[12.890556,55.005],[12.886786,55.01],[12.852353,55.03],[12.863696,55.04],[12.906667,55.065],[12.96,55.076],[12.985,55.074615],[13.010005,55.08],[12.79,55.165061],[12.71,55.225017],[12.69,55.235019],[12.679999,55.245015]]}},{"type":"Feature","properties":{"depth":20,"source":"DDM 2024 coarse contour","resolution":"0.005 degree sampled grid","scope":"denmark","tileSource":"contours-denmark-coarse.geojson"},"geometry":{"type":"LineString","coordinates":[[12.84,55.015],[12.835,55.01],[12.8425,55],[12.835,55.00375],[12.83,54.998333],[12.818,55],[12.815556,55.01],[12.82,55.017917],[12.83,55.011667],[12.84,55.015]]}},{"type":"Feature","properties":{"depth":20,"source":"DDM 2024 coarse contour","resolution":"0.005 degree sampled grid","scope":"denmark","tileSource":"contours-denmark-coarse.geojson"},"geometry":{"type":"LineString","coordinates":[[12.702308,55.03],[12.69,55.024677],[12.683929,55.03],[12.685,55.035],[12.702308,55.03]]}},{"type":"Feature","properties":{"depth":20,"source":"DDM 2024 coarse contour","resolution":"0.005 degree sampled grid","scope":"denmark","tileSource":"contours-denmark-coarse.geojson"},"geometry":{"type":"LineString","coordinates":[[12.6825,55.04],[12.685,55.035],[12.679999,55.035]]}},{"type":"Feature","properties":{"depth":20,"source":"DDM 2024 coarse contour","resolution":"0.005 degree sampled grid","scope":"denmark","tileSource":"contours-denmark-coarse.geojson"},"geometry":{"type":"LineString","coordinates":[[12.679999,55.040417],[12.6825,55.04]]}},{"type":"Feature","properties":{"depth":30,"source":"DDM 2024 coarse contour","resolution":"0.005 degree sampled grid","scope":"denmark","tileSource":"contours-denmark-coarse.geojson"},"geometry":{"type":"LineString","coordinates":[[13.11,54.983605],[12.99,54.979833],[12.885,54.966944],[12.805,54.97],[12.765,54.968571],[12.75,54.963571],[12.745,54.967],[12.73,54.954167],[12.725,54.955],[12.724,54.95],[12.759,54.935],[12.74,54.93],[12.74,54.935833],[12.682667,54.935],[12.73,54.933333],[12.965,54.864167],[13.02,54.904944],[13.075,54.954946],[13.105,54.974982],[13.11,54.983605]]}},{"type":"Feature","properties":{"depth":30,"source":"DDM 2024 coarse contour","resolution":"0.005 degree sampled grid","scope":"denmark","tileSource":"contours-denmark-coarse.geojson"},"geometry":{"type":"LineString","coordinates":[[12.735,55.055],[12.73,55.055],[12.726923,55.04],[12.73625,55.02],[12.731429,55],[12.735,54.997727],[12.75125,55.015],[12.7525,55.025],[12.735,55.055]]}},{"type":"Feature","properties":{"depth":30,"source":"DDM 2024 coarse contour","resolution":"0.005 degree sampled grid","scope":"denmark","tileSource":"contours-denmark-coarse.geojson"},"geometry":{"type":"LineString","coordinates":[[12.74,55.200001],[12.745714,55.18],[12.7425,55.17],[12.725,55.169],[12.71,55.175741],[12.695,55.172778],[12.691875,55.17],[12.695,55.165],[12.709,55.155],[12.745,55.145],[12.815,55.11],[12.775,55.108333],[12.735,55.115],[12.725,55.1],[12.74,55.089167],[12.795,55.071667],[12.85,55.074],[12.95,55.101125],[12.95,55.105015],[12.925,55.110014],[12.91,55.120022],[12.9,55.12002],[12.885,55.130024],[12.85,55.14002],[12.81,55.160013],[12.8,55.160013],[12.74,55.200001]]}},{"type":"Feature","properties":{"depth":30,"source":"DDM 2024 coarse contour","resolution":"0.005 degree sampled grid","scope":"denmark","tileSource":"contours-denmark-coarse.geojson"},"geometry":{"type":"LineString","coordinates":[[12.715,55.095833],[12.7025,55.095],[12.71,55.092143],[12.715,55.095833]]}}]}