{"type":"FeatureCollection","name":"DDM contour tile r01_c04","bbox":[9.32,54.83,9.795,55.305],"metadata":{"schema":"waternav-ddm-contour-tile-v1","version":"v45.7","tileId":"r01_c04","source":"Danmarks Dybdemodel 2024 ddm_50m.dybde.tiff via bundled DDM contour GeoJSON files"},"features":[{"type":"Feature","properties":{"depth":1,"source":"DDM 2024 coarse contour","resolution":"0.005 degree sampled grid","scope":"denmark","tileSource":"contours-denmark-coarse.geojson"},"geometry":{"type":"LineString","coordinates":[[9.660998,55.305001],[9.675,55.290761],[9.682222,55.29],[9.680682,55.285],[9.67,55.283542],[9.666458,55.28],[9.71,55.264995],[9.719954,55.255],[9.719999,55.25],[9.714998,55.235],[9.71,55.230011],[9.694999,55.225],[9.695714,55.205],[9.699995,55.2],[9.69,55.19002],[9.675,55.189767],[9.67,55.185017],[9.6614,55.185],[9.645,55.175004],[9.635,55.17475],[9.63,55.170088],[9.620018,55.18],[9.62,55.190011],[9.580125,55.19],[9.56,55.175011],[9.55,55.175004],[9.525,55.16002],[9.51,55.159622],[9.505,55.155036],[9.5,55.155023],[9.504991,55.15],[9.504998,55.14],[9.520278,55.13],[9.515,55.125019],[9.495,55.125088],[9.49,55.129971],[9.485,55.125079],[9.48,55.130015],[9.475,55.130016],[9.47,55.125045],[9.465213,55.125],[9.47,55.119997],[9.5,55.119925],[9.505,55.114965],[9.515,55.11492],[9.52,55.109978],[9.525,55.109972],[9.54,55.094986],[9.55,55.094959],[9.554991,55.09],[9.554993,55.08],[9.54,55.065044],[9.535,55.064931],[9.525,55.055054],[9.520217,55.055],[9.505,55.045023],[9.465,55.045042],[9.46,55.040036],[9.43,55.040034],[9.424997,55.035],[9.429994,55.025],[9.435,55.025179],[9.44,55.029942],[9.45,55.019994],[9.51,55.019997],[9.52,55.029894],[9.534871,55.03],[9.54,55.034897],[9.57,55.034988],[9.577647,55.045],[9.595,55.044913],[9.609983,55.035],[9.610378,55.03],[9.62,55.019989],[9.625,55.019945],[9.64,55.010344],[9.65,55.009954],[9.655,55.005086],[9.68,54.999934],[9.690968,54.99],[9.71,54.990327],[9.715,54.994928],[9.72,54.99026],[9.735,54.989986],[9.74,54.98625],[9.741163,54.975],[9.745,54.974984],[9.754942,54.965],[9.750409,54.96],[9.754947,54.955],[9.754998,54.945],[9.759946,54.94],[9.756786,54.93],[9.76495,54.925],[9.765,54.919941],[9.765053,54.93],[9.760058,54.935],[9.760008,54.95],[9.755053,54.955],[9.759951,54.96],[9.755058,54.965],[9.754038,54.98],[9.76,54.984958],[9.77049,54.975],[9.785,54.974957],[9.795,54.96999],[9.795001,54.969989]]}},{"type":"Feature","properties":{"depth":1,"source":"DDM 2024 coarse contour","resolution":"0.005 degree sampled grid","scope":"denmark","tileSource":"contours-denmark-coarse.geojson"},"geometry":{"type":"LineString","coordinates":[[9.795001,54.979842],[9.785,54.980048],[9.780007,54.985],[9.77501,55],[9.78,55.004947],[9.79,55.004972],[9.79,55.010016],[9.76,55.010001],[9.755,55.005072],[9.695,55.005088],[9.68955,55.01],[9.68,55.010085],[9.675,55.015014],[9.67,55.015058],[9.65503,55.025],[9.67,55.034948],[9.686,55.035],[9.645,55.035093],[9.635056,55.045],[9.635027,55.05],[9.64,55.054988],[9.65,55.055033],[9.66,55.06499],[9.675,55.069999],[9.68,55.074976],[9.69,55.074997],[9.695,55.079981],[9.725,55.081042],[9.73,55.084979],[9.755,55.088077],[9.77,55.084991],[9.775,55.08045],[9.795001,55.07317]]}},{"type":"Feature","properties":{"depth":1,"source":"DDM 2024 coarse contour","resolution":"0.005 degree sampled grid","scope":"denmark","tileSource":"contours-denmark-coarse.geojson"},"geometry":{"type":"LineString","coordinates":[[9.795001,54.895011],[9.795,54.895011],[9.78502,54.905],[9.785,54.910069],[9.78498,54.905],[9.78,54.900013],[9.77,54.900004],[9.765,54.895045],[9.745,54.895109],[9.738571,54.9],[9.705,54.900003],[9.705,54.890714],[9.73,54.889923],[9.735,54.885068],[9.74,54.884989],[9.744989,54.88],[9.744991,54.87],[9.75,54.86508],[9.755263,54.865],[9.764982,54.85],[9.76,54.845023],[9.755,54.845001],[9.754985,54.84],[9.75,54.835048],[9.725,54.835017],[9.72,54.840037],[9.71,54.840069],[9.705006,54.845],[9.705,54.850014],[9.695,54.850031],[9.69,54.855006],[9.645,54.85501],[9.635003,54.865],[9.645,54.874978],[9.65,54.875],[9.649605,54.88],[9.645,54.880017],[9.637273,54.89],[9.63,54.890015],[9.615,54.900025],[9.6,54.900032],[9.595,54.905005],[9.585,54.90501],[9.585,54.9],[9.577857,54.9],[9.579998,54.89],[9.575,54.884987],[9.58,54.884945],[9.585,54.889998],[9.6,54.889979],[9.605,54.884947],[9.625,54.884962],[9.629931,54.88],[9.605,54.854924],[9.625,54.854942],[9.63,54.849931],[9.645,54.849968],[9.65,54.844919],[9.665,54.844881],[9.67,54.839921],[9.685,54.839913],[9.69,54.834907],[9.71,54.834914],[9.714904,54.829999]]}},{"type":"Feature","properties":{"depth":1,"source":"DDM 2024 coarse contour","resolution":"0.005 degree sampled grid","scope":"denmark","tileSource":"contours-denmark-coarse.geojson"},"geometry":{"type":"LineString","coordinates":[[9.790106,54.829999],[9.795,54.834889],[9.795001,54.834889]]}},{"type":"Feature","properties":{"depth":1,"source":"DDM 2024 coarse contour","resolution":"0.005 degree sampled grid","scope":"denmark","tileSource":"contours-denmark-coarse.geojson"},"geometry":{"type":"LineString","coordinates":[[9.545,54.880002],[9.535,54.879259],[9.52,54.87002],[9.51,54.870015],[9.495,54.855013],[9.490781,54.855],[9.48,54.845021],[9.475,54.845009],[9.46,54.835067],[9.44,54.835007],[9.435,54.830044],[9.424972,54.83],[9.425181,54.829999]]}},{"type":"Feature","properties":{"depth":1,"source":"DDM 2024 coarse contour","resolution":"0.005 degree sampled grid","scope":"denmark","tileSource":"contours-denmark-coarse.geojson"},"geometry":{"type":"LineString","coordinates":[[9.440071,54.829999],[9.445,54.834963],[9.47,54.83492],[9.475,54.839953],[9.49,54.839929],[9.505,54.849961],[9.51,54.849956],[9.555,54.874975],[9.560061,54.875],[9.55,54.875021],[9.545,54.880002]]}},{"type":"Feature","properties":{"depth":1,"source":"DDM 2024 coarse contour","resolution":"0.005 degree sampled grid","scope":"denmark","tileSource":"contours-denmark-coarse.geojson"},"geometry":{"type":"LineString","coordinates":[[9.64,54.930009],[9.616905,54.93],[9.614991,54.915],[9.635,54.915109],[9.64,54.920816],[9.645,54.919987],[9.655,54.909999],[9.66,54.914991],[9.665,54.911923],[9.669211,54.915],[9.665,54.920004],[9.66,54.920011],[9.655,54.925002],[9.645,54.925018],[9.64,54.930009]]}},{"type":"Feature","properties":{"depth":1,"source":"DDM 2024 coarse contour","resolution":"0.005 degree sampled grid","scope":"denmark","tileSource":"contours-denmark-coarse.geojson"},"geometry":{"type":"LineString","coordinates":[[9.564992,55.13],[9.574996,55.12],[9.574995,55.115],[9.57,55.110012],[9.555,55.110115],[9.545007,55.12],[9.545093,55.13],[9.55,55.134903],[9.56,55.1349],[9.564992,55.13]]}},{"type":"Feature","properties":{"depth":1,"source":"DDM 2024 coarse contour","resolution":"0.005 degree sampled grid","scope":"denmark","tileSource":"contours-denmark-coarse.geojson"},"geometry":{"type":"LineString","coordinates":[[9.79125,55.285],[9.791875,55.28],[9.779997,55.265],[9.765,55.250006],[9.76,55.250002],[9.755,55.245008],[9.74,55.24501],[9.725074,55.255],[9.724595,55.27],[9.74,55.279988],[9.745,55.276379],[9.755,55.28175],[9.76,55.271944],[9.77,55.270556],[9.77,55.279444],[9.763333,55.28],[9.77,55.289997],[9.785,55.278],[9.79125,55.285]]}},{"type":"Feature","properties":{"depth":1,"source":"DDM 2024 coarse contour","resolution":"0.005 degree sampled grid","scope":"denmark","tileSource":"contours-denmark-coarse.geojson"},"geometry":{"type":"LineString","coordinates":[[9.655,55.28503],[9.643125,55.285],[9.659615,55.285],[9.655,55.28503]]}},{"type":"Feature","properties":{"depth":1,"source":"DDM 2024 coarse contour","resolution":"0.005 degree sampled grid","scope":"denmark","tileSource":"contours-denmark-coarse.geojson"},"geometry":{"type":"LineString","coordinates":[[9.716875,55.295],[9.725,55.290694],[9.725,55.287222],[9.709167,55.29],[9.712,55.295],[9.716875,55.295]]}},{"type":"Feature","properties":{"depth":1,"source":"DDM 2024 coarse contour","resolution":"0.005 degree sampled grid","scope":"denmark","tileSource":"contours-denmark-coarse.geojson"},"geometry":{"type":"LineString","coordinates":[[9.795001,55.295019],[9.795,55.295019],[9.790016,55.3],[9.795001,55.305],[9.795001,55.305001]]}},{"type":"Feature","properties":{"depth":2,"source":"DDM 2024 coarse contour","resolution":"0.005 degree sampled grid","scope":"denmark","tileSource":"contours-denmark-coarse.geojson"},"geometry":{"type":"LineString","coordinates":[[9.665587,55.305001],[9.665588,55.305],[9.675,55.291848],[9.68,55.293462],[9.685,55.29],[9.682955,55.285],[9.668542,55.28],[9.71,55.265],[9.719959,55.255],[9.72,55.2475],[9.715,55.233889],[9.695,55.22434],[9.7,55.2],[9.69,55.190015],[9.6634,55.185],[9.63,55.170083],[9.620013,55.18],[9.62,55.190006],[9.581375,55.19],[9.56,55.175006],[9.55,55.17487],[9.525,55.160015],[9.51,55.159202],[9.5,55.155018],[9.504996,55.15],[9.505492,55.14],[9.521667,55.13],[9.515,55.125014],[9.495,55.125083],[9.49,55.12968],[9.485,55.125074],[9.48,55.13001],[9.475,55.130011],[9.465745,55.125],[9.470174,55.12],[9.5,55.11993],[9.505,55.11497],[9.515,55.114925],[9.52,55.109983],[9.525,55.109977],[9.54,55.094991],[9.55,55.094964],[9.554996,55.09],[9.554998,55.08],[9.54,55.065039],[9.535,55.064702],[9.525,55.055049],[9.505,55.045018],[9.465,55.045037],[9.46,55.040031],[9.43,55.040029],[9.425625,55.035],[9.429999,55.025],[9.44,55.029947],[9.45,55.019999],[9.509643,55.02],[9.52,55.029899],[9.53444,55.03],[9.54,55.034902],[9.57,55.034993],[9.574894,55.045],[9.595,55.044918],[9.609988,55.035],[9.610798,55.03],[9.62,55.019994],[9.625,55.01995],[9.64,55.010725],[9.65,55.009959],[9.655,55.005371],[9.68,54.999939],[9.692581,54.99],[9.71,54.990654],[9.715,54.994932],[9.72,54.990584],[9.745,54.990043],[9.740826,54.98],[9.742326,54.975],[9.754947,54.965],[9.750864,54.96],[9.754952,54.955],[9.755,54.945294],[9.759951,54.94],[9.758571,54.93],[9.764955,54.925],[9.765,54.919946],[9.765048,54.93],[9.760053,54.935],[9.760003,54.95],[9.755048,54.955],[9.759461,54.96],[9.755053,54.965],[9.753077,54.98],[9.76,54.984963],[9.771471,54.975],[9.785,54.974962],[9.795,54.969995],[9.795001,54.969994]]}},{"type":"Feature","properties":{"depth":2,"source":"DDM 2024 coarse contour","resolution":"0.005 degree sampled grid","scope":"denmark","tileSource":"contours-denmark-coarse.geojson"},"geometry":{"type":"LineString","coordinates":[[9.795001,54.979362],[9.785,54.980043],[9.776667,54.99],[9.775005,55],[9.78,55.004952],[9.79,55.004977],[9.79,55.010011],[9.76,55.009704],[9.755,55.005068],[9.695,55.005083],[9.689099,55.01],[9.68,55.01008],[9.675,55.015009],[9.67,55.015053],[9.655025,55.025],[9.67,55.034953],[9.682333,55.035],[9.645,55.035088],[9.635051,55.045],[9.635022,55.05],[9.64,55.054993],[9.65,55.055364],[9.66,55.064995],[9.68,55.074981],[9.69,55.075274],[9.695,55.079986],[9.725,55.082083],[9.735,55.086633],[9.76,55.09],[9.775,55.08095],[9.795001,55.075466]]}},{"type":"Feature","properties":{"depth":2,"source":"DDM 2024 coarse contour","resolution":"0.005 degree sampled grid","scope":"denmark","tileSource":"contours-denmark-coarse.geojson"},"geometry":{"type":"LineString","coordinates":[[9.795001,54.895006],[9.795,54.895006],[9.785015,54.905],[9.785,54.910064],[9.784985,54.905],[9.78,54.900008],[9.77,54.899965],[9.765,54.89504],[9.745,54.895104],[9.73619,54.9],[9.705167,54.9],[9.705,54.891508],[9.73,54.889928],[9.74,54.884994],[9.744994,54.88],[9.744996,54.87],[9.75,54.86548],[9.757895,54.865],[9.759994,54.855],[9.764987,54.85],[9.755889,54.845],[9.75,54.835043],[9.725,54.835012],[9.72,54.840032],[9.71,54.840064],[9.705001,54.845],[9.705,54.850009],[9.695,54.850026],[9.69,54.855001],[9.645,54.855005],[9.634643,54.865],[9.645,54.874983],[9.648864,54.875],[9.648289,54.88],[9.615,54.90002],[9.6,54.900027],[9.595,54.905],[9.59,54.904318],[9.585448,54.89],[9.6,54.889984],[9.605,54.884952],[9.625,54.884967],[9.629936,54.88],[9.605,54.854929],[9.625,54.854947],[9.63,54.849936],[9.645,54.849973],[9.65,54.844924],[9.665,54.844886],[9.67,54.839926],[9.685,54.839917],[9.69,54.834912],[9.71,54.834918],[9.714909,54.829999]]}},{"type":"Feature","properties":{"depth":2,"source":"DDM 2024 coarse contour","resolution":"0.005 degree sampled grid","scope":"denmark","tileSource":"contours-denmark-coarse.geojson"},"geometry":{"type":"LineString","coordinates":[[9.790101,54.829999],[9.795,54.834894],[9.795001,54.834894]]}},{"type":"Feature","properties":{"depth":2,"source":"DDM 2024 coarse contour","resolution":"0.005 degree sampled grid","scope":"denmark","tileSource":"contours-denmark-coarse.geojson"},"geometry":{"type":"LineString","coordinates":[[9.56,54.875056],[9.55,54.875016],[9.545,54.879324],[9.525,54.875017],[9.52,54.870015],[9.51,54.87001],[9.495,54.855008],[9.46,54.835062],[9.44,54.835002],[9.435,54.830039],[9.424977,54.83],[9.425201,54.829999]]}},{"type":"Feature","properties":{"depth":2,"source":"DDM 2024 coarse contour","resolution":"0.005 degree sampled grid","scope":"denmark","tileSource":"contours-denmark-coarse.geojson"},"geometry":{"type":"LineString","coordinates":[[9.440066,54.829999],[9.445,54.834968],[9.47,54.834925],[9.475,54.839958],[9.49,54.839933],[9.495,54.84496],[9.5,54.844948],[9.505,54.849966],[9.51,54.849961],[9.515,54.854969],[9.52,54.854951],[9.525,54.859962],[9.56,54.875056]]}},{"type":"Feature","properties":{"depth":2,"source":"DDM 2024 coarse contour","resolution":"0.005 degree sampled grid","scope":"denmark","tileSource":"contours-denmark-coarse.geojson"},"geometry":{"type":"LineString","coordinates":[[9.64,54.930004],[9.619286,54.93],[9.617857,54.925],[9.6205,54.92],[9.63,54.916058],[9.635,54.916196],[9.64,54.921837],[9.655,54.912],[9.666579,54.915],[9.664286,54.92],[9.654074,54.925],[9.645,54.925013],[9.64,54.930004]]}},{"type":"Feature","properties":{"depth":2,"source":"DDM 2024 coarse contour","resolution":"0.005 degree sampled grid","scope":"denmark","tileSource":"contours-denmark-coarse.geojson"},"geometry":{"type":"LineString","coordinates":[[9.564997,55.13],[9.57537,55.12],[9.575,55.115],[9.57,55.110007],[9.555,55.11011],[9.545002,55.12],[9.545088,55.13],[9.55,55.134908],[9.56,55.134904],[9.564997,55.13]]}},{"type":"Feature","properties":{"depth":2,"source":"DDM 2024 coarse contour","resolution":"0.005 degree sampled grid","scope":"denmark","tileSource":"contours-denmark-coarse.geojson"},"geometry":{"type":"LineString","coordinates":[[9.771364,55.29],[9.785,55.281667],[9.79,55.287241],[9.795001,55.28532]]}},{"type":"Feature","properties":{"depth":2,"source":"DDM 2024 coarse contour","resolution":"0.005 degree sampled grid","scope":"denmark","tileSource":"contours-denmark-coarse.geojson"},"geometry":{"type":"LineString","coordinates":[[9.795001,55.277569],[9.789444,55.27],[9.765,55.250001],[9.755,55.245003],[9.74,55.245005],[9.725069,55.255],[9.723919,55.27],[9.73,55.274992],[9.74,55.279993],[9.745,55.278103],[9.755,55.28425],[9.76,55.28],[9.76375,55.29],[9.771364,55.29]]}},{"type":"Feature","properties":{"depth":2,"source":"DDM 2024 coarse contour","resolution":"0.005 degree sampled grid","scope":"denmark","tileSource":"contours-denmark-coarse.geojson"},"geometry":{"type":"LineString","coordinates":[[9.720962,55.295],[9.726087,55.29],[9.725,55.284684],[9.705,55.29],[9.71,55.295769],[9.720962,55.295]]}},{"type":"Feature","properties":{"depth":2,"source":"DDM 2024 coarse contour","resolution":"0.005 degree sampled grid","scope":"denmark","tileSource":"contours-denmark-coarse.geojson"},"geometry":{"type":"LineString","coordinates":[[9.795001,55.295014],[9.795,55.295014],[9.790011,55.3],[9.791865,55.305001]]}},{"type":"Feature","properties":{"depth":3,"source":"DDM 2024 coarse contour","resolution":"0.005 degree sampled grid","scope":"denmark","tileSource":"contours-denmark-coarse.geojson"},"geometry":{"type":"LineString","coordinates":[[9.668528,55.305001],[9.668529,55.305],[9.675,55.292935],[9.68,55.296],[9.685,55.294545],[9.69125,55.285],[9.69,55.278125],[9.685,55.284706],[9.670556,55.28],[9.705,55.269355],[9.719964,55.255],[9.718077,55.235],[9.695,55.223396],[9.701429,55.2],[9.69,55.19001],[9.665,55.184796],[9.646897,55.175],[9.63,55.170079],[9.620008,55.18],[9.62,55.190001],[9.582625,55.19],[9.575,55.181724],[9.56,55.175001],[9.55,55.174221],[9.525,55.16001],[9.5,55.155013],[9.50525,55.15],[9.506311,55.14],[9.523056,55.13],[9.515,55.125009],[9.495,55.125079],[9.49,55.12939],[9.485,55.125069],[9.48,55.130005],[9.475,55.130006],[9.466277,55.125],[9.470609,55.12],[9.5,55.119935],[9.505,55.114975],[9.515,55.11493],[9.52,55.109988],[9.525,55.109982],[9.54,55.094996],[9.55,55.094969],[9.555,55.090909],[9.555,55.085],[9.559286,55.08],[9.525,55.055045],[9.505,55.045013],[9.465,55.045032],[9.46,55.040026],[9.43,55.040024],[9.427187,55.035],[9.43,55.026],[9.44,55.029952],[9.450889,55.02],[9.508452,55.02],[9.52,55.029904],[9.534009,55.03],[9.54,55.034906],[9.57,55.034998],[9.57383,55.045],[9.595,55.044923],[9.605,55.039973],[9.62,55.019999],[9.625,55.019955],[9.63,55.014994],[9.65,55.009964],[9.655,55.005657],[9.665,55.004935],[9.67,55.000754],[9.68,54.999944],[9.694194,54.99],[9.71,54.99098],[9.715,54.994937],[9.72,54.990909],[9.745,54.99047],[9.741284,54.98],[9.75,54.97067],[9.754773,54.975],[9.752115,54.98],[9.76,54.984968],[9.772451,54.975],[9.785,54.974967],[9.795,54.97],[9.795001,54.969999]]}},{"type":"Feature","properties":{"depth":3,"source":"DDM 2024 coarse contour","resolution":"0.005 degree sampled grid","scope":"denmark","tileSource":"contours-denmark-coarse.geojson"},"geometry":{"type":"LineString","coordinates":[[9.795001,54.978761],[9.785,54.980038],[9.774884,54.99],[9.775,55],[9.78,55.004956],[9.79,55.004982],[9.79,55.010006],[9.76,55.009333],[9.755,55.005063],[9.695,55.005079],[9.688649,55.01],[9.68,55.010075],[9.675,55.015004],[9.67,55.015048],[9.65502,55.025],[9.67,55.034957],[9.679651,55.035],[9.645,55.035083],[9.635046,55.045],[9.635017,55.05],[9.64,55.054998],[9.65,55.055695],[9.665,55.069091],[9.68,55.074986],[9.69,55.075959],[9.695,55.079991],[9.725,55.083125],[9.735,55.087653],[9.76,55.09022],[9.775,55.08145],[9.795001,55.075718]]}},{"type":"Feature","properties":{"depth":3,"source":"DDM 2024 coarse contour","resolution":"0.005 degree sampled grid","scope":"denmark","tileSource":"contours-denmark-coarse.geojson"},"geometry":{"type":"LineString","coordinates":[[9.795001,54.895001],[9.795,54.895001],[9.78501,54.905],[9.785,54.910059],[9.78499,54.905],[9.78,54.900003],[9.77,54.899613],[9.765,54.895035],[9.745,54.895099],[9.734658,54.9],[9.705583,54.9],[9.705,54.892302],[9.73,54.889933],[9.74,54.884999],[9.744999,54.88],[9.745095,54.87],[9.75,54.86588],[9.760192,54.865],[9.759999,54.855],[9.764992,54.85],[9.757,54.845],[9.75,54.835038],[9.725,54.835007],[9.72,54.840027],[9.71,54.840059],[9.703919,54.845],[9.705,54.850004],[9.695,54.850021],[9.69,54.854646],[9.67,54.8528],[9.64,54.856818],[9.63375,54.865],[9.647727,54.875],[9.646974,54.88],[9.634815,54.885],[9.632115,54.89],[9.615,54.900015],[9.6,54.900022],[9.595,54.903684],[9.588448,54.9],[9.586194,54.89],[9.6,54.889989],[9.605,54.884956],[9.625,54.884972],[9.629941,54.88],[9.605,54.854934],[9.625,54.854952],[9.63,54.849941],[9.645,54.849978],[9.65,54.844929],[9.665,54.844891],[9.67,54.839931],[9.685,54.839922],[9.69,54.834917],[9.71,54.834923],[9.714914,54.829999]]}},{"type":"Feature","properties":{"depth":3,"source":"DDM 2024 coarse contour","resolution":"0.005 degree sampled grid","scope":"denmark","tileSource":"contours-denmark-coarse.geojson"},"geometry":{"type":"LineString","coordinates":[[9.790096,54.829999],[9.795,54.834899],[9.795001,54.834899]]}},{"type":"Feature","properties":{"depth":3,"source":"DDM 2024 coarse contour","resolution":"0.005 degree sampled grid","scope":"denmark","tileSource":"contours-denmark-coarse.geojson"},"geometry":{"type":"LineString","coordinates":[[9.44,54.834809],[9.435,54.830034],[9.424982,54.83],[9.425224,54.829999]]}},{"type":"Feature","properties":{"depth":3,"source":"DDM 2024 coarse contour","resolution":"0.005 degree sampled grid","scope":"denmark","tileSource":"contours-denmark-coarse.geojson"},"geometry":{"type":"LineString","coordinates":[[9.44,54.829999],[9.44,54.834809]]}},{"type":"Feature","properties":{"depth":3,"source":"DDM 2024 coarse contour","resolution":"0.005 degree sampled grid","scope":"denmark","tileSource":"contours-denmark-coarse.geojson"},"geometry":{"type":"LineString","coordinates":[[9.56,54.875051],[9.535,54.877407],[9.525,54.875012],[9.52,54.87001],[9.51,54.870005],[9.5025,54.86],[9.48,54.845011],[9.465,54.840001],[9.46,54.835057],[9.440424,54.835],[9.47,54.83493],[9.475,54.839963],[9.49,54.839938],[9.495,54.844965],[9.5,54.844953],[9.505,54.849971],[9.51,54.849966],[9.515,54.854974],[9.52,54.854956],[9.525,54.859967],[9.56,54.875051]]}},{"type":"Feature","properties":{"depth":3,"source":"DDM 2024 coarse contour","resolution":"0.005 degree sampled grid","scope":"denmark","tileSource":"contours-denmark-coarse.geojson"},"geometry":{"type":"LineString","coordinates":[[9.635,54.930014],[9.62125,54.93],[9.619643,54.925],[9.63,54.917019],[9.635,54.917283],[9.64,54.922857],[9.655,54.9145],[9.66,54.916667],[9.660714,54.92],[9.652222,54.925],[9.645,54.925008],[9.639677,54.93],[9.635,54.930014]]}},{"type":"Feature","properties":{"depth":3,"source":"DDM 2024 coarse contour","resolution":"0.005 degree sampled grid","scope":"denmark","tileSource":"contours-denmark-coarse.geojson"},"geometry":{"type":"LineString","coordinates":[[9.765,54.930043],[9.760112,54.93],[9.76496,54.925],[9.765,54.919951],[9.765,54.930043]]}},{"type":"Feature","properties":{"depth":3,"source":"DDM 2024 coarse contour","resolution":"0.005 degree sampled grid","scope":"denmark","tileSource":"contours-denmark-coarse.geojson"},"geometry":{"type":"LineString","coordinates":[[9.76,54.949756],[9.755806,54.945],[9.759956,54.94],[9.76,54.9301],[9.76,54.949756]]}},{"type":"Feature","properties":{"depth":3,"source":"DDM 2024 coarse contour","resolution":"0.005 degree sampled grid","scope":"denmark","tileSource":"contours-denmark-coarse.geojson"},"geometry":{"type":"LineString","coordinates":[[9.755,54.974815],[9.750556,54.97],[9.754952,54.965],[9.751318,54.96],[9.754957,54.955],[9.755,54.945882],[9.75973,54.95],[9.755043,54.955],[9.758971,54.96],[9.755048,54.965],[9.755,54.974815]]}},{"type":"Feature","properties":{"depth":3,"source":"DDM 2024 coarse contour","resolution":"0.005 degree sampled grid","scope":"denmark","tileSource":"contours-denmark-coarse.geojson"},"geometry":{"type":"LineString","coordinates":[[9.565143,55.13],[9.577222,55.12],[9.577778,55.115],[9.57,55.110002],[9.555,55.110106],[9.544842,55.12],[9.545083,55.13],[9.55,55.134913],[9.56,55.134909],[9.565143,55.13]]}},{"type":"Feature","properties":{"depth":3,"source":"DDM 2024 coarse contour","resolution":"0.005 degree sampled grid","scope":"denmark","tileSource":"contours-denmark-coarse.geojson"},"geometry":{"type":"LineString","coordinates":[[9.775833,55.29],[9.785,55.285476],[9.79,55.288966],[9.795001,55.287658]]}},{"type":"Feature","properties":{"depth":3,"source":"DDM 2024 coarse contour","resolution":"0.005 degree sampled grid","scope":"denmark","tileSource":"contours-denmark-coarse.geojson"},"geometry":{"type":"LineString","coordinates":[[9.795001,55.269167],[9.795,55.269167],[9.79,55.263421],[9.755,55.243333],[9.74,55.245],[9.725065,55.255],[9.725,55.271857],[9.74,55.279998],[9.745,55.279828],[9.76,55.290096],[9.775833,55.29]]}},{"type":"Feature","properties":{"depth":3,"source":"DDM 2024 coarse contour","resolution":"0.005 degree sampled grid","scope":"denmark","tileSource":"contours-denmark-coarse.geojson"},"geometry":{"type":"LineString","coordinates":[[9.722885,55.295],[9.726812,55.29],[9.725,55.284158],[9.703,55.29],[9.705,55.295312],[9.71,55.296731],[9.722885,55.295]]}},{"type":"Feature","properties":{"depth":3,"source":"DDM 2024 coarse contour","resolution":"0.005 degree sampled grid","scope":"denmark","tileSource":"contours-denmark-coarse.geojson"},"geometry":{"type":"LineString","coordinates":[[9.795001,55.295009],[9.795,55.295009],[9.790006,55.3],[9.791221,55.305001]]}},{"type":"Feature","properties":{"depth":5,"source":"DDM 2024 coarse contour","resolution":"0.005 degree sampled grid","scope":"denmark","tileSource":"contours-denmark-coarse.geojson"},"geometry":{"type":"LineString","coordinates":[[9.671922,55.305001],[9.671923,55.305],[9.675,55.295333],[9.679049,55.305001]]}},{"type":"Feature","properties":{"depth":5,"source":"DDM 2024 coarse contour","resolution":"0.005 degree sampled grid","scope":"denmark","tileSource":"contours-denmark-coarse.geojson"},"geometry":{"type":"LineString","coordinates":[[9.68553,55.305001],[9.685532,55.305],[9.683529,55.3],[9.690312,55.295],[9.69,55.288438],[9.698684,55.29],[9.69875,55.295],[9.705,55.300568],[9.725978,55.295],[9.728913,55.285],[9.715,55.279105],[9.71,55.2825],[9.700732,55.275],[9.719974,55.255],[9.720077,55.23],[9.705,55.22875],[9.695,55.221509],[9.696845,55.215],[9.705377,55.21],[9.707187,55.205],[9.7,55.1932],[9.689722,55.19],[9.685625,55.185],[9.67,55.184464],[9.654182,55.18],[9.650294,55.175],[9.63,55.170069],[9.619845,55.18],[9.619086,55.19],[9.585057,55.19],[9.575,55.176875],[9.57,55.178788],[9.56,55.173509],[9.55,55.172922],[9.536389,55.165],[9.535,55.160833],[9.5,55.155003],[9.50775,55.15],[9.506212,55.145],[9.512857,55.135],[9.526071,55.13],[9.515,55.124966],[9.495,55.125069],[9.49,55.128808],[9.485,55.125059],[9.48,55.1296],[9.475,55.12957],[9.46734,55.125],[9.471478,55.12],[9.5,55.119944],[9.505,55.114985],[9.515,55.114939],[9.52,55.109998],[9.525,55.109992],[9.54,55.096579],[9.545,55.101364],[9.5516,55.1],[9.5575,55.095],[9.556563,55.085],[9.568889,55.08],[9.555,55.077111],[9.525,55.055035],[9.505,55.045003],[9.465,55.045022],[9.46,55.040016],[9.435,55.038675],[9.430159,55.035],[9.43,55.028857],[9.44,55.029961],[9.453111,55.02],[9.506071,55.02],[9.52,55.029913],[9.533147,55.03],[9.54,55.034916],[9.57,55.036067],[9.572864,55.04],[9.571702,55.045],[9.595,55.044933],[9.605,55.039983],[9.620955,55.02],[9.63,55.015248],[9.68,54.999954],[9.695,54.990694],[9.71,54.991634],[9.715,54.994947],[9.73,54.99],[9.745,54.991325],[9.742202,54.98],[9.75,54.971701],[9.753636,54.975],[9.750192,54.98],[9.76,54.984978],[9.774412,54.975],[9.795,54.971471],[9.795001,54.97147]]}},{"type":"Feature","properties":{"depth":5,"source":"DDM 2024 coarse contour","resolution":"0.005 degree sampled grid","scope":"denmark","tileSource":"contours-denmark-coarse.geojson"},"geometry":{"type":"LineString","coordinates":[[9.795001,54.978764],[9.785,54.980028],[9.773721,54.99],[9.773913,55],[9.78,55.004966],[9.79,55.004992],[9.79,55.008333],[9.76,55.008593],[9.755,55.005053],[9.695,55.005069],[9.67,55.015038],[9.65501,55.025],[9.66,55.03089],[9.677326,55.035],[9.645,55.035074],[9.635036,55.045],[9.637895,55.055],[9.65,55.056358],[9.6625,55.07],[9.7,55.081145],[9.730306,55.085],[9.735,55.089694],[9.76,55.090661],[9.775,55.08245],[9.795,55.078958],[9.795001,55.078958]]}},{"type":"Feature","properties":{"depth":5,"source":"DDM 2024 coarse contour","resolution":"0.005 degree sampled grid","scope":"denmark","tileSource":"contours-denmark-coarse.geojson"},"geometry":{"type":"LineString","coordinates":[[9.795001,54.894332],[9.79,54.894568],[9.785,54.905],[9.78,54.899568],[9.77,54.898908],[9.765,54.895025],[9.745,54.895089],[9.733288,54.9],[9.706417,54.9],[9.705,54.893889],[9.71,54.890915],[9.73,54.889942],[9.74,54.885423],[9.747571,54.88],[9.746048,54.87],[9.762115,54.865],[9.76629,54.855],[9.765,54.848636],[9.759222,54.845],[9.760124,54.84],[9.75,54.835028],[9.725,54.83476],[9.72,54.840017],[9.71,54.840049],[9.701216,54.845],[9.7025,54.85],[9.695,54.850011],[9.69,54.853636],[9.67,54.849843],[9.66,54.853299],[9.64,54.853974],[9.631964,54.865],[9.645455,54.875],[9.643077,54.88],[9.631111,54.885],[9.615,54.900005],[9.595,54.901053],[9.587687,54.89],[9.6,54.889999],[9.605,54.884966],[9.625,54.884982],[9.629951,54.88],[9.605,54.854944],[9.625,54.854962],[9.63,54.849951],[9.645,54.849988],[9.65,54.844939],[9.665,54.8449],[9.67,54.83994],[9.685,54.839932],[9.69,54.834926],[9.71,54.834933],[9.714924,54.829999]]}},{"type":"Feature","properties":{"depth":5,"source":"DDM 2024 coarse contour","resolution":"0.005 degree sampled grid","scope":"denmark","tileSource":"contours-denmark-coarse.geojson"},"geometry":{"type":"LineString","coordinates":[[9.790086,54.829999],[9.795,54.834909],[9.795001,54.834909]]}},{"type":"Feature","properties":{"depth":5,"source":"DDM 2024 coarse contour","resolution":"0.005 degree sampled grid","scope":"denmark","tileSource":"contours-denmark-coarse.geojson"},"geometry":{"type":"LineString","coordinates":[[9.56,54.875041],[9.525,54.875002],[9.52,54.87],[9.513214,54.87],[9.504998,54.865],[9.505,54.862143],[9.51,54.864255],[9.514255,54.86],[9.51,54.856078],[9.505,54.85875],[9.495,54.851176],[9.46,54.835047],[9.442119,54.835],[9.47,54.83494],[9.475,54.839973],[9.49,54.839948],[9.495,54.844975],[9.5,54.844962],[9.505,54.849981],[9.51,54.849976],[9.515,54.854984],[9.52,54.854966],[9.525,54.859977],[9.56,54.875041]]}},{"type":"Feature","properties":{"depth":5,"source":"DDM 2024 coarse contour","resolution":"0.005 degree sampled grid","scope":"denmark","tileSource":"contours-denmark-coarse.geojson"},"geometry":{"type":"LineString","coordinates":[[9.635,54.930004],[9.624821,54.93],[9.622093,54.925],[9.63,54.918942],[9.635,54.919457],[9.64125,54.925],[9.635,54.930004]]}},{"type":"Feature","properties":{"depth":5,"source":"DDM 2024 coarse contour","resolution":"0.005 degree sampled grid","scope":"denmark","tileSource":"contours-denmark-coarse.geojson"},"geometry":{"type":"LineString","coordinates":[[9.765,54.930033],[9.761236,54.93],[9.765,54.91996],[9.765,54.930033]]}},{"type":"Feature","properties":{"depth":5,"source":"DDM 2024 coarse contour","resolution":"0.005 degree sampled grid","scope":"denmark","tileSource":"contours-denmark-coarse.geojson"},"geometry":{"type":"LineString","coordinates":[[9.76,54.948537],[9.756882,54.945],[9.76,54.9311],[9.76,54.948537]]}},{"type":"Feature","properties":{"depth":5,"source":"DDM 2024 coarse contour","resolution":"0.005 degree sampled grid","scope":"denmark","tileSource":"contours-denmark-coarse.geojson"},"geometry":{"type":"LineString","coordinates":[[9.755,54.973889],[9.75141,54.97],[9.754962,54.965],[9.752227,54.96],[9.755,54.947059],[9.758378,54.95],[9.755033,54.955],[9.75799,54.96],[9.755,54.973889]]}},{"type":"Feature","properties":{"depth":5,"source":"DDM 2024 coarse contour","resolution":"0.005 degree sampled grid","scope":"denmark","tileSource":"contours-denmark-coarse.geojson"},"geometry":{"type":"LineString","coordinates":[[9.566095,55.13],[9.586818,55.115],[9.57,55.109653],[9.555,55.110096],[9.544316,55.12],[9.545073,55.13],[9.55,55.134923],[9.56,55.134919],[9.566095,55.13]]}},{"type":"Feature","properties":{"depth":5,"source":"DDM 2024 coarse contour","resolution":"0.005 degree sampled grid","scope":"denmark","tileSource":"contours-denmark-coarse.geojson"},"geometry":{"type":"LineString","coordinates":[[9.795001,55.258059],[9.795,55.258056],[9.78,55.253824],[9.767143,55.24],[9.74,55.2325],[9.736364,55.235],[9.733613,55.25],[9.725055,55.255],[9.721892,55.27],[9.738404,55.28],[9.746897,55.29],[9.737308,55.3],[9.74,55.30125],[9.755,55.2895],[9.77,55.293929],[9.785,55.290172],[9.794737,55.295],[9.78913,55.3],[9.789487,55.305001]]}},{"type":"Feature","properties":{"depth":10,"source":"DDM 2024 coarse contour","resolution":"0.005 degree sampled grid","scope":"denmark","tileSource":"contours-denmark-coarse.geojson"},"geometry":{"type":"LineString","coordinates":[[9.756839,55.305001],[9.78,55.298125],[9.778077,55.305001]]}},{"type":"Feature","properties":{"depth":10,"source":"DDM 2024 coarse contour","resolution":"0.005 degree sampled grid","scope":"denmark","tileSource":"contours-denmark-coarse.geojson"},"geometry":{"type":"LineString","coordinates":[[9.795001,55.253203],[9.784615,55.25],[9.775,55.2378],[9.75,55.230678],[9.745,55.224762],[9.733632,55.23],[9.731513,55.25],[9.72503,55.255],[9.717373,55.275],[9.710882,55.275],[9.725957,55.24],[9.723923,55.23],[9.715,55.22],[9.7,55.216442],[9.71,55.210098],[9.712453,55.2],[9.695,55.183802],[9.635,55.16861],[9.622128,55.175],[9.616398,55.19],[9.587898,55.19],[9.587353,55.18],[9.595294,55.175],[9.58,55.162],[9.507368,55.155],[9.517054,55.135],[9.531414,55.13],[9.515,55.123289],[9.475,55.126882],[9.47,55.125],[9.473652,55.12],[9.495,55.122188],[9.53,55.107688],[9.535,55.110766],[9.54,55.103077],[9.561379,55.1],[9.56,55.085612],[9.585786,55.085],[9.56,55.076892],[9.505,55.04404],[9.465,55.044691],[9.46,55.039441],[9.445,55.037982],[9.436216,55.03],[9.46,55.020278],[9.5,55.020039],[9.52,55.029938],[9.57,55.0394],[9.568583,55.045],[9.58,55.047593],[9.605,55.040417],[9.63,55.017021],[9.695,54.993009],[9.745,54.993462],[9.75,54.985652],[9.785,54.976667],[9.78625,54.98],[9.770814,54.99],[9.771196,55],[9.785,55.005278],[9.695,55.005044],[9.655,55.023782],[9.655137,55.03],[9.671739,55.035],[9.645,55.035049],[9.635011,55.045],[9.633978,55.055],[9.65,55.058013],[9.66,55.071176],[9.735,55.091691],[9.76,55.091762],[9.795001,55.082068]]}},{"type":"Feature","properties":{"depth":10,"source":"DDM 2024 coarse contour","resolution":"0.005 degree sampled grid","scope":"denmark","tileSource":"contours-denmark-coarse.geojson"},"geometry":{"type":"LineString","coordinates":[[9.795001,54.890681],[9.79,54.891481],[9.785,54.902881],[9.76,54.894076],[9.729899,54.9],[9.7085,54.9],[9.706765,54.895],[9.75165,54.88],[9.748429,54.87],[9.765826,54.865],[9.772755,54.855],[9.772,54.845],[9.779211,54.84],[9.765,54.843091],[9.73,54.831421],[9.69,54.851111],[9.655,54.851641],[9.65,54.844963],[9.685,54.839957],[9.69,54.834951],[9.71,54.834958],[9.722355,54.829999]]}},{"type":"Feature","properties":{"depth":10,"source":"DDM 2024 coarse contour","resolution":"0.005 degree sampled grid","scope":"denmark","tileSource":"contours-denmark-coarse.geojson"},"geometry":{"type":"LineString","coordinates":[[9.775637,54.829999],[9.795001,54.832417]]}},{"type":"Feature","properties":{"depth":10,"source":"DDM 2024 coarse contour","resolution":"0.005 degree sampled grid","scope":"denmark","tileSource":"contours-denmark-coarse.geojson"},"geometry":{"type":"LineString","coordinates":[[9.47,54.838636],[9.447424,54.835],[9.47,54.834965],[9.47,54.838636]]}},{"type":"Feature","properties":{"depth":10,"source":"DDM 2024 coarse contour","resolution":"0.005 degree sampled grid","scope":"denmark","tileSource":"contours-denmark-coarse.geojson"},"geometry":{"type":"LineString","coordinates":[[9.49,54.844104],[9.474355,54.84],[9.49,54.839973],[9.49,54.844104]]}},{"type":"Feature","properties":{"depth":10,"source":"DDM 2024 coarse contour","resolution":"0.005 degree sampled grid","scope":"denmark","tileSource":"contours-denmark-coarse.geojson"},"geometry":{"type":"LineString","coordinates":[[9.792231,54.85],[9.795001,54.846298]]}},{"type":"Feature","properties":{"depth":10,"source":"DDM 2024 coarse contour","resolution":"0.005 degree sampled grid","scope":"denmark","tileSource":"contours-denmark-coarse.geojson"},"geometry":{"type":"LineString","coordinates":[[9.795001,54.844144],[9.79,54.839737],[9.7812,54.84],[9.785,54.85431],[9.792231,54.85]]}},{"type":"Feature","properties":{"depth":10,"source":"DDM 2024 coarse contour","resolution":"0.005 degree sampled grid","scope":"denmark","tileSource":"contours-denmark-coarse.geojson"},"geometry":{"type":"LineString","coordinates":[[9.63,54.88266],[9.61498,54.865],[9.615,54.861204],[9.623077,54.86],[9.61,54.860026],[9.605,54.854968],[9.629821,54.855],[9.6275,54.865],[9.638563,54.875],[9.63,54.88266]]}},{"type":"Feature","properties":{"depth":10,"source":"DDM 2024 coarse contour","resolution":"0.005 degree sampled grid","scope":"denmark","tileSource":"contours-denmark-coarse.geojson"},"geometry":{"type":"LineString","coordinates":[[9.615,54.88625],[9.604991,54.885],[9.62,54.885],[9.615,54.88625]]}},{"type":"Feature","properties":{"depth":10,"source":"DDM 2024 coarse contour","resolution":"0.005 degree sampled grid","scope":"denmark","tileSource":"contours-denmark-coarse.geojson"},"geometry":{"type":"LineString","coordinates":[[9.568476,55.13],[9.585889,55.125],[9.596667,55.115],[9.595565,55.11],[9.555,55.110071],[9.543,55.12],[9.55,55.134947],[9.568476,55.13]]}},{"type":"Feature","properties":{"depth":10,"source":"DDM 2024 coarse contour","resolution":"0.005 degree sampled grid","scope":"denmark","tileSource":"contours-denmark-coarse.geojson"},"geometry":{"type":"LineString","coordinates":[[9.686061,55.135],[9.689,55.13],[9.668333,55.13],[9.686061,55.135]]}},{"type":"Feature","properties":{"depth":10,"source":"DDM 2024 coarse contour","resolution":"0.005 degree sampled grid","scope":"denmark","tileSource":"contours-denmark-coarse.geojson"},"geometry":{"type":"LineString","coordinates":[[9.707143,55.165],[9.7,55.159801],[9.697708,55.165],[9.707143,55.165]]}},{"type":"Feature","properties":{"depth":10,"source":"DDM 2024 coarse contour","resolution":"0.005 degree sampled grid","scope":"denmark","tileSource":"contours-denmark-coarse.geojson"},"geometry":{"type":"LineString","coordinates":[[9.575,55.171393],[9.565,55.172881],[9.548214,55.165],[9.57,55.160972],[9.575,55.171393]]}},{"type":"Feature","properties":{"depth":10,"source":"DDM 2024 coarse contour","resolution":"0.005 degree sampled grid","scope":"denmark","tileSource":"contours-denmark-coarse.geojson"},"geometry":{"type":"LineString","coordinates":[[9.735,55.297935],[9.73097,55.295],[9.735,55.282308],[9.738611,55.29],[9.735,55.297935]]}},{"type":"Feature","properties":{"depth":10,"source":"DDM 2024 coarse contour","resolution":"0.005 degree sampled grid","scope":"denmark","tileSource":"contours-denmark-coarse.geojson"},"geometry":{"type":"LineString","coordinates":[[9.717783,55.305001],[9.717778,55.305],[9.73,55.296857],[9.734615,55.305],[9.734613,55.305001]]}},{"type":"Feature","properties":{"depth":15,"source":"DDM 2024 coarse contour","resolution":"0.005 degree sampled grid","scope":"denmark","tileSource":"contours-denmark-coarse.geojson"},"geometry":{"type":"LineString","coordinates":[[9.795001,55.228152],[9.790909,55.23],[9.792344,55.235],[9.795001,55.236121]]}},{"type":"Feature","properties":{"depth":15,"source":"DDM 2024 coarse contour","resolution":"0.005 degree sampled grid","scope":"denmark","tileSource":"contours-denmark-coarse.geojson"},"geometry":{"type":"LineString","coordinates":[[9.795001,55.250086],[9.787807,55.245],[9.785,55.2375],[9.755,55.230052],[9.745,55.222381],[9.731496,55.23],[9.73,55.248108],[9.728095,55.225],[9.723043,55.22],[9.726184,55.215],[9.71,55.215],[9.7212,55.2],[9.692386,55.18],[9.635,55.167273],[9.620439,55.175],[9.615,55.18431],[9.605,55.181964],[9.595161,55.165],[9.58,55.1583],[9.517778,55.155],[9.52,55.141087],[9.533939,55.13],[9.52,55.122087],[9.4775,55.125],[9.48,55.120833],[9.495,55.12375],[9.509023,55.115],[9.535,55.113018],[9.567266,55.1],[9.560897,55.09],[9.58,55.090337],[9.587571,55.085],[9.555,55.07275],[9.505,55.042924],[9.465,55.041605],[9.443916,55.035],[9.455,55.023487],[9.5,55.022008],[9.565341,55.04],[9.57,55.047561],[9.58,55.048915],[9.605,55.041806],[9.627258,55.02],[9.664509,55.005],[9.695,54.995814],[9.735,54.995161],[9.744444,55],[9.735,55.003947],[9.705,55.002353],[9.655,55.021681],[9.649032,55.035],[9.635,55.0432],[9.632153,55.055],[9.65,55.059669],[9.66,55.07281],[9.745,55.094071],[9.795001,55.083195]]}},{"type":"Feature","properties":{"depth":15,"source":"DDM 2024 coarse contour","resolution":"0.005 degree sampled grid","scope":"denmark","tileSource":"contours-denmark-coarse.geojson"},"geometry":{"type":"LineString","coordinates":[[9.725,54.900023],[9.711148,54.9],[9.709216,54.895],[9.74,54.88777],[9.75415,54.88],[9.751024,54.87],[9.765,54.866786],[9.77,54.859812],[9.78,54.860944],[9.795001,54.849994]]}},{"type":"Feature","properties":{"depth":15,"source":"DDM 2024 coarse contour","resolution":"0.005 degree sampled grid","scope":"denmark","tileSource":"contours-denmark-coarse.geojson"},"geometry":{"type":"LineString","coordinates":[[9.795001,54.841009],[9.79,54.838092],[9.765,54.840818],[9.735838,54.829999]]}},{"type":"Feature","properties":{"depth":15,"source":"DDM 2024 coarse contour","resolution":"0.005 degree sampled grid","scope":"denmark","tileSource":"contours-denmark-coarse.geojson"},"geometry":{"type":"LineString","coordinates":[[9.775438,54.829999],[9.795001,54.832442]]}},{"type":"Feature","properties":{"depth":15,"source":"DDM 2024 coarse contour","resolution":"0.005 degree sampled grid","scope":"denmark","tileSource":"contours-denmark-coarse.geojson"},"geometry":{"type":"LineString","coordinates":[[9.795001,54.888493],[9.79,54.888984],[9.78,54.896481],[9.755,54.89267],[9.725,54.900023]]}},{"type":"Feature","properties":{"depth":15,"source":"DDM 2024 coarse contour","resolution":"0.005 degree sampled grid","scope":"denmark","tileSource":"contours-denmark-coarse.geojson"},"geometry":{"type":"LineString","coordinates":[[9.695,54.845063],[9.66,54.849432],[9.65,54.846543],[9.727262,54.83],[9.695,54.845063]]}},{"type":"Feature","properties":{"depth":15,"source":"DDM 2024 coarse contour","resolution":"0.005 degree sampled grid","scope":"denmark","tileSource":"contours-denmark-coarse.geojson"},"geometry":{"type":"LineString","coordinates":[[9.57619,55.13],[9.59,55.125637],[9.599643,55.115],[9.597739,55.11],[9.57,55.107338],[9.555,55.110047],[9.541684,55.12],[9.55,55.134972],[9.57619,55.13]]}},{"type":"Feature","properties":{"depth":15,"source":"DDM 2024 coarse contour","resolution":"0.005 degree sampled grid","scope":"denmark","tileSource":"contours-denmark-coarse.geojson"},"geometry":{"type":"LineString","coordinates":[[9.702396,55.135],[9.70875,55.13],[9.685,55.124942],[9.665,55.127246],[9.66,55.119695],[9.62883,55.12],[9.636111,55.13],[9.65,55.134507],[9.66,55.128429],[9.68,55.136857],[9.702396,55.135]]}},{"type":"Feature","properties":{"depth":15,"source":"DDM 2024 coarse contour","resolution":"0.005 degree sampled grid","scope":"denmark","tileSource":"contours-denmark-coarse.geojson"},"geometry":{"type":"LineString","coordinates":[[9.714286,55.17],[9.71,55.161038],[9.7,55.158146],[9.686389,55.165],[9.68525,55.17],[9.714286,55.17]]}},{"type":"Feature","properties":{"depth":15,"source":"DDM 2024 coarse contour","resolution":"0.005 degree sampled grid","scope":"denmark","tileSource":"contours-denmark-coarse.geojson"},"geometry":{"type":"LineString","coordinates":[[9.57,55.170968],[9.554412,55.165],[9.565,55.163605],[9.57,55.170968]]}},{"type":"Feature","properties":{"depth":20,"source":"DDM 2024 coarse contour","resolution":"0.005 degree sampled grid","scope":"denmark","tileSource":"contours-denmark-coarse.geojson"},"geometry":{"type":"LineString","coordinates":[[9.72,54.900005],[9.713778,54.895],[9.755,54.881854],[9.754036,54.87],[9.78,54.862692],[9.795001,54.852342]]}},{"type":"Feature","properties":{"depth":20,"source":"DDM 2024 coarse contour","resolution":"0.005 degree sampled grid","scope":"denmark","tileSource":"contours-denmark-coarse.geojson"},"geometry":{"type":"LineString","coordinates":[[9.795001,54.839182],[9.79,54.836447],[9.765,54.837949],[9.74662,54.829999]]}},{"type":"Feature","properties":{"depth":20,"source":"DDM 2024 coarse contour","resolution":"0.005 degree sampled grid","scope":"denmark","tileSource":"contours-denmark-coarse.geojson"},"geometry":{"type":"LineString","coordinates":[[9.775244,54.829999],[9.795001,54.832466]]}},{"type":"Feature","properties":{"depth":20,"source":"DDM 2024 coarse contour","resolution":"0.005 degree sampled grid","scope":"denmark","tileSource":"contours-denmark-coarse.geojson"},"geometry":{"type":"LineString","coordinates":[[9.795001,54.888005],[9.79,54.887031],[9.78,54.894783],[9.755,54.891361],[9.72,54.900005]]}},{"type":"Feature","properties":{"depth":20,"source":"DDM 2024 coarse contour","resolution":"0.005 degree sampled grid","scope":"denmark","tileSource":"contours-denmark-coarse.geojson"},"geometry":{"type":"LineString","coordinates":[[9.695,54.841048],[9.69,54.835],[9.7045,54.835],[9.695,54.841048]]}},{"type":"Feature","properties":{"depth":20,"source":"DDM 2024 coarse contour","resolution":"0.005 degree sampled grid","scope":"denmark","tileSource":"contours-denmark-coarse.geojson"},"geometry":{"type":"LineString","coordinates":[[9.66,55.017348],[9.650278,55.015],[9.675,55.005857],[9.678085,55.01],[9.66,55.017348]]}},{"type":"Feature","properties":{"depth":20,"source":"DDM 2024 coarse contour","resolution":"0.005 degree sampled grid","scope":"denmark","tileSource":"contours-denmark-coarse.geojson"},"geometry":{"type":"LineString","coordinates":[[9.775,55.230246],[9.76,55.221154],[9.738333,55.22],[9.74,55.216],[9.745,55.22],[9.748958,55.215],[9.745,55.212683],[9.73,55.22],[9.729474,55.215],[9.720417,55.21],[9.726463,55.2],[9.722262,55.195],[9.695,55.178663],[9.64,55.166078],[9.615,55.17119],[9.614167,55.16],[9.6,55.15],[9.605833,55.16],[9.548889,55.155],[9.56,55.145],[9.55,55.144615],[9.54,55.135667],[9.54,55.1252],[9.55,55.134996],[9.575,55.134167],[9.59,55.128088],[9.602391,55.115],[9.595,55.106596],[9.56,55.105],[9.572273,55.1],[9.57,55.09],[9.58,55.093146],[9.589357,55.085],[9.545,55.066377],[9.505,55.041808],[9.469286,55.04],[9.45,55.035],[9.45,55.03],[9.46,55.024907],[9.5,55.023976],[9.58,55.050402],[9.605,55.043194],[9.63,55.022353],[9.65,55.015111],[9.654074,55.02],[9.645,55.035],[9.634872,55.04],[9.630328,55.055],[9.65,55.062667],[9.655,55.073163],[9.735,55.095471],[9.76,55.093965],[9.795001,55.083982]]}},{"type":"Feature","properties":{"depth":20,"source":"DDM 2024 coarse contour","resolution":"0.005 degree sampled grid","scope":"denmark","tileSource":"contours-denmark-coarse.geojson"},"geometry":{"type":"LineString","coordinates":[[9.795001,55.19828],[9.79,55.199565],[9.786094,55.225],[9.775,55.230246]]}},{"type":"Feature","properties":{"depth":20,"source":"DDM 2024 coarse contour","resolution":"0.005 degree sampled grid","scope":"denmark","tileSource":"contours-denmark-coarse.geojson"},"geometry":{"type":"LineString","coordinates":[[9.535,55.125323],[9.532222,55.12],[9.545,55.113049],[9.54,55.124667],[9.535,55.125323]]}},{"type":"Feature","properties":{"depth":20,"source":"DDM 2024 coarse contour","resolution":"0.005 degree sampled grid","scope":"denmark","tileSource":"contours-denmark-coarse.geojson"},"geometry":{"type":"LineString","coordinates":[[9.707604,55.135],[9.72,55.135],[9.705,55.123763],[9.67,55.124091],[9.66,55.117786],[9.63,55.115],[9.624186,55.12],[9.625,55.126452],[9.635,55.133239],[9.65,55.137194],[9.707604,55.135]]}},{"type":"Feature","properties":{"depth":20,"source":"DDM 2024 coarse contour","resolution":"0.005 degree sampled grid","scope":"denmark","tileSource":"contours-denmark-coarse.geojson"},"geometry":{"type":"LineString","coordinates":[[9.720833,55.175],[9.72473,55.16],[9.72,55.158034],[9.7,55.15649],[9.664474,55.165],[9.68,55.171417],[9.720833,55.175]]}},{"type":"Feature","properties":{"depth":20,"source":"DDM 2024 coarse contour","resolution":"0.005 degree sampled grid","scope":"denmark","tileSource":"contours-denmark-coarse.geojson"},"geometry":{"type":"LineString","coordinates":[[9.795001,55.245978],[9.793788,55.245],[9.795001,55.244867]]}},{"type":"Feature","properties":{"depth":30,"source":"DDM 2024 coarse contour","resolution":"0.005 degree sampled grid","scope":"denmark","tileSource":"contours-denmark-coarse.geojson"},"geometry":{"type":"LineString","coordinates":[[9.605,55.085833],[9.595,55.087714],[9.585,55.07616],[9.551667,55.065],[9.515,55.041328],[9.496,55.035],[9.505,55.031176],[9.522,55.035],[9.575,55.054381],[9.615,55.055833],[9.63625,55.07],[9.605,55.085833]]}}]}