{"type":"FeatureCollection","name":"DDM contour tile r02_c11","bbox":[12.68,55.31,13.155,55.785],"metadata":{"schema":"waternav-ddm-contour-tile-v1","version":"v45.7","tileId":"r02_c11","source":"Danmarks Dybdemodel 2024 ddm_50m.dybde.tiff via bundled DDM contour GeoJSON files"},"features":[{"type":"Feature","properties":{"depth":1,"source":"DDM 2024 coarse contour","resolution":"0.005 degree sampled grid","scope":"denmark","tileSource":"contours-denmark-coarse.geojson"},"geometry":{"type":"LineString","coordinates":[[12.679999,55.474945],[12.68,55.474946],[12.705,55.484945],[12.715052,55.495],[12.715051,55.51],[12.720052,55.515],[12.720049,55.53],[12.73,55.544957],[12.735,55.544953],[12.76,55.559968],[12.775,55.564957],[12.8,55.579981],[12.81,55.579954],[12.825,55.589978],[12.83,55.589967],[12.865,55.609967],[12.88,55.614963],[12.88004,55.62],[12.885043,55.625],[12.885026,55.635],[12.89003,55.64],[12.890041,55.645],[12.87005,55.665],[12.870057,55.67],[12.79,55.750056],[12.785,55.750064],[12.750082,55.785001]]}},{"type":"Feature","properties":{"depth":1,"source":"DDM 2024 coarse contour","resolution":"0.005 degree sampled grid","scope":"denmark","tileSource":"contours-denmark-coarse.geojson"},"geometry":{"type":"LineString","coordinates":[[12.679999,55.629982],[12.684981,55.625],[12.684964,55.615],[12.679999,55.609832]]}},{"type":"Feature","properties":{"depth":1,"source":"DDM 2024 coarse contour","resolution":"0.005 degree sampled grid","scope":"denmark","tileSource":"contours-denmark-coarse.geojson"},"geometry":{"type":"LineString","coordinates":[[12.679999,55.592397],[12.680882,55.59],[12.679999,55.589277]]}},{"type":"Feature","properties":{"depth":1,"source":"DDM 2024 coarse contour","resolution":"0.005 degree sampled grid","scope":"denmark","tileSource":"contours-denmark-coarse.geojson"},"geometry":{"type":"LineString","coordinates":[[12.78025,55.675],[12.783889,55.665],[12.79,55.663],[12.795,55.635],[12.8,55.635],[12.797917,55.63],[12.8,55.625],[12.81,55.625455],[12.82,55.630227],[12.8175,55.625],[12.818571,55.615],[12.815,55.609783],[12.79,55.600005],[12.765,55.599783],[12.764989,55.595],[12.76,55.590021],[12.755,55.590024],[12.735002,55.605],[12.744118,55.61],[12.74,55.6135],[12.735,55.614808],[12.734988,55.61],[12.73,55.605013],[12.725025,55.61],[12.73,55.614994],[12.734615,55.615],[12.7225,55.64],[12.73,55.656429],[12.741,55.67],[12.76,55.675455],[12.78025,55.675]]}},{"type":"Feature","properties":{"depth":1,"source":"DDM 2024 coarse contour","resolution":"0.005 degree sampled grid","scope":"denmark","tileSource":"contours-denmark-coarse.geojson"},"geometry":{"type":"LineString","coordinates":[[12.755,55.605556],[12.75,55.608333],[12.755,55.599989],[12.76375,55.6],[12.755,55.605556]]}},{"type":"Feature","properties":{"depth":2,"source":"DDM 2024 coarse contour","resolution":"0.005 degree sampled grid","scope":"denmark","tileSource":"contours-denmark-coarse.geojson"},"geometry":{"type":"LineString","coordinates":[[12.679999,55.47495],[12.68,55.474951],[12.705,55.48495],[12.715047,55.495],[12.715046,55.51],[12.720047,55.515],[12.720044,55.53],[12.73,55.544962],[12.735,55.544958],[12.76,55.559973],[12.775,55.564962],[12.8,55.579986],[12.81,55.579959],[12.825,55.589983],[12.83,55.589972],[12.865,55.609972],[12.88,55.614968],[12.880035,55.62],[12.885038,55.625],[12.885021,55.635],[12.890025,55.64],[12.890036,55.645],[12.870045,55.665],[12.870052,55.67],[12.79,55.750051],[12.785,55.750059],[12.750077,55.785001]]}},{"type":"Feature","properties":{"depth":2,"source":"DDM 2024 coarse contour","resolution":"0.005 degree sampled grid","scope":"denmark","tileSource":"contours-denmark-coarse.geojson"},"geometry":{"type":"LineString","coordinates":[[12.679999,55.631152],[12.6815,55.63],[12.684986,55.625],[12.684969,55.615],[12.679999,55.606772]]}},{"type":"Feature","properties":{"depth":2,"source":"DDM 2024 coarse contour","resolution":"0.005 degree sampled grid","scope":"denmark","tileSource":"contours-denmark-coarse.geojson"},"geometry":{"type":"LineString","coordinates":[[12.679999,55.59953],[12.681863,55.59],[12.679999,55.585712]]}},{"type":"Feature","properties":{"depth":2,"source":"DDM 2024 coarse contour","resolution":"0.005 degree sampled grid","scope":"denmark","tileSource":"contours-denmark-coarse.geojson"},"geometry":{"type":"LineString","coordinates":[[12.78275,55.675],[12.794643,55.66],[12.803125,55.63],[12.82,55.6325],[12.821667,55.63],[12.820851,55.615],[12.815,55.608696],[12.785,55.597143],[12.765,55.597609],[12.76,55.590016],[12.755,55.590019],[12.745,55.599268],[12.73,55.605008],[12.72502,55.61],[12.730769,55.615],[12.718421,55.64],[12.735,55.67],[12.76,55.677727],[12.775,55.678333],[12.78275,55.675]]}},{"type":"Feature","properties":{"depth":3,"source":"DDM 2024 coarse contour","resolution":"0.005 degree sampled grid","scope":"denmark","tileSource":"contours-denmark-coarse.geojson"},"geometry":{"type":"LineString","coordinates":[[12.679999,55.474954],[12.68,55.474955],[12.705,55.484955],[12.715042,55.495],[12.715041,55.51],[12.720043,55.515],[12.720039,55.53],[12.73,55.544967],[12.735,55.544963],[12.76,55.559978],[12.775,55.564967],[12.8,55.579991],[12.81,55.579964],[12.825,55.589988],[12.83,55.589977],[12.865,55.609977],[12.88,55.614973],[12.88003,55.62],[12.885033,55.625],[12.885016,55.635],[12.89002,55.64],[12.890031,55.645],[12.87004,55.665],[12.870047,55.67],[12.79,55.750046],[12.785,55.750054],[12.750072,55.785001]]}},{"type":"Feature","properties":{"depth":3,"source":"DDM 2024 coarse contour","resolution":"0.005 degree sampled grid","scope":"denmark","tileSource":"contours-denmark-coarse.geojson"},"geometry":{"type":"LineString","coordinates":[[12.679999,55.631154],[12.683167,55.63],[12.684974,55.615],[12.679999,55.610002]]}},{"type":"Feature","properties":{"depth":3,"source":"DDM 2024 coarse contour","resolution":"0.005 degree sampled grid","scope":"denmark","tileSource":"contours-denmark-coarse.geojson"},"geometry":{"type":"LineString","coordinates":[[12.679999,55.609997],[12.682917,55.605],[12.682843,55.59],[12.679999,55.58332]]}},{"type":"Feature","properties":{"depth":3,"source":"DDM 2024 coarse contour","resolution":"0.005 degree sampled grid","scope":"denmark","tileSource":"contours-denmark-coarse.geojson"},"geometry":{"type":"LineString","coordinates":[[12.777727,55.68],[12.792222,55.67],[12.79875,55.66],[12.799333,55.65],[12.81,55.635625],[12.815,55.637083],[12.823182,55.63],[12.821915,55.615],[12.815,55.607609],[12.8,55.602051],[12.79,55.594286],[12.78,55.595],[12.779993,55.59],[12.775,55.585014],[12.7675,55.59],[12.766667,55.595],[12.755,55.590014],[12.73,55.605003],[12.725015,55.61],[12.728333,55.615],[12.723871,55.63],[12.715789,55.64],[12.716875,55.65],[12.735,55.6725],[12.745,55.675],[12.75,55.679615],[12.777727,55.68]]}},{"type":"Feature","properties":{"depth":5,"source":"DDM 2024 coarse contour","resolution":"0.005 degree sampled grid","scope":"denmark","tileSource":"contours-denmark-coarse.geojson"},"geometry":{"type":"LineString","coordinates":[[12.679999,55.474964],[12.68,55.474965],[12.705,55.484964],[12.715032,55.495],[12.715031,55.51],[12.720033,55.515],[12.720029,55.53],[12.725029,55.535],[12.725024,55.54],[12.76,55.559988],[12.775,55.564977],[12.78,55.56999],[12.785,55.56999],[12.79,55.574994],[12.795,55.574989],[12.799,55.58],[12.795,55.585],[12.79,55.585],[12.7875,55.59],[12.775,55.585004],[12.765,55.590714],[12.755,55.590004],[12.745,55.59561],[12.74,55.587895],[12.73,55.585],[12.718846,55.595],[12.719048,55.6],[12.726316,55.605],[12.725,55.613667],[12.722258,55.63],[12.715,55.6375],[12.709672,55.65],[12.72,55.669],[12.73,55.677333],[12.755,55.688636],[12.8025,55.68],[12.802,55.675],[12.81,55.666],[12.82,55.67],[12.81375,55.66],[12.822353,55.655],[12.820909,55.65],[12.82775,55.64],[12.83,55.63],[12.84,55.634487],[12.857,55.63],[12.84,55.625],[12.835,55.625],[12.83,55.63],[12.824043,55.615],[12.814091,55.605],[12.826,55.6],[12.826667,55.595],[12.821429,55.59],[12.83,55.589987],[12.865,55.609987],[12.88,55.614983],[12.88002,55.62],[12.885023,55.625],[12.885006,55.635],[12.89001,55.64],[12.890021,55.645],[12.87003,55.665],[12.870038,55.67],[12.79,55.750037],[12.785,55.750044],[12.750062,55.785001]]}},{"type":"Feature","properties":{"depth":5,"source":"DDM 2024 coarse contour","resolution":"0.005 degree sampled grid","scope":"denmark","tileSource":"contours-denmark-coarse.geojson"},"geometry":{"type":"LineString","coordinates":[[12.679999,55.635834],[12.68,55.635833],[12.681786,55.64],[12.685714,55.64],[12.6825,55.635],[12.686957,55.63],[12.686442,55.595],[12.682788,55.585],[12.687187,55.57],[12.68,55.558333],[12.679999,55.558333]]}},{"type":"Feature","properties":{"depth":5,"source":"DDM 2024 coarse contour","resolution":"0.005 degree sampled grid","scope":"denmark","tileSource":"contours-denmark-coarse.geojson"},"geometry":{"type":"LineString","coordinates":[[12.8,55.5975],[12.795,55.596212],[12.792,55.59],[12.800192,55.58],[12.81,55.579974],[12.815,55.584992],[12.82001,55.585],[12.82,55.589565],[12.805,55.587667],[12.8015,55.59],[12.8,55.5975]]}},{"type":"Feature","properties":{"depth":5,"source":"DDM 2024 coarse contour","resolution":"0.005 degree sampled grid","scope":"denmark","tileSource":"contours-denmark-coarse.geojson"},"geometry":{"type":"LineString","coordinates":[[12.734167,55.705],[12.735,55.7],[12.72625,55.695],[12.724167,55.69],[12.71,55.684],[12.705,55.685909],[12.699481,55.7],[12.7,55.702857],[12.71,55.697917],[12.715,55.7],[12.715455,55.705],[12.72,55.708333],[12.73,55.709],[12.734167,55.705]]}},{"type":"Feature","properties":{"depth":10,"source":"DDM 2024 coarse contour","resolution":"0.005 degree sampled grid","scope":"denmark","tileSource":"contours-denmark-coarse.geojson"},"geometry":{"type":"LineString","coordinates":[[12.679999,55.474989],[12.68,55.47499],[12.705,55.484989],[12.715007,55.495],[12.72,55.535],[12.725,55.534996],[12.725,55.539444],[12.72,55.535],[12.705,55.5365],[12.695,55.54375],[12.679999,55.541833]]}},{"type":"Feature","properties":{"depth":10,"source":"DDM 2024 coarse contour","resolution":"0.005 degree sampled grid","scope":"denmark","tileSource":"contours-denmark-coarse.geojson"},"geometry":{"type":"LineString","coordinates":[[12.679999,55.648184],[12.682692,55.645],[12.69,55.638462],[12.695,55.64],[12.695,55.625],[12.705,55.63],[12.71,55.6255],[12.714355,55.63],[12.692183,55.68],[12.69614,55.705],[12.71,55.730278],[12.73,55.736591],[12.755,55.736364],[12.775,55.7275],[12.78,55.732083],[12.795,55.722619],[12.805,55.72375],[12.81,55.714545],[12.815004,55.725],[12.749567,55.785001]]}},{"type":"Feature","properties":{"depth":10,"source":"DDM 2024 coarse contour","resolution":"0.005 degree sampled grid","scope":"denmark","tileSource":"contours-denmark-coarse.geojson"},"geometry":{"type":"LineString","coordinates":[[12.75,55.560909],[12.744231,55.56],[12.745,55.553],[12.751538,55.555],[12.75,55.560909]]}},{"type":"Feature","properties":{"depth":10,"source":"DDM 2024 coarse contour","resolution":"0.005 degree sampled grid","scope":"denmark","tileSource":"contours-denmark-coarse.geojson"},"geometry":{"type":"LineString","coordinates":[[12.84,55.662333],[12.835833,55.65],[12.84,55.647826],[12.8435,55.66],[12.84,55.662333]]}},{"type":"Feature","properties":{"depth":10,"source":"DDM 2024 coarse contour","resolution":"0.005 degree sampled grid","scope":"denmark","tileSource":"contours-denmark-coarse.geojson"},"geometry":{"type":"LineString","coordinates":[[12.845,55.69501],[12.841552,55.695],[12.843,55.675],[12.858333,55.66],[12.855893,55.65],[12.86,55.647326],[12.863194,55.65],[12.860714,55.66],[12.87,55.663529],[12.870013,55.67],[12.845,55.69501]]}},{"type":"Feature","properties":{"depth":15,"source":"DDM 2024 coarse contour","resolution":"0.005 degree sampled grid","scope":"denmark","tileSource":"contours-denmark-coarse.geojson"},"geometry":{"type":"LineString","coordinates":[[12.679999,55.696117],[12.68,55.696111],[12.685,55.691818],[12.694167,55.72],[12.679999,55.7256]]}},{"type":"Feature","properties":{"depth":15,"source":"DDM 2024 coarse contour","resolution":"0.005 degree sampled grid","scope":"denmark","tileSource":"contours-denmark-coarse.geojson"},"geometry":{"type":"LineString","coordinates":[[12.695,55.7305],[12.695,55.723333],[12.7,55.72325],[12.695,55.7305]]}},{"type":"Feature","properties":{"depth":15,"source":"DDM 2024 coarse contour","resolution":"0.005 degree sampled grid","scope":"denmark","tileSource":"contours-denmark-coarse.geojson"},"geometry":{"type":"LineString","coordinates":[[12.706374,55.785001],[12.716875,55.77],[12.725,55.763235],[12.74,55.762857],[12.76,55.771304],[12.760017,55.775],[12.75003,55.785001]]}},{"type":"Feature","properties":{"depth":15,"source":"DDM 2024 coarse contour","resolution":"0.005 degree sampled grid","scope":"denmark","tileSource":"contours-denmark-coarse.geojson"},"geometry":{"type":"LineString","coordinates":[[12.739031,55.785001],[12.735,55.7816],[12.734747,55.785001]]}}]}