{"type":"FeatureCollection","name":"DDM contour tile r06_c02","bbox":[8.36,57.23,8.835,57.705],"metadata":{"schema":"waternav-ddm-contour-tile-v1","version":"v45.7","tileId":"r06_c02","source":"Danmarks Dybdemodel 2024 ddm_50m.dybde.tiff via bundled DDM contour GeoJSON files"},"features":[{"type":"Feature","properties":{"depth":1,"source":"DDM 2024 coarse contour","resolution":"0.005 degree sampled grid","scope":"denmark","tileSource":"contours-denmark-coarse.geojson"},"geometry":{"type":"LineString","coordinates":[[8.835001,57.685476],[8.825,57.685482],[8.82,57.680502],[8.795,57.680505],[8.79,57.675506],[8.77,57.675519],[8.765,57.670526],[8.745,57.670561],[8.74,57.665571],[8.715,57.665623],[8.71,57.660619],[8.69,57.660666],[8.685,57.655649],[8.66,57.655706],[8.655,57.650675],[8.635,57.650714],[8.63,57.645673],[8.605,57.645715],[8.6,57.640664],[8.58,57.640713],[8.575,57.635683],[8.55,57.635722],[8.545,57.630716],[8.525,57.630717],[8.52,57.625709],[8.5,57.625706],[8.495,57.620693],[8.47,57.620695],[8.465,57.615681],[8.445,57.615689],[8.44,57.610675],[8.425,57.610684],[8.42,57.605674],[8.405,57.605681],[8.4,57.600673],[8.385,57.600681],[8.38,57.595673],[8.365,57.595681],[8.36,57.590671],[8.359999,57.590671]]}},{"type":"Feature","properties":{"depth":2,"source":"DDM 2024 coarse contour","resolution":"0.005 degree sampled grid","scope":"denmark","tileSource":"contours-denmark-coarse.geojson"},"geometry":{"type":"LineString","coordinates":[[8.835001,57.685472],[8.825,57.685478],[8.82,57.680497],[8.795,57.680501],[8.79,57.675502],[8.77,57.675515],[8.765,57.670521],[8.745,57.670557],[8.74,57.665566],[8.715,57.665619],[8.71,57.660615],[8.69,57.660662],[8.685,57.655644],[8.66,57.655701],[8.655,57.650671],[8.635,57.65071],[8.63,57.645669],[8.605,57.645711],[8.6,57.64066],[8.58,57.640708],[8.575,57.635678],[8.55,57.635718],[8.545,57.630712],[8.525,57.630712],[8.52,57.625705],[8.5,57.625702],[8.495,57.620688],[8.47,57.620691],[8.465,57.615677],[8.445,57.615685],[8.44,57.610671],[8.425,57.61068],[8.42,57.605669],[8.405,57.605677],[8.4,57.600669],[8.385,57.600676],[8.38,57.595669],[8.365,57.595677],[8.36,57.590666],[8.359999,57.590666]]}},{"type":"Feature","properties":{"depth":3,"source":"DDM 2024 coarse contour","resolution":"0.005 degree sampled grid","scope":"denmark","tileSource":"contours-denmark-coarse.geojson"},"geometry":{"type":"LineString","coordinates":[[8.835001,57.685467],[8.825,57.685473],[8.82,57.680493],[8.795,57.680496],[8.79,57.675497],[8.77,57.67551],[8.765,57.670517],[8.745,57.670552],[8.74,57.665562],[8.715,57.665614],[8.71,57.660611],[8.69,57.660658],[8.685,57.65564],[8.66,57.655697],[8.655,57.650666],[8.635,57.650706],[8.63,57.645665],[8.605,57.645707],[8.6,57.640655],[8.58,57.640704],[8.575,57.635674],[8.55,57.635714],[8.545,57.630707],[8.525,57.630708],[8.52,57.6257],[8.5,57.625697],[8.495,57.620684],[8.47,57.620686],[8.465,57.615673],[8.445,57.61568],[8.44,57.610666],[8.425,57.610676],[8.42,57.605665],[8.405,57.605673],[8.4,57.600664],[8.385,57.600672],[8.38,57.595664],[8.365,57.595673],[8.36,57.590662],[8.359999,57.590662]]}},{"type":"Feature","properties":{"depth":5,"source":"DDM 2024 coarse contour","resolution":"0.005 degree sampled grid","scope":"denmark","tileSource":"contours-denmark-coarse.geojson"},"geometry":{"type":"LineString","coordinates":[[8.835001,57.685458],[8.825,57.685464],[8.82,57.680484],[8.795,57.680487],[8.79,57.675488],[8.77,57.675501],[8.765,57.670508],[8.745,57.670543],[8.74,57.665553],[8.715,57.665606],[8.71,57.660602],[8.69,57.660649],[8.685,57.655631],[8.66,57.655688],[8.655,57.650658],[8.635,57.650697],[8.63,57.645656],[8.605,57.645698],[8.6,57.640647],[8.58,57.640695],[8.575,57.635665],[8.55,57.635705],[8.545,57.630699],[8.525,57.630699],[8.52,57.625692],[8.5,57.625689],[8.495,57.620675],[8.47,57.620678],[8.465,57.615664],[8.445,57.615672],[8.44,57.610658],[8.425,57.610667],[8.42,57.605656],[8.405,57.605664],[8.4,57.600656],[8.385,57.600663],[8.38,57.595656],[8.365,57.595664],[8.36,57.590653],[8.359999,57.590653]]}},{"type":"Feature","properties":{"depth":10,"source":"DDM 2024 coarse contour","resolution":"0.005 degree sampled grid","scope":"denmark","tileSource":"contours-denmark-coarse.geojson"},"geometry":{"type":"LineString","coordinates":[[8.835001,57.685435],[8.825,57.685441],[8.82,57.680461],[8.795,57.680465],[8.79,57.675466],[8.77,57.675479],[8.765,57.670485],[8.745,57.670521],[8.74,57.665531],[8.715,57.665584],[8.71,57.66058],[8.69,57.660627],[8.685,57.65561],[8.66,57.655667],[8.655,57.650636],[8.635,57.650676],[8.63,57.645634],[8.605,57.645677],[8.6,57.640625],[8.58,57.640674],[8.575,57.635644],[8.55,57.635684],[8.545,57.630677],[8.5,57.625667],[8.495,57.620654],[8.445,57.61565],[8.44,57.610636],[8.365,57.595643],[8.359999,57.593138]]}},{"type":"Feature","properties":{"depth":15,"source":"DDM 2024 coarse contour","resolution":"0.005 degree sampled grid","scope":"denmark","tileSource":"contours-denmark-coarse.geojson"},"geometry":{"type":"LineString","coordinates":[[8.835001,57.685413],[8.825,57.685419],[8.82,57.680439],[8.795,57.680442],[8.79,57.675444],[8.77,57.675457],[8.765,57.670463],[8.745,57.670499],[8.74,57.665509],[8.715,57.665562],[8.71,57.660558],[8.69,57.660606],[8.685,57.655588],[8.66,57.655645],[8.655,57.650615],[8.635,57.650654],[8.63,57.645613],[8.605,57.645655],[8.6,57.640603],[8.58,57.640653],[8.575,57.635622],[8.55,57.635663],[8.545,57.630656],[8.5,57.625646],[8.495,57.620632],[8.445,57.615629],[8.44,57.610615],[8.365,57.595621],[8.359999,57.593116]]}},{"type":"Feature","properties":{"depth":20,"source":"DDM 2024 coarse contour","resolution":"0.005 degree sampled grid","scope":"denmark","tileSource":"contours-denmark-coarse.geojson"},"geometry":{"type":"LineString","coordinates":[[8.835001,57.68539],[8.825,57.685396],[8.82,57.680416],[8.795,57.68042],[8.79,57.675421],[8.77,57.675434],[8.765,57.670441],[8.745,57.670477],[8.74,57.665487],[8.715,57.66554],[8.71,57.660536],[8.69,57.660584],[8.685,57.655566],[8.66,57.655624],[8.655,57.650593],[8.635,57.650633],[8.63,57.645591],[8.605,57.645634],[8.6,57.640581],[8.58,57.640631],[8.575,57.635601],[8.55,57.635641],[8.545,57.630634],[8.5,57.625624],[8.495,57.620611],[8.445,57.615607],[8.44,57.610593],[8.365,57.595599],[8.359999,57.593094]]}},{"type":"Feature","properties":{"depth":30,"source":"DDM 2024 coarse contour","resolution":"0.005 degree sampled grid","scope":"denmark","tileSource":"contours-denmark-coarse.geojson"},"geometry":{"type":"LineString","coordinates":[[8.359999,57.235429],[8.4,57.251176],[8.42,57.264091],[8.433333,57.275],[8.425,57.280366],[8.415,57.273077],[8.395,57.27069],[8.39,57.264706],[8.375,57.268947],[8.370909,57.26],[8.374412,57.255],[8.365,57.248333],[8.36,57.258333],[8.359999,57.258333]]}},{"type":"Feature","properties":{"depth":30,"source":"DDM 2024 coarse contour","resolution":"0.005 degree sampled grid","scope":"denmark","tileSource":"contours-denmark-coarse.geojson"},"geometry":{"type":"LineString","coordinates":[[8.359999,57.26037],[8.36,57.26037],[8.366111,57.27],[8.385,57.275],[8.384524,57.28],[8.39,57.2825],[8.4,57.282941],[8.41,57.275278],[8.418158,57.295],[8.41,57.3055],[8.415,57.3075],[8.425,57.295],[8.415417,57.29],[8.42,57.282344],[8.43,57.289211],[8.44,57.280556],[8.456667,57.29],[8.455,57.295],[8.465,57.296154],[8.4775,57.305],[8.466875,57.31],[8.465,57.316923],[8.46,57.318],[8.455,57.312],[8.452857,57.315],[8.45875,57.32],[8.455,57.324286],[8.435,57.318889],[8.425,57.324375],[8.41,57.322941],[8.403,57.33],[8.413889,57.335],[8.415,57.34],[8.455,57.338269],[8.5,57.360652],[8.507333,57.355],[8.487609,57.345],[8.485357,57.335],[8.52,57.335],[8.54,57.324091],[8.543333,57.335],[8.528333,57.35],[8.565,57.36875],[8.576667,57.385],[8.59,57.394286],[8.69,57.380714],[8.8,57.415],[8.7975,57.42],[8.79,57.420625],[8.755,57.411111],[8.715,57.415714],[8.69,57.41],[8.671667,57.42],[8.675,57.4302],[8.715,57.43],[8.728077,57.45],[8.745,57.458077],[8.82,57.464286],[8.835,57.45375],[8.835001,57.453749]]}},{"type":"Feature","properties":{"depth":30,"source":"DDM 2024 coarse contour","resolution":"0.005 degree sampled grid","scope":"denmark","tileSource":"contours-denmark-coarse.geojson"},"geometry":{"type":"LineString","coordinates":[[8.445,57.265714],[8.432857,57.265],[8.431,57.26],[8.44,57.258704],[8.445,57.265714]]}},{"type":"Feature","properties":{"depth":30,"source":"DDM 2024 coarse contour","resolution":"0.005 degree sampled grid","scope":"denmark","tileSource":"contours-denmark-coarse.geojson"},"geometry":{"type":"LineString","coordinates":[[8.447857,57.295],[8.445,57.286667],[8.44,57.2875],[8.44,57.295484],[8.447857,57.295]]}},{"type":"Feature","properties":{"depth":30,"source":"DDM 2024 coarse contour","resolution":"0.005 degree sampled grid","scope":"denmark","tileSource":"contours-denmark-coarse.geojson"},"geometry":{"type":"LineString","coordinates":[[8.397105,57.325],[8.395,57.317],[8.367857,57.315],[8.38,57.326],[8.397105,57.325]]}},{"type":"Feature","properties":{"depth":30,"source":"DDM 2024 coarse contour","resolution":"0.005 degree sampled grid","scope":"denmark","tileSource":"contours-denmark-coarse.geojson"},"geometry":{"type":"LineString","coordinates":[[8.835001,57.685345],[8.825,57.685351],[8.82,57.680371],[8.795,57.680375],[8.79,57.675376],[8.77,57.675389],[8.765,57.670396],[8.745,57.670432],[8.74,57.665442],[8.715,57.665496],[8.71,57.660492],[8.69,57.660541],[8.685,57.655523],[8.66,57.655581],[8.655,57.65055],[8.635,57.65059],[8.63,57.645548],[8.605,57.645591],[8.6,57.640538],[8.58,57.640588],[8.575,57.635557],[8.55,57.635598],[8.545,57.630592],[8.5,57.625581],[8.495,57.620568],[8.445,57.615564],[8.44,57.61055],[8.365,57.595556],[8.359999,57.593051]]}},{"type":"Feature","properties":{"depth":30,"source":"DDM 2024 coarse contour","resolution":"0.005 degree sampled grid","scope":"denmark","tileSource":"contours-denmark-coarse.geojson"},"geometry":{"type":"LineString","coordinates":[[8.47,57.33625],[8.465,57.3375],[8.457917,57.33],[8.47,57.319615],[8.476538,57.325],[8.47,57.33625]]}},{"type":"Feature","properties":{"depth":50,"source":"DDM 2024 coarse contour","resolution":"0.005 degree sampled grid","scope":"denmark","tileSource":"contours-denmark-coarse.geojson"},"geometry":{"type":"LineString","coordinates":[[8.359999,57.4089],[8.375,57.41],[8.3875,57.405],[8.364286,57.395],[8.361538,57.39],[8.365,57.387],[8.385,57.393659],[8.39,57.390333],[8.405,57.392813],[8.405,57.404],[8.415,57.402576],[8.435,57.4117],[8.45,57.405882],[8.62,57.467727],[8.665,57.48],[8.668636,57.485],[8.715833,57.5],[8.73,57.51],[8.728333,57.505],[8.735,57.505],[8.73,57.51],[8.835001,57.550091]]}},{"type":"Feature","properties":{"depth":50,"source":"DDM 2024 coarse contour","resolution":"0.005 degree sampled grid","scope":"denmark","tileSource":"contours-denmark-coarse.geojson"},"geometry":{"type":"LineString","coordinates":[[8.835001,57.685255],[8.825,57.685261],[8.82,57.680281],[8.795,57.680285],[8.79,57.675286],[8.77,57.6753],[8.765,57.670306],[8.745,57.670344],[8.74,57.665354],[8.715,57.665409],[8.71,57.660405],[8.69,57.660454],[8.685,57.655436],[8.66,57.655495],[8.655,57.650463],[8.635,57.650504],[8.63,57.645461],[8.605,57.645505],[8.6,57.640451],[8.58,57.640502],[8.575,57.635471],[8.55,57.635513],[8.545,57.630506],[8.5,57.625496],[8.495,57.620482],[8.445,57.615478],[8.44,57.610463],[8.365,57.59547],[8.359999,57.592965]]}},{"type":"Feature","properties":{"depth":100,"source":"DDM 2024 coarse contour","resolution":"0.005 degree sampled grid","scope":"denmark","tileSource":"contours-denmark-coarse.geojson"},"geometry":{"type":"LineString","coordinates":[[8.835001,57.685029],[8.825,57.685035],[8.82,57.680056],[8.795,57.68006],[8.79,57.675062],[8.77,57.675076],[8.765,57.670083],[8.745,57.670122],[8.74,57.665132],[8.69,57.660237],[8.685,57.655218],[8.66,57.65528],[8.655,57.650247],[8.635,57.65029],[8.63,57.645245],[8.605,57.645291],[8.6,57.640235],[8.58,57.640288],[8.575,57.635255],[8.55,57.635299],[8.545,57.630292],[8.5,57.625281],[8.495,57.620266],[8.445,57.615262],[8.44,57.610247],[8.365,57.595254],[8.359999,57.592749]]}},{"type":"Feature","properties":{"depth":100,"source":"DDM 2024 coarse contour","resolution":"0.005 degree sampled grid","scope":"denmark","tileSource":"contours-denmark-coarse.geojson"},"geometry":{"type":"LineString","coordinates":[[8.359999,57.509148],[8.39,57.513551],[8.42,57.531364],[8.475,57.535556],[8.515,57.5506],[8.54,57.57],[8.605,57.574216],[8.7,57.614138],[8.789231,57.63],[8.835001,57.65004]]}}]}