{"type":"FeatureCollection","name":"DDM contour tile r07_c04","bbox":[9.32,57.71,9.795,58],"metadata":{"schema":"waternav-ddm-contour-tile-v1","version":"v45.7","tileId":"r07_c04","source":"Danmarks Dybdemodel 2024 ddm_50m.dybde.tiff via bundled DDM contour GeoJSON files"},"features":[{"type":"Feature","properties":{"depth":1,"source":"DDM 2024 coarse contour","resolution":"0.005 degree sampled grid","scope":"denmark","tileSource":"contours-denmark-coarse.geojson"},"geometry":{"type":"LineString","coordinates":[[9.408516,58],[9.375,57.981247],[9.37,57.981251],[9.365,57.976211],[9.36,57.976215],[9.35,57.966146],[9.335,57.961127],[9.325,57.951082],[9.319999,57.949071]]}},{"type":"Feature","properties":{"depth":2,"source":"DDM 2024 coarse contour","resolution":"0.005 degree sampled grid","scope":"denmark","tileSource":"contours-denmark-coarse.geojson"},"geometry":{"type":"LineString","coordinates":[[9.408519,58],[9.375,57.981243],[9.37,57.981247],[9.365,57.976207],[9.36,57.976211],[9.35,57.966142],[9.335,57.961123],[9.325,57.951079],[9.319999,57.949067]]}},{"type":"Feature","properties":{"depth":3,"source":"DDM 2024 coarse contour","resolution":"0.005 degree sampled grid","scope":"denmark","tileSource":"contours-denmark-coarse.geojson"},"geometry":{"type":"LineString","coordinates":[[9.408523,58],[9.375,57.981239],[9.37,57.981244],[9.365,57.976204],[9.36,57.976207],[9.35,57.966138],[9.335,57.96112],[9.325,57.951075],[9.319999,57.949063]]}},{"type":"Feature","properties":{"depth":5,"source":"DDM 2024 coarse contour","resolution":"0.005 degree sampled grid","scope":"denmark","tileSource":"contours-denmark-coarse.geojson"},"geometry":{"type":"LineString","coordinates":[[9.40853,58],[9.375,57.981232],[9.37,57.981236],[9.365,57.976196],[9.36,57.9762],[9.35,57.96613],[9.335,57.961112],[9.325,57.951067],[9.319999,57.949055]]}},{"type":"Feature","properties":{"depth":10,"source":"DDM 2024 coarse contour","resolution":"0.005 degree sampled grid","scope":"denmark","tileSource":"contours-denmark-coarse.geojson"},"geometry":{"type":"LineString","coordinates":[[9.408547,58],[9.36,57.976181],[9.35,57.966111],[9.319999,57.951039]]}},{"type":"Feature","properties":{"depth":15,"source":"DDM 2024 coarse contour","resolution":"0.005 degree sampled grid","scope":"denmark","tileSource":"contours-denmark-coarse.geojson"},"geometry":{"type":"LineString","coordinates":[[9.408565,58],[9.36,57.976162],[9.35,57.966092],[9.319999,57.951019]]}},{"type":"Feature","properties":{"depth":20,"source":"DDM 2024 coarse contour","resolution":"0.005 degree sampled grid","scope":"denmark","tileSource":"contours-denmark-coarse.geojson"},"geometry":{"type":"LineString","coordinates":[[9.408582,58],[9.36,57.976143],[9.35,57.966072],[9.319999,57.950999]]}},{"type":"Feature","properties":{"depth":30,"source":"DDM 2024 coarse contour","resolution":"0.005 degree sampled grid","scope":"denmark","tileSource":"contours-denmark-coarse.geojson"},"geometry":{"type":"LineString","coordinates":[[9.408618,58],[9.36,57.976105],[9.35,57.966034],[9.319999,57.95096]]}},{"type":"Feature","properties":{"depth":30,"source":"DDM 2024 coarse contour","resolution":"0.005 degree sampled grid","scope":"denmark","tileSource":"contours-denmark-coarse.geojson"},"geometry":{"type":"LineString","coordinates":[[9.64875,57.78],[9.6625,57.735],[9.65875,57.725],[9.64625,57.715],[9.635116,57.709999]]}},{"type":"Feature","properties":{"depth":30,"source":"DDM 2024 coarse contour","resolution":"0.005 degree sampled grid","scope":"denmark","tileSource":"contours-denmark-coarse.geojson"},"geometry":{"type":"LineString","coordinates":[[9.571699,57.709999],[9.565,57.711364],[9.548,57.72],[9.545,57.74],[9.555,57.75],[9.627,57.78],[9.64875,57.78]]}},{"type":"Feature","properties":{"depth":50,"source":"DDM 2024 coarse contour","resolution":"0.005 degree sampled grid","scope":"denmark","tileSource":"contours-denmark-coarse.geojson"},"geometry":{"type":"LineString","coordinates":[[9.319999,57.753832],[9.43,57.788475],[9.578889,57.82],[9.655,57.830417],[9.795,57.840385],[9.795001,57.840385]]}},{"type":"Feature","properties":{"depth":50,"source":"DDM 2024 coarse contour","resolution":"0.005 degree sampled grid","scope":"denmark","tileSource":"contours-denmark-coarse.geojson"},"geometry":{"type":"LineString","coordinates":[[9.795001,57.723446],[9.77,57.712381],[9.767415,57.709999]]}},{"type":"Feature","properties":{"depth":50,"source":"DDM 2024 coarse contour","resolution":"0.005 degree sampled grid","scope":"denmark","tileSource":"contours-denmark-coarse.geojson"},"geometry":{"type":"LineString","coordinates":[[9.408688,58],[9.36,57.97603],[9.35,57.965957],[9.319999,57.950882]]}},{"type":"Feature","properties":{"depth":100,"source":"DDM 2024 coarse contour","resolution":"0.005 degree sampled grid","scope":"denmark","tileSource":"contours-denmark-coarse.geojson"},"geometry":{"type":"LineString","coordinates":[[9.408864,58],[9.36,57.97584],[9.325,57.950695],[9.319999,57.948682]]}},{"type":"Feature","properties":{"depth":100,"source":"DDM 2024 coarse contour","resolution":"0.005 degree sampled grid","scope":"denmark","tileSource":"contours-denmark-coarse.geojson"},"geometry":{"type":"LineString","coordinates":[[9.319999,57.801515],[9.34,57.799615],[9.375,57.819107],[9.43,57.838152],[9.555,57.864375],[9.676667,57.905],[9.72,57.921892],[9.73,57.938295],[9.765,57.943846],[9.790714,57.955],[9.795001,57.955854]]}}]}