{"type":"FeatureCollection","name":"DDM contour tile r07_c03","bbox":[8.84,57.71,9.315,58],"metadata":{"schema":"waternav-ddm-contour-tile-v1","version":"v45.7","tileId":"r07_c03","source":"Danmarks Dybdemodel 2024 ddm_50m.dybde.tiff via bundled DDM contour GeoJSON files"},"features":[{"type":"Feature","properties":{"depth":1,"source":"DDM 2024 coarse contour","resolution":"0.005 degree sampled grid","scope":"denmark","tileSource":"contours-denmark-coarse.geojson"},"geometry":{"type":"LineString","coordinates":[[9.315001,57.94706],[9.3,57.941027],[9.29,57.930986],[9.275,57.925969],[9.265,57.915921],[9.24,57.905873],[9.23,57.895832],[9.215,57.890819],[9.205,57.880799],[9.2,57.880804],[9.195,57.875789],[9.19,57.875797],[9.18,57.865728],[9.155,57.855634],[9.145,57.845591],[9.13,57.840583],[9.12,57.83058],[9.095,57.820567],[9.07,57.80056],[9.045,57.790569],[9.035,57.780567],[9.02,57.775579],[9.01,57.765587],[8.995,57.760615],[8.985,57.750585],[8.96,57.740543],[8.95,57.730533],[8.935,57.725501],[8.925,57.715491],[8.91,57.710459],[8.909541,57.709999]]}},{"type":"Feature","properties":{"depth":2,"source":"DDM 2024 coarse contour","resolution":"0.005 degree sampled grid","scope":"denmark","tileSource":"contours-denmark-coarse.geojson"},"geometry":{"type":"LineString","coordinates":[[9.315001,57.947057],[9.3,57.941023],[9.29,57.930982],[9.275,57.925965],[9.265,57.915917],[9.24,57.905869],[9.23,57.895828],[9.215,57.890815],[9.205,57.880794],[9.2,57.8808],[9.195,57.875785],[9.19,57.875792],[9.18,57.865724],[9.155,57.855629],[9.145,57.845587],[9.13,57.840578],[9.12,57.830576],[9.095,57.820563],[9.07,57.800556],[9.045,57.790565],[9.035,57.780562],[9.02,57.775574],[9.01,57.765583],[8.995,57.76061],[8.985,57.75058],[8.96,57.740538],[8.95,57.730528],[8.935,57.725496],[8.925,57.715486],[8.91,57.710455],[8.909545,57.709999]]}},{"type":"Feature","properties":{"depth":3,"source":"DDM 2024 coarse contour","resolution":"0.005 degree sampled grid","scope":"denmark","tileSource":"contours-denmark-coarse.geojson"},"geometry":{"type":"LineString","coordinates":[[9.315001,57.947053],[9.3,57.941019],[9.29,57.930978],[9.275,57.925961],[9.265,57.915913],[9.24,57.905865],[9.23,57.895824],[9.215,57.890811],[9.205,57.88079],[9.2,57.880796],[9.195,57.875781],[9.19,57.875788],[9.18,57.865719],[9.155,57.855625],[9.145,57.845582],[9.13,57.840574],[9.12,57.830571],[9.095,57.820558],[9.07,57.800551],[9.045,57.79056],[9.035,57.780558],[9.02,57.77557],[9.01,57.765578],[8.995,57.760606],[8.985,57.750576],[8.96,57.740534],[8.95,57.730524],[8.935,57.725492],[8.925,57.715482],[8.91,57.71045],[8.90955,57.709999]]}},{"type":"Feature","properties":{"depth":5,"source":"DDM 2024 coarse contour","resolution":"0.005 degree sampled grid","scope":"denmark","tileSource":"contours-denmark-coarse.geojson"},"geometry":{"type":"LineString","coordinates":[[9.315001,57.947045],[9.3,57.941011],[9.29,57.93097],[9.275,57.925953],[9.265,57.915905],[9.24,57.905856],[9.23,57.895816],[9.215,57.890803],[9.205,57.880782],[9.2,57.880787],[9.195,57.875773],[9.19,57.87578],[9.18,57.865711],[9.155,57.855616],[9.145,57.845574],[9.13,57.840565],[9.12,57.830563],[9.095,57.820549],[9.07,57.800543],[9.045,57.790551],[9.035,57.780549],[9.02,57.775561],[9.01,57.765569],[8.995,57.760597],[8.985,57.750567],[8.96,57.740525],[8.95,57.730515],[8.935,57.725483],[8.925,57.715473],[8.91,57.710441],[8.909559,57.709999]]}},{"type":"Feature","properties":{"depth":10,"source":"DDM 2024 coarse contour","resolution":"0.005 degree sampled grid","scope":"denmark","tileSource":"contours-denmark-coarse.geojson"},"geometry":{"type":"LineString","coordinates":[[9.315001,57.948528],[9.3,57.940992],[9.265,57.915884],[9.24,57.905836],[9.18,57.86569],[9.095,57.820527],[9.07,57.80052],[9.045,57.790529],[9.035,57.780527],[8.96,57.740503],[8.912669,57.709999]]}},{"type":"Feature","properties":{"depth":15,"source":"DDM 2024 coarse contour","resolution":"0.005 degree sampled grid","scope":"denmark","tileSource":"contours-denmark-coarse.geojson"},"geometry":{"type":"LineString","coordinates":[[9.315001,57.948509],[9.3,57.940972],[9.265,57.915864],[9.24,57.905815],[9.18,57.865668],[9.095,57.820505],[9.07,57.800498],[9.045,57.790507],[9.035,57.780505],[8.96,57.74048],[8.912705,57.709999]]}},{"type":"Feature","properties":{"depth":20,"source":"DDM 2024 coarse contour","resolution":"0.005 degree sampled grid","scope":"denmark","tileSource":"contours-denmark-coarse.geojson"},"geometry":{"type":"LineString","coordinates":[[9.315001,57.948489],[9.3,57.940952],[9.265,57.915844],[9.24,57.905794],[9.18,57.865647],[9.095,57.820483],[9.07,57.800476],[9.045,57.790485],[9.035,57.780482],[8.96,57.740458],[8.912739,57.709999]]}},{"type":"Feature","properties":{"depth":30,"source":"DDM 2024 coarse contour","resolution":"0.005 degree sampled grid","scope":"denmark","tileSource":"contours-denmark-coarse.geojson"},"geometry":{"type":"LineString","coordinates":[[9.315001,57.948449],[9.3,57.940912],[9.265,57.915803],[9.24,57.905753],[9.18,57.865604],[9.095,57.820438],[9.07,57.800432],[9.045,57.79044],[9.035,57.780438],[8.96,57.740414],[8.912809,57.709999]]}},{"type":"Feature","properties":{"depth":50,"source":"DDM 2024 coarse contour","resolution":"0.005 degree sampled grid","scope":"denmark","tileSource":"contours-denmark-coarse.geojson"},"geometry":{"type":"LineString","coordinates":[[9.228029,57.709999],[9.315,57.752258],[9.315001,57.752258]]}},{"type":"Feature","properties":{"depth":50,"source":"DDM 2024 coarse contour","resolution":"0.005 degree sampled grid","scope":"denmark","tileSource":"contours-denmark-coarse.geojson"},"geometry":{"type":"LineString","coordinates":[[9.315001,57.948371],[9.3,57.940833],[9.265,57.915721],[9.24,57.905671],[9.18,57.865519],[9.095,57.82035],[9.07,57.800343],[9.045,57.790352],[9.035,57.780349],[8.96,57.740324],[8.91295,57.709999]]}},{"type":"Feature","properties":{"depth":100,"source":"DDM 2024 coarse contour","resolution":"0.005 degree sampled grid","scope":"denmark","tileSource":"contours-denmark-coarse.geojson"},"geometry":{"type":"LineString","coordinates":[[9.315001,57.946671],[9.3,57.940634],[9.265,57.915517],[9.24,57.905464],[9.23,57.89542],[9.155,57.855201],[9.12,57.830143],[9.095,57.820128],[9.07,57.800121],[9.045,57.79013],[8.985,57.750147],[8.96,57.740102],[8.925,57.715044],[8.91,57.71001],[8.91,57.709999]]}},{"type":"Feature","properties":{"depth":100,"source":"DDM 2024 coarse contour","resolution":"0.005 degree sampled grid","scope":"denmark","tileSource":"contours-denmark-coarse.geojson"},"geometry":{"type":"LineString","coordinates":[[8.954796,57.709999],[8.975,57.718661],[9.035,57.717353],[9.115,57.726042],[9.19,57.752558],[9.295,57.803889],[9.315001,57.801989]]}}]}