{"type":"FeatureCollection","name":"DDM contour tile r00_c08","bbox":[11.24,54.35,11.715,54.825],"metadata":{"schema":"waternav-ddm-contour-tile-v1","version":"v45.4","tileId":"r00_c08","source":"Danmarks Dybdemodel 2024 ddm_50m.dybde.tiff via bundled DDM contour GeoJSON files"},"features":[{"type":"Feature","properties":{"depth":1,"source":"DDM 2024 coarse contour","resolution":"0.005 degree sampled grid","scope":"denmark","tileSource":"contours-denmark-coarse.geojson"},"geometry":{"type":"LineString","coordinates":[[11.239999,54.594871],[11.24,54.59487],[11.25,54.594873],[11.265,54.584869],[11.28,54.584871],[11.285,54.579868],[11.295,54.57987],[11.3,54.574869],[11.315,54.574873],[11.32,54.56987],[11.335,54.564869],[11.345,54.554868],[11.36,54.549866],[11.37,54.539863],[11.395,54.529863],[11.405,54.519868],[11.42,54.514869],[11.43,54.504869],[11.435,54.504869],[11.48,54.479876],[11.485,54.479877],[11.49,54.474877],[11.5,54.474878],[11.545,54.449881],[11.56,54.444882],[11.57,54.434882],[11.585,54.429883],[11.61,54.409883],[11.615,54.409885],[11.625,54.399883],[11.63,54.399884],[11.64,54.389884],[11.645,54.389884],[11.665,54.369883],[11.67,54.369883],[11.675,54.364883],[11.715,54.364885],[11.715001,54.364886]]}},{"type":"Feature","properties":{"depth":1,"source":"DDM 2024 coarse contour","resolution":"0.005 degree sampled grid","scope":"denmark","tileSource":"contours-denmark-coarse.geojson"},"geometry":{"type":"LineString","coordinates":[[11.715001,54.641997],[11.715,54.642],[11.69,54.635],[11.6885,54.64],[11.698333,54.645],[11.698333,54.65],[11.705001,54.655],[11.7,54.660003],[11.678333,54.66],[11.66,54.642857],[11.648125,54.64],[11.65,54.635],[11.643571,54.635],[11.655,54.6325],[11.655,54.623],[11.643889,54.625],[11.637917,54.635],[11.638333,54.645],[11.633333,54.65],[11.637333,54.655],[11.63,54.6588],[11.625,54.655002],[11.6,54.652941],[11.596875,54.65],[11.612143,54.645],[11.6,54.639091],[11.595,54.648],[11.575,54.648571],[11.57,54.6525],[11.565,54.650909],[11.555,54.647083],[11.549375,54.64],[11.555,54.6375],[11.555,54.633889],[11.531,54.635],[11.52,54.632083],[11.515,54.63],[11.51625,54.625],[11.51,54.620004],[11.5,54.617857],[11.495,54.610714],[11.49,54.612727],[11.4875,54.61],[11.51,54.603889],[11.515,54.607188],[11.52,54.6025],[11.55,54.605556],[11.58,54.596724],[11.63,54.59625],[11.68,54.600357],[11.7,54.59725],[11.715,54.601034],[11.715001,54.601034]]}},{"type":"Feature","properties":{"depth":1,"source":"DDM 2024 coarse contour","resolution":"0.005 degree sampled grid","scope":"denmark","tileSource":"contours-denmark-coarse.geojson"},"geometry":{"type":"LineString","coordinates":[[11.715001,54.593572],[11.715,54.593571],[11.65,54.592778],[11.62,54.58875],[11.565,54.59431],[11.525,54.594259],[11.52,54.590013],[11.515,54.593485],[11.505,54.590016],[11.495,54.597778],[11.49,54.598485],[11.485,54.595014],[11.48,54.602188],[11.465,54.60875],[11.46,54.605014],[11.433714,54.62],[11.425,54.620019],[11.413542,54.63],[11.405,54.630016],[11.4,54.635007],[11.39,54.635016],[11.385,54.640007],[11.375,54.640016],[11.368889,54.645],[11.36,54.645013],[11.35,54.655003],[11.345,54.650009],[11.335,54.660005],[11.32,54.665013],[11.30381,54.68],[11.253,54.705],[11.239999,54.705007]]}},{"type":"Feature","properties":{"depth":1,"source":"DDM 2024 coarse contour","resolution":"0.005 degree sampled grid","scope":"denmark","tileSource":"contours-denmark-coarse.geojson"},"geometry":{"type":"LineString","coordinates":[[11.581667,54.615],[11.592308,54.61],[11.575,54.605556],[11.565,54.612],[11.55,54.615],[11.565,54.618333],[11.581667,54.615]]}},{"type":"Feature","properties":{"depth":1,"source":"DDM 2024 coarse contour","resolution":"0.005 degree sampled grid","scope":"denmark","tileSource":"contours-denmark-coarse.geojson"},"geometry":{"type":"LineString","coordinates":[[11.485,54.6225],[11.478125,54.62],[11.476364,54.615],[11.485,54.612143],[11.488077,54.615],[11.485,54.6225]]}},{"type":"Feature","properties":{"depth":1,"source":"DDM 2024 coarse contour","resolution":"0.005 degree sampled grid","scope":"denmark","tileSource":"contours-denmark-coarse.geojson"},"geometry":{"type":"LineString","coordinates":[[11.611,54.625],[11.615,54.62],[11.620588,54.62],[11.603333,54.625],[11.611,54.625]]}},{"type":"Feature","properties":{"depth":1,"source":"DDM 2024 coarse contour","resolution":"0.005 degree sampled grid","scope":"denmark","tileSource":"contours-denmark-coarse.geojson"},"geometry":{"type":"LineString","coordinates":[[11.505,54.633437],[11.4905,54.625],[11.495,54.620909],[11.5,54.621071],[11.51,54.63],[11.505,54.633437]]}},{"type":"Feature","properties":{"depth":1,"source":"DDM 2024 coarse contour","resolution":"0.005 degree sampled grid","scope":"denmark","tileSource":"contours-denmark-coarse.geojson"},"geometry":{"type":"LineString","coordinates":[[11.670625,54.63],[11.684286,54.625],[11.675,54.622812],[11.665,54.625],[11.670625,54.63]]}},{"type":"Feature","properties":{"depth":2,"source":"DDM 2024 coarse contour","resolution":"0.005 degree sampled grid","scope":"denmark","tileSource":"contours-denmark-coarse.geojson"},"geometry":{"type":"LineString","coordinates":[[11.239999,54.594876],[11.24,54.594875],[11.25,54.594878],[11.265,54.584874],[11.28,54.584876],[11.285,54.579873],[11.295,54.579875],[11.3,54.574873],[11.315,54.574878],[11.32,54.569875],[11.335,54.564873],[11.345,54.554872],[11.36,54.549871],[11.37,54.539868],[11.395,54.529868],[11.405,54.519873],[11.42,54.514873],[11.43,54.504873],[11.435,54.504874],[11.48,54.479881],[11.485,54.479881],[11.49,54.474882],[11.5,54.474883],[11.545,54.449886],[11.56,54.444887],[11.57,54.434887],[11.585,54.429888],[11.61,54.409888],[11.615,54.40989],[11.625,54.399888],[11.63,54.399889],[11.64,54.389889],[11.645,54.389889],[11.665,54.369888],[11.67,54.369888],[11.675,54.364888],[11.715,54.36489],[11.715001,54.364891]]}},{"type":"Feature","properties":{"depth":2,"source":"DDM 2024 coarse contour","resolution":"0.005 degree sampled grid","scope":"denmark","tileSource":"contours-denmark-coarse.geojson"},"geometry":{"type":"LineString","coordinates":[[11.715001,54.630625],[11.7,54.629286],[11.693333,54.625],[11.708,54.62],[11.705,54.615],[11.685,54.620909],[11.68,54.613333],[11.67125,54.61],[11.67625,54.605],[11.695,54.600455],[11.715,54.602759],[11.715001,54.602759]]}},{"type":"Feature","properties":{"depth":2,"source":"DDM 2024 coarse contour","resolution":"0.005 degree sampled grid","scope":"denmark","tileSource":"contours-denmark-coarse.geojson"},"geometry":{"type":"LineString","coordinates":[[11.715001,54.592266],[11.71,54.589722],[11.67,54.592031],[11.62,54.587361],[11.545,54.592917],[11.505,54.590011],[11.49,54.59697],[11.485,54.595009],[11.465,54.607188],[11.46,54.605009],[11.455,54.610002],[11.45,54.610007],[11.432286,54.62],[11.425,54.620014],[11.4,54.635002],[11.39,54.635011],[11.385,54.640002],[11.36,54.645008],[11.35,54.654167],[11.345,54.650004],[11.335,54.66],[11.32,54.665008],[11.295,54.685007],[11.29,54.685009],[11.265,54.700002],[11.249444,54.705],[11.239999,54.705004]]}},{"type":"Feature","properties":{"depth":2,"source":"DDM 2024 coarse contour","resolution":"0.005 degree sampled grid","scope":"denmark","tileSource":"contours-denmark-coarse.geojson"},"geometry":{"type":"LineString","coordinates":[[11.595,54.609211],[11.58,54.6064],[11.573929,54.6],[11.5975,54.6],[11.595,54.609211]]}},{"type":"Feature","properties":{"depth":2,"source":"DDM 2024 coarse contour","resolution":"0.005 degree sampled grid","scope":"denmark","tileSource":"contours-denmark-coarse.geojson"},"geometry":{"type":"LineString","coordinates":[[11.625,54.652222],[11.611563,54.64],[11.615,54.635],[11.609286,54.635],[11.61,54.6325],[11.615,54.635],[11.6195,54.63],[11.616111,54.625],[11.623529,54.62],[11.62,54.617143],[11.61,54.619091],[11.605,54.615],[11.608,54.62],[11.6,54.6225],[11.5835,54.62],[11.59,54.614211],[11.6,54.615],[11.596154,54.61],[11.611429,54.605],[11.601786,54.6],[11.605,54.598393],[11.63,54.597812],[11.639167,54.61],[11.6325,54.63],[11.634091,54.645],[11.625,54.652222]]}},{"type":"Feature","properties":{"depth":2,"source":"DDM 2024 coarse contour","resolution":"0.005 degree sampled grid","scope":"denmark","tileSource":"contours-denmark-coarse.geojson"},"geometry":{"type":"LineString","coordinates":[[11.67,54.620556],[11.66125,54.62],[11.659167,54.615],[11.67,54.611667],[11.673333,54.62],[11.67,54.620556]]}},{"type":"Feature","properties":{"depth":2,"source":"DDM 2024 coarse contour","resolution":"0.005 degree sampled grid","scope":"denmark","tileSource":"contours-denmark-coarse.geojson"},"geometry":{"type":"LineString","coordinates":[[11.575,54.631875],[11.565,54.633333],[11.561,54.63],[11.575,54.626667],[11.58,54.63],[11.575,54.631875]]}},{"type":"Feature","properties":{"depth":2,"source":"DDM 2024 coarse contour","resolution":"0.005 degree sampled grid","scope":"denmark","tileSource":"contours-denmark-coarse.geojson"},"geometry":{"type":"LineString","coordinates":[[11.69,54.660008],[11.683077,54.66],[11.66,54.640476],[11.653182,54.64],[11.66,54.6325],[11.675,54.63125],[11.701111,54.655],[11.695,54.66],[11.69,54.660008]]}},{"type":"Feature","properties":{"depth":2,"source":"DDM 2024 coarse contour","resolution":"0.005 degree sampled grid","scope":"denmark","tileSource":"contours-denmark-coarse.geojson"},"geometry":{"type":"LineString","coordinates":[[11.595,54.644286],[11.58,54.64375],[11.577,54.64],[11.585,54.63625],[11.595,54.636667],[11.595,54.644286]]}},{"type":"Feature","properties":{"depth":3,"source":"DDM 2024 coarse contour","resolution":"0.005 degree sampled grid","scope":"denmark","tileSource":"contours-denmark-coarse.geojson"},"geometry":{"type":"LineString","coordinates":[[11.239999,54.594881],[11.24,54.59488],[11.25,54.594883],[11.265,54.584879],[11.28,54.584881],[11.285,54.579878],[11.295,54.57988],[11.3,54.574878],[11.315,54.574883],[11.32,54.56988],[11.335,54.564878],[11.345,54.554877],[11.36,54.549876],[11.37,54.539873],[11.395,54.529873],[11.405,54.519878],[11.42,54.514878],[11.43,54.504878],[11.435,54.504879],[11.48,54.479886],[11.485,54.479886],[11.49,54.474887],[11.5,54.474888],[11.545,54.449891],[11.56,54.444892],[11.57,54.434892],[11.585,54.429893],[11.61,54.409893],[11.615,54.409894],[11.625,54.399893],[11.63,54.399894],[11.64,54.389894],[11.645,54.389894],[11.665,54.369893],[11.67,54.369893],[11.675,54.364893],[11.715,54.364894],[11.715001,54.364895]]}},{"type":"Feature","properties":{"depth":3,"source":"DDM 2024 coarse contour","resolution":"0.005 degree sampled grid","scope":"denmark","tileSource":"contours-denmark-coarse.geojson"},"geometry":{"type":"LineString","coordinates":[[11.715001,54.627881],[11.71,54.628077],[11.7025,54.625],[11.7125,54.62],[11.705,54.613276],[11.684667,54.615],[11.6825,54.61],[11.695,54.602727],[11.715001,54.602847]]}},{"type":"Feature","properties":{"depth":3,"source":"DDM 2024 coarse contour","resolution":"0.005 degree sampled grid","scope":"denmark","tileSource":"contours-denmark-coarse.geojson"},"geometry":{"type":"LineString","coordinates":[[11.715001,54.59],[11.715,54.59],[11.71,54.586944],[11.67,54.590469],[11.61,54.5856],[11.56,54.591324],[11.505,54.590006],[11.485,54.595004],[11.430857,54.62],[11.425,54.620009],[11.398333,54.635],[11.39,54.635006],[11.3825,54.64],[11.36,54.645003],[11.35,54.651389],[11.345,54.649828],[11.295,54.685002],[11.29,54.685004],[11.263529,54.7],[11.244,54.705],[11.239999,54.705001]]}},{"type":"Feature","properties":{"depth":3,"source":"DDM 2024 coarse contour","resolution":"0.005 degree sampled grid","scope":"denmark","tileSource":"contours-denmark-coarse.geojson"},"geometry":{"type":"LineString","coordinates":[[11.63,54.62375],[11.625,54.615833],[11.61,54.614643],[11.6,54.61],[11.617778,54.605],[11.606667,54.6],[11.631111,54.6],[11.625,54.605],[11.6325,54.61],[11.63,54.62375]]}},{"type":"Feature","properties":{"depth":3,"source":"DDM 2024 coarse contour","resolution":"0.005 degree sampled grid","scope":"denmark","tileSource":"contours-denmark-coarse.geojson"},"geometry":{"type":"LineString","coordinates":[[11.595,54.606579],[11.5825,54.605],[11.595,54.602273],[11.595,54.606579]]}},{"type":"Feature","properties":{"depth":3,"source":"DDM 2024 coarse contour","resolution":"0.005 degree sampled grid","scope":"denmark","tileSource":"contours-denmark-coarse.geojson"},"geometry":{"type":"LineString","coordinates":[[11.63,54.644444],[11.614688,54.64],[11.62,54.64],[11.625,54.635],[11.63,54.636364],[11.632222,54.64],[11.63,54.644444]]}},{"type":"Feature","properties":{"depth":3,"source":"DDM 2024 coarse contour","resolution":"0.005 degree sampled grid","scope":"denmark","tileSource":"contours-denmark-coarse.geojson"},"geometry":{"type":"LineString","coordinates":[[11.69,54.660003],[11.687273,54.66],[11.687857,54.655],[11.685,54.6525],[11.677813,54.65],[11.68,54.645],[11.6725,54.645],[11.675,54.64],[11.68,54.638125],[11.682045,54.64],[11.68,54.645],[11.685,54.6425],[11.69,54.6446],[11.698333,54.655],[11.69,54.660003]]}},{"type":"Feature","properties":{"depth":5,"source":"DDM 2024 coarse contour","resolution":"0.005 degree sampled grid","scope":"denmark","tileSource":"contours-denmark-coarse.geojson"},"geometry":{"type":"LineString","coordinates":[[11.239999,54.594891],[11.24,54.59489],[11.25,54.594892],[11.265,54.584889],[11.28,54.58489],[11.285,54.579888],[11.295,54.579889],[11.3,54.574888],[11.315,54.574892],[11.32,54.569889],[11.335,54.564888],[11.345,54.554887],[11.36,54.549886],[11.37,54.539883],[11.395,54.529883],[11.405,54.519888],[11.42,54.514888],[11.43,54.504888],[11.435,54.504888],[11.48,54.479896],[11.485,54.479896],[11.49,54.474897],[11.5,54.474898],[11.545,54.449901],[11.56,54.444902],[11.57,54.434902],[11.585,54.429903],[11.61,54.409903],[11.615,54.409904],[11.625,54.399903],[11.63,54.399904],[11.64,54.389903],[11.645,54.389903],[11.665,54.369902],[11.67,54.369903],[11.675,54.364902],[11.715,54.364904],[11.715001,54.364905]]}},{"type":"Feature","properties":{"depth":5,"source":"DDM 2024 coarse contour","resolution":"0.005 degree sampled grid","scope":"denmark","tileSource":"contours-denmark-coarse.geojson"},"geometry":{"type":"LineString","coordinates":[[11.715001,54.572938],[11.705,54.57375],[11.675,54.580556],[11.625,54.581071],[11.61,54.5775],[11.585,54.581111],[11.57,54.579167],[11.55,54.585],[11.535,54.579286],[11.53,54.584444],[11.52,54.581389],[11.495,54.591154],[11.485,54.588864],[11.475,54.595],[11.46,54.59875],[11.45,54.606875],[11.42,54.615],[11.405,54.625],[11.402308,54.63],[11.385,54.632778],[11.355,54.645741],[11.345,54.646379],[11.34,54.652727],[11.325,54.656875],[11.305,54.670714],[11.295,54.674091],[11.29,54.680769],[11.255,54.696818],[11.239999,54.700358]]}},{"type":"Feature","properties":{"depth":10,"source":"DDM 2024 coarse contour","resolution":"0.005 degree sampled grid","scope":"denmark","tileSource":"contours-denmark-coarse.geojson"},"geometry":{"type":"LineString","coordinates":[[11.239999,54.597418],[11.265,54.584913],[11.315,54.574917],[11.335,54.564912],[11.345,54.554911],[11.395,54.529907],[11.43,54.504912],[11.56,54.444926],[11.645,54.389928],[11.675,54.364927],[11.715,54.364929],[11.715001,54.36493]]}},{"type":"Feature","properties":{"depth":10,"source":"DDM 2024 coarse contour","resolution":"0.005 degree sampled grid","scope":"denmark","tileSource":"contours-denmark-coarse.geojson"},"geometry":{"type":"LineString","coordinates":[[11.715001,54.517968],[11.645,54.525455],[11.63,54.532143],[11.615,54.529],[11.58,54.534615],[11.505,54.554444],[11.445,54.577308],[11.413,54.595],[11.41,54.600833],[11.375,54.61],[11.373929,54.615],[11.365,54.61875],[11.36,54.614815],[11.363462,54.62],[11.36,54.622647],[11.239999,54.669707]]}},{"type":"Feature","properties":{"depth":15,"source":"DDM 2024 coarse contour","resolution":"0.005 degree sampled grid","scope":"denmark","tileSource":"contours-denmark-coarse.geojson"},"geometry":{"type":"LineString","coordinates":[[11.239999,54.597442],[11.265,54.584938],[11.315,54.574941],[11.36,54.549934],[11.37,54.539931],[11.42,54.514937],[11.43,54.504937],[11.56,54.444951],[11.645,54.389952],[11.675,54.364951],[11.715,54.364953],[11.715001,54.364954]]}},{"type":"Feature","properties":{"depth":15,"source":"DDM 2024 coarse contour","resolution":"0.005 degree sampled grid","scope":"denmark","tileSource":"contours-denmark-coarse.geojson"},"geometry":{"type":"LineString","coordinates":[[11.715001,54.500051],[11.7,54.504615],[11.605,54.515],[11.56,54.524583],[11.49,54.544821],[11.460417,54.56],[11.405,54.576286],[11.39,54.586042],[11.35,54.588929],[11.35625,54.6],[11.336,54.615],[11.305,54.622727],[11.239999,54.653041]]}},{"type":"Feature","properties":{"depth":20,"source":"DDM 2024 coarse contour","resolution":"0.005 degree sampled grid","scope":"denmark","tileSource":"contours-denmark-coarse.geojson"},"geometry":{"type":"LineString","coordinates":[[11.239999,54.596505],[11.265,54.584962],[11.315,54.574965],[11.36,54.549959],[11.37,54.539956],[11.42,54.514961],[11.43,54.504961],[11.56,54.444975],[11.645,54.389977],[11.675,54.364976],[11.715,54.364978],[11.715001,54.364979]]}},{"type":"Feature","properties":{"depth":20,"source":"DDM 2024 coarse contour","resolution":"0.005 degree sampled grid","scope":"denmark","tileSource":"contours-denmark-coarse.geojson"},"geometry":{"type":"LineString","coordinates":[[11.715001,54.483988],[11.65,54.495769],[11.591667,54.5],[11.555,54.513571],[11.545,54.512727],[11.535,54.52],[11.495,54.528684],[11.49125,54.535],[11.475,54.54175],[11.425,54.561053],[11.42,54.558065],[11.415,54.56375],[11.345,54.588929],[11.31,54.595263],[11.265,54.610833],[11.26,54.615],[11.265,54.620385],[11.24,54.62875],[11.239999,54.628751]]}}]}