{"type":"FeatureCollection","name":"DDM contour tile r01_c07","bbox":[10.76,54.83,11.235,55.305],"metadata":{"schema":"waternav-ddm-contour-tile-v1","version":"v45.4","tileId":"r01_c07","source":"Danmarks Dybdemodel 2024 ddm_50m.dybde.tiff via bundled DDM contour GeoJSON files"},"features":[{"type":"Feature","properties":{"depth":1,"source":"DDM 2024 coarse contour","resolution":"0.005 degree sampled grid","scope":"denmark","tileSource":"contours-denmark-coarse.geojson"},"geometry":{"type":"LineString","coordinates":[[10.950015,54.829999],[10.950014,54.83],[10.96,54.839989],[10.97,54.83998],[10.974995,54.835],[10.970676,54.83],[10.970676,54.829999]]}},{"type":"Feature","properties":{"depth":1,"source":"DDM 2024 coarse contour","resolution":"0.005 degree sampled grid","scope":"denmark","tileSource":"contours-denmark-coarse.geojson"},"geometry":{"type":"LineString","coordinates":[[11.051529,54.829999],[11.053684,54.835],[11.050005,54.84],[11.055,54.84499],[11.06,54.844993],[11.06625,54.84],[11.055719,54.829999]]}},{"type":"Feature","properties":{"depth":1,"source":"DDM 2024 coarse contour","resolution":"0.005 degree sampled grid","scope":"denmark","tileSource":"contours-denmark-coarse.geojson"},"geometry":{"type":"LineString","coordinates":[[11.079997,54.829999],[11.08,54.83],[11.075714,54.835],[11.075,54.845],[11.07,54.845002],[11.065,54.849643],[11.05,54.84501],[11.045002,54.85],[11.047308,54.855],[11.045,54.859286],[11.038182,54.86],[11.0375,54.87],[11.028333,54.87],[11.025,54.878],[11.02,54.875012],[11.0115,54.88],[11.015,54.886154],[11.01,54.89],[11.017308,54.9],[11.019062,54.91],[11.03,54.919991],[11.036538,54.92],[11.032857,54.925],[11.045,54.94],[11.055,54.941154],[11.06,54.936667],[11.075,54.945303],[11.095,54.945],[11.095,54.95],[11.10125,54.945],[11.107143,54.945],[11.109211,54.955],[11.115,54.9585],[11.125,54.9575],[11.15,54.962],[11.155,54.965556],[11.195,54.966667],[11.21625,54.96],[11.23,54.9625],[11.235001,54.962186]]}},{"type":"Feature","properties":{"depth":1,"source":"DDM 2024 coarse contour","resolution":"0.005 degree sampled grid","scope":"denmark","tileSource":"contours-denmark-coarse.geojson"},"geometry":{"type":"LineString","coordinates":[[10.948182,55.165],[10.954997,55.16],[10.956875,55.15],[10.954988,55.14],[10.95,55.133913],[10.949987,55.125],[10.945,55.118095],[10.94498,55.105],[10.939995,55.1],[10.939981,55.085],[10.929995,55.075],[10.929987,55.065],[10.924992,55.06],[10.919988,55.045],[10.905,55.025],[10.904982,55.015],[10.899991,55.01],[10.895,54.995],[10.88,54.980019],[10.875,54.980002],[10.865,54.970015],[10.860833,54.97],[10.859989,54.965],[10.84,54.944762],[10.839981,54.935],[10.835,54.930017],[10.829999,54.93],[10.830556,54.92],[10.820417,54.9],[10.819998,54.89],[10.7804,54.835],[10.779046,54.829999]]}},{"type":"Feature","properties":{"depth":1,"source":"DDM 2024 coarse contour","resolution":"0.005 degree sampled grid","scope":"denmark","tileSource":"contours-denmark-coarse.geojson"},"geometry":{"type":"LineString","coordinates":[[10.759999,54.979515],[10.77,54.984988],[10.79,54.98499],[10.795,54.989981],[10.8,54.990061],[10.824333,55.015],[10.83,55.027353],[10.845,55.036364],[10.845012,55.045],[10.860002,55.06],[10.860009,55.07],[10.870001,55.085],[10.870005,55.1],[10.900002,55.13],[10.900027,55.14],[10.905,55.144979],[10.918448,55.15],[10.93,55.164976],[10.94,55.16725],[10.948182,55.165]]}},{"type":"Feature","properties":{"depth":1,"source":"DDM 2024 coarse contour","resolution":"0.005 degree sampled grid","scope":"denmark","tileSource":"contours-denmark-coarse.geojson"},"geometry":{"type":"LineString","coordinates":[[11.105,54.83125],[11.0875,54.83],[11.087501,54.829999]]}},{"type":"Feature","properties":{"depth":1,"source":"DDM 2024 coarse contour","resolution":"0.005 degree sampled grid","scope":"denmark","tileSource":"contours-denmark-coarse.geojson"},"geometry":{"type":"LineString","coordinates":[[11.1055,54.829999],[11.105,54.83125]]}},{"type":"Feature","properties":{"depth":1,"source":"DDM 2024 coarse contour","resolution":"0.005 degree sampled grid","scope":"denmark","tileSource":"contours-denmark-coarse.geojson"},"geometry":{"type":"LineString","coordinates":[[11.015714,54.855],[11.02,54.854997],[11.024999,54.85],[11.025,54.842692],[11.028182,54.84],[11.020926,54.835],[11.0225,54.83],[11.022498,54.829999]]}},{"type":"Feature","properties":{"depth":1,"source":"DDM 2024 coarse contour","resolution":"0.005 degree sampled grid","scope":"denmark","tileSource":"contours-denmark-coarse.geojson"},"geometry":{"type":"LineString","coordinates":[[11.016748,54.829999],[11.015,54.830833],[11.01001,54.84],[11.010004,54.85],[11.015714,54.855]]}},{"type":"Feature","properties":{"depth":1,"source":"DDM 2024 coarse contour","resolution":"0.005 degree sampled grid","scope":"denmark","tileSource":"contours-denmark-coarse.geojson"},"geometry":{"type":"LineString","coordinates":[[11.0425,54.85],[11.035,54.840002],[11.030002,54.845],[11.035,54.852917],[11.0425,54.85]]}},{"type":"Feature","properties":{"depth":1,"source":"DDM 2024 coarse contour","resolution":"0.005 degree sampled grid","scope":"denmark","tileSource":"contours-denmark-coarse.geojson"},"geometry":{"type":"LineString","coordinates":[[10.831135,55.305001],[10.831136,55.305],[10.85,55.304975],[10.854977,55.3],[10.854983,55.29],[10.85,55.285019],[10.835,55.285013],[10.82,55.29471],[10.81,55.295004],[10.805,55.30002],[10.795,55.30002],[10.79,55.303654],[10.785,55.3],[10.784992,55.295],[10.794999,55.285],[10.789987,55.28],[10.789999,55.275],[10.795,55.266053],[10.8,55.265],[10.799997,55.255],[10.809989,55.245],[10.815,55.230455],[10.820182,55.23],[10.815,55.229667],[10.814993,55.225],[10.810385,55.22],[10.814995,55.21],[10.814993,55.2],[10.81,55.194],[10.809991,55.18],[10.795,55.164688],[10.7858,55.145],[10.78998,55.14],[10.780946,55.13],[10.774999,55.105],[10.759999,55.09629]]}},{"type":"Feature","properties":{"depth":1,"source":"DDM 2024 coarse contour","resolution":"0.005 degree sampled grid","scope":"denmark","tileSource":"contours-denmark-coarse.geojson"},"geometry":{"type":"LineString","coordinates":[[11.235001,55.219021],[11.235,55.219022],[11.23,55.22],[11.231364,55.225],[11.235001,55.227331]]}},{"type":"Feature","properties":{"depth":1,"source":"DDM 2024 coarse contour","resolution":"0.005 degree sampled grid","scope":"denmark","tileSource":"contours-denmark-coarse.geojson"},"geometry":{"type":"LineString","coordinates":[[11.235001,55.236104],[11.228929,55.245],[11.229737,55.25],[11.235001,55.252561]]}},{"type":"Feature","properties":{"depth":1,"source":"DDM 2024 coarse contour","resolution":"0.005 degree sampled grid","scope":"denmark","tileSource":"contours-denmark-coarse.geojson"},"geometry":{"type":"LineString","coordinates":[[11.235001,55.275054],[11.234444,55.285],[11.23,55.285024],[11.225,55.290002],[11.21,55.290032],[11.1988,55.3],[11.185,55.300018],[11.180005,55.305001]]}},{"type":"Feature","properties":{"depth":1,"source":"DDM 2024 coarse contour","resolution":"0.005 degree sampled grid","scope":"denmark","tileSource":"contours-denmark-coarse.geojson"},"geometry":{"type":"LineString","coordinates":[[11.179995,55.175],[11.179997,55.165],[11.175,55.160014],[11.165,55.160001],[11.15,55.140001],[11.145,55.140012],[11.140015,55.145],[11.14,55.154024],[11.130007,55.16],[11.135,55.164982],[11.144222,55.165],[11.155,55.174986],[11.17,55.174998],[11.175,55.179991],[11.179995,55.175]]}},{"type":"Feature","properties":{"depth":1,"source":"DDM 2024 coarse contour","resolution":"0.005 degree sampled grid","scope":"denmark","tileSource":"contours-denmark-coarse.geojson"},"geometry":{"type":"LineString","coordinates":[[11.184,55.25],[11.190129,55.245],[11.189992,55.24],[11.185,55.235],[11.186429,55.23],[11.195,55.225738],[11.2,55.210833],[11.21,55.20125],[11.220577,55.2],[11.219998,55.19],[11.21,55.180014],[11.195,55.190005],[11.19,55.190015],[11.185,55.19488],[11.175,55.195113],[11.170005,55.2],[11.17,55.245],[11.165005,55.25],[11.17,55.254995],[11.184,55.25]]}},{"type":"Feature","properties":{"depth":1,"source":"DDM 2024 coarse contour","resolution":"0.005 degree sampled grid","scope":"denmark","tileSource":"contours-denmark-coarse.geojson"},"geometry":{"type":"LineString","coordinates":[[10.890769,55.225],[10.885,55.218158],[10.8836,55.22],[10.890769,55.225]]}},{"type":"Feature","properties":{"depth":2,"source":"DDM 2024 coarse contour","resolution":"0.005 degree sampled grid","scope":"denmark","tileSource":"contours-denmark-coarse.geojson"},"geometry":{"type":"LineString","coordinates":[[10.938741,54.829999],[10.945,54.837097],[10.949063,54.835],[10.94625,54.83],[10.946251,54.829999]]}},{"type":"Feature","properties":{"depth":2,"source":"DDM 2024 coarse contour","resolution":"0.005 degree sampled grid","scope":"denmark","tileSource":"contours-denmark-coarse.geojson"},"geometry":{"type":"LineString","coordinates":[[10.950009,54.829999],[10.950009,54.83],[10.96,54.839994],[10.97,54.839985],[10.984661,54.829999]]}},{"type":"Feature","properties":{"depth":2,"source":"DDM 2024 coarse contour","resolution":"0.005 degree sampled grid","scope":"denmark","tileSource":"contours-denmark-coarse.geojson"},"geometry":{"type":"LineString","coordinates":[[11.003174,54.829999],[11.005,54.830816],[11.005995,54.829999]]}},{"type":"Feature","properties":{"depth":2,"source":"DDM 2024 coarse contour","resolution":"0.005 degree sampled grid","scope":"denmark","tileSource":"contours-denmark-coarse.geojson"},"geometry":{"type":"LineString","coordinates":[[11.013787,54.829999],[11.013788,54.83],[11.01,54.849583],[11.005,54.839457],[10.994,54.86],[11.005,54.861923],[11.02,54.8575],[11.025,54.862593],[11.035526,54.865],[11.0225,54.87],[11.025,54.876],[11.02,54.875007],[11.008409,54.88],[11.0115,54.885],[11.007619,54.89],[11.009286,54.9],[11.017407,54.905],[11.015937,54.91],[11.0215,54.92],[11.045,54.942174],[11.055,54.945],[11.065,54.943214],[11.095,54.953125],[11.105,54.947],[11.106579,54.955],[11.102143,54.96],[11.105,54.96125],[11.11,54.9575],[11.115,54.962059],[11.125,54.96],[11.135,54.9655],[11.145,54.963333],[11.15,54.9685],[11.17,54.967692],[11.175,54.9725],[11.185,54.967],[11.19,54.971429],[11.195,54.970435],[11.218333,54.96],[11.221739,54.96],[11.225,54.96587],[11.235001,54.963332]]}},{"type":"Feature","properties":{"depth":2,"source":"DDM 2024 coarse contour","resolution":"0.005 degree sampled grid","scope":"denmark","tileSource":"contours-denmark-coarse.geojson"},"geometry":{"type":"LineString","coordinates":[[10.833408,55.305001],[10.833409,55.305],[10.85,55.30498],[10.854982,55.3],[10.854988,55.29],[10.85,55.285014],[10.83,55.286667],[10.82,55.293986],[10.81,55.294882],[10.805,55.300015],[10.79,55.301731],[10.785,55.297059],[10.795741,55.285],[10.79,55.276522],[10.795,55.268684],[10.8,55.268571],[10.802632,55.265],[10.8,55.2565],[10.8075,55.25],[10.809991,55.24],[10.820636,55.23],[10.811346,55.22],[10.814998,55.2],[10.81,55.192333],[10.809996,55.18],[10.795,55.163125],[10.7868,55.145],[10.789985,55.14],[10.782297,55.13],[10.775,55.103519],[10.760313,55.095],[10.759999,55.094115]]}},{"type":"Feature","properties":{"depth":2,"source":"DDM 2024 coarse contour","resolution":"0.005 degree sampled grid","scope":"denmark","tileSource":"contours-denmark-coarse.geojson"},"geometry":{"type":"LineString","coordinates":[[10.759999,54.979635],[10.77,54.984993],[10.79,54.984995],[10.805,54.994987],[10.818929,55.01],[10.829615,55.03],[10.845,55.038636],[10.845007,55.045],[10.859302,55.06],[10.860004,55.07],[10.87,55.087353],[10.866364,55.095],[10.88,55.115833],[10.885,55.115971],[10.899766,55.13],[10.900022,55.14],[10.925,55.156429],[10.93,55.164981],[10.94,55.16975],[10.95,55.166875],[10.955882,55.16],[10.958958,55.15],[10.945,55.115714],[10.944985,55.105],[10.94,55.1],[10.939986,55.085],[10.93,55.075],[10.929992,55.065],[10.906111,55.025],[10.904987,55.015],[10.89619,55],[10.897143,54.995],[10.88,54.980014],[10.875758,54.98],[10.862222,54.97],[10.84,54.943571],[10.839986,54.935],[10.83125,54.93],[10.835,54.919444],[10.82,54.889468],[10.7814,54.835],[10.779497,54.829999]]}},{"type":"Feature","properties":{"depth":2,"source":"DDM 2024 coarse contour","resolution":"0.005 degree sampled grid","scope":"denmark","tileSource":"contours-denmark-coarse.geojson"},"geometry":{"type":"LineString","coordinates":[[11.04,54.833269],[11.03617,54.829999]]}},{"type":"Feature","properties":{"depth":2,"source":"DDM 2024 coarse contour","resolution":"0.005 degree sampled grid","scope":"denmark","tileSource":"contours-denmark-coarse.geojson"},"geometry":{"type":"LineString","coordinates":[[11.044048,54.829999],[11.044048,54.83],[11.04,54.833269]]}},{"type":"Feature","properties":{"depth":2,"source":"DDM 2024 coarse contour","resolution":"0.005 degree sampled grid","scope":"denmark","tileSource":"contours-denmark-coarse.geojson"},"geometry":{"type":"LineString","coordinates":[[11.065,54.846071],[11.05,54.845005],[11.045,54.848437],[11.042708,54.845],[11.045,54.84],[11.04,54.843243],[11.035862,54.84],[11.04,54.836364],[11.045,54.84],[11.042647,54.835],[11.045,54.831667],[11.05,54.833333],[11.05,54.84],[11.055,54.844995],[11.066875,54.845],[11.065,54.846071]]}},{"type":"Feature","properties":{"depth":2,"source":"DDM 2024 coarse contour","resolution":"0.005 degree sampled grid","scope":"denmark","tileSource":"contours-denmark-coarse.geojson"},"geometry":{"type":"LineString","coordinates":[[11.235001,55.216795],[11.23,55.219107],[11.227083,55.225],[11.235,55.23],[11.235,55.235],[11.225357,55.245],[11.227105,55.25],[11.235001,55.253059]]}},{"type":"Feature","properties":{"depth":2,"source":"DDM 2024 coarse contour","resolution":"0.005 degree sampled grid","scope":"denmark","tileSource":"contours-denmark-coarse.geojson"},"geometry":{"type":"LineString","coordinates":[[11.235001,55.272181],[11.231667,55.275],[11.235,55.275357],[11.233519,55.285],[11.224333,55.29],[11.21,55.290027],[11.1968,55.3],[11.185,55.300013],[11.18,55.305001]]}},{"type":"Feature","properties":{"depth":2,"source":"DDM 2024 coarse contour","resolution":"0.005 degree sampled grid","scope":"denmark","tileSource":"contours-denmark-coarse.geojson"},"geometry":{"type":"LineString","coordinates":[[10.885574,55.155],[10.889955,55.145],[10.885,55.139419],[10.880007,55.145],[10.885,55.16],[10.885574,55.155]]}},{"type":"Feature","properties":{"depth":2,"source":"DDM 2024 coarse contour","resolution":"0.005 degree sampled grid","scope":"denmark","tileSource":"contours-denmark-coarse.geojson"},"geometry":{"type":"LineString","coordinates":[[11.182857,55.18],[11.18,55.175],[11.180625,55.165],[11.175,55.160009],[11.165,55.15875],[11.1535,55.14],[11.145,55.140007],[11.14001,55.145],[11.14,55.152805],[11.130002,55.16],[11.135,55.164987],[11.143111,55.165],[11.155,55.174991],[11.168611,55.175],[11.18,55.182667],[11.182857,55.18]]}},{"type":"Feature","properties":{"depth":2,"source":"DDM 2024 coarse contour","resolution":"0.005 degree sampled grid","scope":"denmark","tileSource":"contours-denmark-coarse.geojson"},"geometry":{"type":"LineString","coordinates":[[11.188333,55.25],[11.19056,55.245],[11.187632,55.235],[11.195,55.226557],[11.2,55.2125],[11.2225,55.2],[11.22,55.185],[11.21,55.180009],[11.195,55.19],[11.19,55.19001],[11.185,55.194681],[11.175,55.195108],[11.17,55.2],[11.169737,55.225],[11.165,55.25],[11.17,55.255],[11.188333,55.25]]}},{"type":"Feature","properties":{"depth":2,"source":"DDM 2024 coarse contour","resolution":"0.005 degree sampled grid","scope":"denmark","tileSource":"contours-denmark-coarse.geojson"},"geometry":{"type":"LineString","coordinates":[[10.892692,55.225],[10.885,55.215526],[10.88,55.214444],[10.89,55.228889],[10.892692,55.225]]}},{"type":"Feature","properties":{"depth":3,"source":"DDM 2024 coarse contour","resolution":"0.005 degree sampled grid","scope":"denmark","tileSource":"contours-denmark-coarse.geojson"},"geometry":{"type":"LineString","coordinates":[[10.937164,54.829999],[10.945,54.83871],[10.955,54.835833],[10.96,54.839999],[10.97,54.83999],[10.98,54.833036],[11,54.830196],[11.009697,54.835],[11.002222,54.84],[11.002258,54.845],[10.99,54.85625],[10.98,54.864167],[10.973333,54.865],[10.985,54.871458],[10.995,54.863235],[11,54.865],[10.997917,54.87],[11,54.872273],[11.01,54.87],[11.015,54.874688],[11.02,54.871667],[11.022222,54.875],[11.006136,54.88],[11.005,54.89125],[10.997667,54.895],[11,54.9],[11.015,54.904118],[11.013056,54.91],[11.017308,54.915],[11.014545,54.92],[11.03,54.927963],[11.035,54.9375],[11.04,54.9385],[11.05,54.948333],[11.06,54.950345],[11.065,54.9475],[11.075,54.948333],[11.085,54.951],[11.105,54.964375],[11.11,54.959423],[11.115,54.965],[11.13,54.970417],[11.145,54.9675],[11.16,54.975417],[11.17,54.971538],[11.175,54.977917],[11.18,54.970833],[11.185,54.9695],[11.19,54.975],[11.21,54.965833],[11.22,54.9652],[11.225,54.968043],[11.235001,54.964987]]}},{"type":"Feature","properties":{"depth":3,"source":"DDM 2024 coarse contour","resolution":"0.005 degree sampled grid","scope":"denmark","tileSource":"contours-denmark-coarse.geojson"},"geometry":{"type":"LineString","coordinates":[[10.849795,55.305001],[10.85,55.304985],[10.854987,55.3],[10.854993,55.29],[10.85,55.285009],[10.825,55.284766],[10.82,55.293261],[10.815,55.29125],[10.805,55.30001],[10.790238,55.3],[10.78575,55.295],[10.796667,55.285],[10.795,55.280263],[10.789997,55.28],[10.795,55.271316],[10.8,55.2775],[10.810764,55.28],[10.801765,55.27],[10.815571,55.255],[10.810588,55.25],[10.816176,55.245],[10.81,55.247143],[10.809996,55.24],[10.821091,55.23],[10.812308,55.22],[10.815758,55.2],[10.81,55.190667],[10.811429,55.18],[10.795,55.161563],[10.776607,55.105],[10.761875,55.095],[10.759999,55.088807]]}},{"type":"Feature","properties":{"depth":3,"source":"DDM 2024 coarse contour","resolution":"0.005 degree sampled grid","scope":"denmark","tileSource":"contours-denmark-coarse.geojson"},"geometry":{"type":"LineString","coordinates":[[10.759999,54.979611],[10.77,54.984998],[10.79,54.985],[10.809672,55],[10.809565,55.005],[10.817738,55.01],[10.824091,55.02],[10.8225,55.025],[10.825769,55.03],[10.83,55.033929],[10.84,55.035],[10.85814,55.06],[10.859643,55.07],[10.869792,55.09],[10.863667,55.095],[10.869444,55.105],[10.876912,55.11],[10.878864,55.12],[10.874,55.125],[10.879091,55.13],[10.875,55.135],[10.88,55.134444],[10.880321,55.12],[10.885,55.116456],[10.899299,55.13],[10.900017,55.14],[10.925,55.157222],[10.939167,55.175],[10.95,55.17],[10.958824,55.16],[10.961316,55.15],[10.950294,55.13],[10.94499,55.105],[10.94,55.096429],[10.939991,55.085],[10.93225,55.075],[10.919998,55.045],[10.907222,55.025],[10.907841,55.02],[10.9,55.00963],[10.897381,55],[10.899524,54.995],[10.863611,54.97],[10.84,54.942381],[10.839991,54.935],[10.832812,54.93],[10.835,54.916667],[10.815,54.878289],[10.788,54.845],[10.782226,54.829999]]}},{"type":"Feature","properties":{"depth":3,"source":"DDM 2024 coarse contour","resolution":"0.005 degree sampled grid","scope":"denmark","tileSource":"contours-denmark-coarse.geojson"},"geometry":{"type":"LineString","coordinates":[[11.235001,55.216537],[11.224722,55.225],[11.23,55.23],[11.229444,55.235],[11.227917,55.24],[11.22,55.246],[11.23,55.253],[11.235001,55.254]]}},{"type":"Feature","properties":{"depth":3,"source":"DDM 2024 coarse contour","resolution":"0.005 degree sampled grid","scope":"denmark","tileSource":"contours-denmark-coarse.geojson"},"geometry":{"type":"LineString","coordinates":[[11.235001,55.269155],[11.2225,55.275],[11.235,55.277143],[11.232593,55.285],[11.223222,55.29],[11.21,55.290022],[11.195,55.299922],[11.170039,55.305001]]}},{"type":"Feature","properties":{"depth":3,"source":"DDM 2024 coarse contour","resolution":"0.005 degree sampled grid","scope":"denmark","tileSource":"contours-denmark-coarse.geojson"},"geometry":{"type":"LineString","coordinates":[[11.025,54.865714],[11.02,54.8675],[11.01,54.865],[11.02875,54.865],[11.025,54.865714]]}},{"type":"Feature","properties":{"depth":3,"source":"DDM 2024 coarse contour","resolution":"0.005 degree sampled grid","scope":"denmark","tileSource":"contours-denmark-coarse.geojson"},"geometry":{"type":"LineString","coordinates":[[10.9985,54.885],[11.002917,54.88],[11,54.878158],[10.993409,54.885],[10.995,54.887917],[10.9985,54.885]]}},{"type":"Feature","properties":{"depth":3,"source":"DDM 2024 coarse contour","resolution":"0.005 degree sampled grid","scope":"denmark","tileSource":"contours-denmark-coarse.geojson"},"geometry":{"type":"LineString","coordinates":[[11.165385,55.125],[11.165556,55.12],[11.173023,55.115],[11.171429,55.11],[11.177222,55.1],[11.175,55.097778],[11.164706,55.12],[11.163333,55.125],[11.165385,55.125]]}},{"type":"Feature","properties":{"depth":3,"source":"DDM 2024 coarse contour","resolution":"0.005 degree sampled grid","scope":"denmark","tileSource":"contours-denmark-coarse.geojson"},"geometry":{"type":"LineString","coordinates":[[10.885625,55.175],[10.890079,55.17],[10.886,55.16],[10.886237,55.15],[10.88996,55.145],[10.885,55.138256],[10.880002,55.145],[10.878793,55.16],[10.888889,55.165],[10.883605,55.17],[10.885625,55.175]]}},{"type":"Feature","properties":{"depth":3,"source":"DDM 2024 coarse contour","resolution":"0.005 degree sampled grid","scope":"denmark","tileSource":"contours-denmark-coarse.geojson"},"geometry":{"type":"LineString","coordinates":[[11.180087,55.185],[11.185172,55.18],[11.181563,55.175],[11.184,55.17],[11.182187,55.165],[11.165,55.156964],[11.156613,55.145],[11.155,55.1365],[11.145,55.140002],[11.140005,55.145],[11.14,55.151585],[11.129038,55.16],[11.135,55.164992],[11.142,55.165],[11.155,55.174996],[11.165833,55.175],[11.169444,55.18],[11.167,55.185],[11.180087,55.185]]}},{"type":"Feature","properties":{"depth":3,"source":"DDM 2024 coarse contour","resolution":"0.005 degree sampled grid","scope":"denmark","tileSource":"contours-denmark-coarse.geojson"},"geometry":{"type":"LineString","coordinates":[[11.19,55.255],[11.19119,55.23],[11.195,55.227377],[11.2,55.214167],[11.21,55.205859],[11.224423,55.2],[11.233889,55.185],[11.225,55.178462],[11.21,55.180004],[11.185,55.194482],[11.175,55.195104],[11.16625,55.2],[11.167105,55.225],[11.158542,55.24],[11.163214,55.245],[11.159545,55.25],[11.165,55.26],[11.19,55.255]]}},{"type":"Feature","properties":{"depth":3,"source":"DDM 2024 coarse contour","resolution":"0.005 degree sampled grid","scope":"denmark","tileSource":"contours-denmark-coarse.geojson"},"geometry":{"type":"LineString","coordinates":[[10.895625,55.235],[10.89875,55.23],[10.891667,55.22],[10.892,55.205],[10.885,55.2016],[10.879737,55.21],[10.879697,55.22],[10.887391,55.225],[10.884375,55.23],[10.895625,55.235]]}},{"type":"Feature","properties":{"depth":5,"source":"DDM 2024 coarse contour","resolution":"0.005 degree sampled grid","scope":"denmark","tileSource":"contours-denmark-coarse.geojson"},"geometry":{"type":"LineString","coordinates":[[10.932499,54.829999],[10.945,54.8425],[10.96,54.843269],[10.970312,54.84],[10.970278,54.845],[10.975,54.848148],[10.99,54.84625],[10.991667,54.85],[10.978333,54.86],[10.959333,54.865],[10.9665,54.87],[10.962955,54.875],[10.965,54.876667],[10.97,54.877273],[10.975,54.86875],[10.983846,54.875],[10.979167,54.88],[10.984,54.885],[10.98,54.8925],[10.975,54.888846],[10.97,54.89],[10.976429,54.9],[10.985,54.905625],[10.99,54.898571],[11,54.9086],[11.005,54.907941],[11.007187,54.91],[11.005,54.912333],[10.998333,54.915],[11.01,54.932692],[11.021667,54.93],[11.020625,54.935],[11.025,54.937333],[11.03,54.9354],[11.04,54.951563],[11.045,54.950333],[11.055,54.955417],[11.07,54.9536],[11.075,54.959118],[11.085,54.953857],[11.088043,54.965],[11.085,54.968043],[11.08,54.963056],[11.075625,54.965],[11.085,54.971552],[11.09,54.9675],[11.095,54.970833],[11.1,54.967037],[11.12,54.969444],[11.12,54.9775],[11.13,54.978],[11.135,54.983333],[11.15,54.98],[11.155,54.985],[11.165,54.981094],[11.18,54.9875],[11.186429,54.98],[11.205,54.971667],[11.22,54.9692],[11.225,54.972115],[11.235001,54.968919]]}},{"type":"Feature","properties":{"depth":5,"source":"DDM 2024 coarse contour","resolution":"0.005 degree sampled grid","scope":"denmark","tileSource":"contours-denmark-coarse.geojson"},"geometry":{"type":"LineString","coordinates":[[11.235001,55.214972],[11.23,55.216429],[11.22,55.229452],[11.215556,55.25],[11.23,55.255968],[11.235001,55.255323]]}},{"type":"Feature","properties":{"depth":5,"source":"DDM 2024 coarse contour","resolution":"0.005 degree sampled grid","scope":"denmark","tileSource":"contours-denmark-coarse.geojson"},"geometry":{"type":"LineString","coordinates":[[11.235001,55.267142],[11.235,55.267143],[11.214714,55.27],[11.215,55.275],[11.229333,55.28],[11.230741,55.285],[11.175,55.302826],[11.170553,55.305001]]}},{"type":"Feature","properties":{"depth":5,"source":"DDM 2024 coarse contour","resolution":"0.005 degree sampled grid","scope":"denmark","tileSource":"contours-denmark-coarse.geojson"},"geometry":{"type":"LineString","coordinates":[[10.849977,55.305001],[10.85,55.304995],[10.85686,55.295],[10.855,55.287727],[10.84,55.2824],[10.825,55.283984],[10.82,55.291812],[10.815,55.289382],[10.805,55.3],[10.795,55.3],[10.79025,55.295],[10.796364,55.29],[10.8,55.280789],[10.812153,55.28],[10.811957,55.275],[10.805978,55.27],[10.818429,55.255],[10.813529,55.25],[10.819118,55.245],[10.811528,55.24],[10.822,55.23],[10.814231,55.22],[10.820217,55.195],[10.813333,55.19],[10.817206,55.18],[10.805,55.165],[10.799118,55.165],[10.797593,55.155],[10.7898,55.145],[10.789681,55.135],[10.776078,55.1],[10.765,55.095],[10.761458,55.085],[10.759999,55.083443]]}},{"type":"Feature","properties":{"depth":5,"source":"DDM 2024 coarse contour","resolution":"0.005 degree sampled grid","scope":"denmark","tileSource":"contours-denmark-coarse.geojson"},"geometry":{"type":"LineString","coordinates":[[10.759999,54.98084],[10.775,54.9885],[10.79,54.987041],[10.804556,54.995],[10.807391,55.005],[10.815357,55.01],[10.821061,55.02],[10.818404,55.025],[10.826964,55.035],[10.84,55.037381],[10.849444,55.055],[10.855814,55.06],[10.858085,55.065],[10.849623,55.07],[10.855294,55.085],[10.86,55.089],[10.864,55.085],[10.86,55.08],[10.865,55.0795],[10.865625,55.09],[10.86,55.091538],[10.858875,55.095],[10.861,55.105],[10.872308,55.11],[10.87,55.115],[10.865,55.115],[10.865,55.12],[10.87,55.115],[10.874062,55.12],[10.8715,55.125],[10.876818,55.13],[10.871154,55.135],[10.879194,55.14],[10.875,55.149286],[10.87,55.143542],[10.868125,55.15],[10.87,55.154],[10.875,55.1525],[10.875,55.176429],[10.883437,55.18],[10.88,55.187976],[10.874434,55.19],[10.882917,55.195],[10.875571,55.215],[10.88,55.231204],[10.888,55.235],[10.89,55.24125],[10.9,55.235469],[10.905,55.238824],[10.91,55.235],[10.905,55.226667],[10.898913,55.225],[10.901875,55.22],[10.897273,55.215],[10.9002,55.205],[10.895,55.207059],[10.885962,55.195],[10.894167,55.185],[10.888,55.16],[10.887268,55.15],[10.88997,55.145],[10.883519,55.135],[10.881603,55.12],[10.885,55.117427],[10.895003,55.125],[10.900007,55.14],[10.931,55.165],[10.935,55.178846],[10.945,55.18],[10.955,55.174643],[10.96,55.175536],[10.96,55.17],[10.96875,55.165],[10.965,55.14625],[10.953235,55.13],[10.945,55.11],[10.945,55.0975],[10.95,55.098462],[10.951154,55.095],[10.945,55.094545],[10.941296,55.09],[10.937778,55.07],[10.911818,55.03],[10.910147,55.02],[10.9,55.005926],[10.901364,54.995],[10.866667,54.97],[10.84,54.94],[10.835593,54.915],[10.81,54.866053],[10.805,54.858125],[10.8,54.856538],[10.8,54.85],[10.795,54.85],[10.7844,54.835],[10.785588,54.83],[10.785587,54.829999]]}},{"type":"Feature","properties":{"depth":5,"source":"DDM 2024 coarse contour","resolution":"0.005 degree sampled grid","scope":"denmark","tileSource":"contours-denmark-coarse.geojson"},"geometry":{"type":"LineString","coordinates":[[11.151429,55.065],[11.166111,55.055],[11.165,55.039625],[11.145,55.055],[11.142,55.065],[11.151429,55.065]]}},{"type":"Feature","properties":{"depth":5,"source":"DDM 2024 coarse contour","resolution":"0.005 degree sampled grid","scope":"denmark","tileSource":"contours-denmark-coarse.geojson"},"geometry":{"type":"LineString","coordinates":[[11.199091,55.085],[11.204688,55.08],[11.205,55.0725],[11.19,55.077692],[11.19,55.087813],[11.195,55.089091],[11.199091,55.085]]}},{"type":"Feature","properties":{"depth":5,"source":"DDM 2024 coarse contour","resolution":"0.005 degree sampled grid","scope":"denmark","tileSource":"contours-denmark-coarse.geojson"},"geometry":{"type":"LineString","coordinates":[[11.180669,55.185],[11.190532,55.175],[11.19,55.16625],[11.167647,55.155],[11.159839,55.145],[11.165,55.14],[11.167647,55.13],[11.184167,55.11],[11.182143,55.105],[11.185217,55.1],[11.175,55.0925],[11.163462,55.095],[11.1675,55.105],[11.165,55.113214],[11.16,55.116],[11.1565,55.13],[11.145,55.136053],[11.129615,55.15],[11.125192,55.16],[11.13,55.16625],[11.14,55.16625],[11.147857,55.175],[11.14125,55.18],[11.145,55.180682],[11.15,55.176364],[11.15875,55.18],[11.15625,55.185],[11.17,55.188452],[11.180669,55.185]]}},{"type":"Feature","properties":{"depth":5,"source":"DDM 2024 coarse contour","resolution":"0.005 degree sampled grid","scope":"denmark","tileSource":"contours-denmark-coarse.geojson"},"geometry":{"type":"LineString","coordinates":[[11.190147,55.265],[11.19503,55.26],[11.191567,55.235],[11.201042,55.215],[11.21,55.206869],[11.230482,55.2],[11.234737,55.195],[11.232738,55.19],[11.235001,55.188157]]}},{"type":"Feature","properties":{"depth":5,"source":"DDM 2024 coarse contour","resolution":"0.005 degree sampled grid","scope":"denmark","tileSource":"contours-denmark-coarse.geojson"},"geometry":{"type":"LineString","coordinates":[[11.235001,55.17111],[11.23,55.172174],[11.225,55.169],[11.195,55.189275],[11.163265,55.2],[11.149527,55.21],[11.151667,55.215],[11.14,55.23],[11.1525,55.23],[11.152778,55.255],[11.145556,55.265],[11.15,55.27],[11.165,55.2665],[11.17,55.268182],[11.18,55.262813],[11.185,55.2675],[11.190147,55.265]]}},{"type":"Feature","properties":{"depth":10,"source":"DDM 2024 coarse contour","resolution":"0.005 degree sampled grid","scope":"denmark","tileSource":"contours-denmark-coarse.geojson"},"geometry":{"type":"LineString","coordinates":[[10.896389,54.829999],[10.904167,54.85],[10.900833,54.855],[10.905,54.86],[10.92,54.856154],[10.925,54.865],[10.932778,54.865],[10.939333,54.875],[10.936562,54.88],[10.946053,54.885],[10.936875,54.89],[10.933667,54.9],[10.965,54.921136],[10.975,54.923947],[10.985,54.919545],[10.992941,54.93],[10.989836,54.935],[10.995,54.942391],[11,54.9375],[11.005,54.9402],[11.014167,54.955],[11.03,54.953],[11.04,54.968621],[11.05,54.971667],[11.061795,54.985],[11.06,54.992045],[11.050833,54.99],[11.056579,54.995],[11.065,54.996364],[11.08,54.985769],[11.088,54.995],[11.078529,55],[11.093947,55.01],[11.093462,55.015],[11.105,55.025962],[11.11,55.025],[11.0966,55.015],[11.1025,55.01],[11.1,55.004286],[11.111667,55.005],[11.11,55.016375],[11.12,54.996],[11.135,55.011905],[11.135,55],[11.15,55.008704],[11.15,54.993333],[11.165,55.003333],[11.19,54.994881],[11.190313,55],[11.203571,55.01],[11.195,55.013152],[11.178333,55.01],[11.182105,55.02],[11.208077,55.025],[11.1875,55.035],[11.185,55.045],[11.18,55.035],[11.175,55.04939],[11.165,55.030357],[11.15,55.033382],[11.14,55.044583],[11.132692,55.045],[11.113519,55.08],[11.1025,55.09],[11.105,55.102353],[11.115,55.102273],[11.12,55.088056],[11.13,55.095],[11.124167,55.1],[11.12875,55.105],[11.124545,55.11],[11.127,55.115],[11.118043,55.12],[11.115,55.136333],[11.11,55.13],[11.108971,55.135],[11.114762,55.145],[11.112632,55.16],[11.1205,55.17],[11.12,55.185],[11.145,55.191062],[11.17,55.190717],[11.195278,55.175],[11.195,55.160238],[11.2,55.168088],[11.2072,55.155],[11.195,55.159545],[11.186429,55.15],[11.2,55.142857],[11.206,55.145],[11.197083,55.135],[11.209412,55.13],[11.211071,55.125],[11.185,55.131667],[11.187949,55.12],[11.205,55.115],[11.195735,55.1],[11.2,55.095469],[11.21,55.101406],[11.215,55.094062],[11.23,55.096538],[11.223462,55.09],[11.235001,55.088525]]}},{"type":"Feature","properties":{"depth":10,"source":"DDM 2024 coarse contour","resolution":"0.005 degree sampled grid","scope":"denmark","tileSource":"contours-denmark-coarse.geojson"},"geometry":{"type":"LineString","coordinates":[[11.235001,55.035],[11.23375,55.035],[11.225,55.050588],[11.22,55.041827],[11.213438,55.045],[11.219545,55.055],[11.215,55.058704],[11.203077,55.05],[11.196964,55.04],[11.2,55.036304],[11.215,55.0322],[11.225,55.018036],[11.233333,55.02],[11.235,55.012857],[11.235001,55.012859]]}},{"type":"Feature","properties":{"depth":10,"source":"DDM 2024 coarse contour","resolution":"0.005 degree sampled grid","scope":"denmark","tileSource":"contours-denmark-coarse.geojson"},"geometry":{"type":"LineString","coordinates":[[11.235001,55.213317],[11.22905,55.215],[11.21,55.250313],[11.21,55.260424],[11.215,55.256415],[11.217385,55.265],[11.199895,55.28],[11.195,55.293409],[11.185,55.289351],[11.17,55.299364],[11.165294,55.295],[11.155,55.296379],[11.144333,55.3],[11.143666,55.305001]]}},{"type":"Feature","properties":{"depth":10,"source":"DDM 2024 coarse contour","resolution":"0.005 degree sampled grid","scope":"denmark","tileSource":"contours-denmark-coarse.geojson"},"geometry":{"type":"LineString","coordinates":[[10.852388,55.305001],[10.858926,55.295],[10.855,55.28],[10.845,55.2787],[10.825,55.282031],[10.805,55.293026],[10.802195,55.29],[10.840793,55.26],[10.8225,55.25],[10.827736,55.24],[10.819468,55.22],[10.825303,55.185],[10.83,55.18],[10.841875,55.18],[10.838939,55.175],[10.845,55.172333],[10.845952,55.165],[10.831875,55.16],[10.823056,55.135],[10.805,55.116071],[10.795,55.12],[10.78,55.096429],[10.759999,55.074877]]}},{"type":"Feature","properties":{"depth":10,"source":"DDM 2024 coarse contour","resolution":"0.005 degree sampled grid","scope":"denmark","tileSource":"contours-denmark-coarse.geojson"},"geometry":{"type":"LineString","coordinates":[[10.759999,55.013],[10.77,55.014],[10.79,55.002083],[10.8,55.013542],[10.805,55.009667],[10.81,55.01425],[10.815,55.035],[10.82,55.032973],[10.836923,55.05],[10.835455,55.055],[10.841587,55.06],[10.861528,55.12],[10.861591,55.15],[10.872807,55.18],[10.869821,55.19],[10.875385,55.195],[10.869302,55.2],[10.874,55.205],[10.872468,55.22],[10.88,55.2434],[10.888469,55.25],[10.884595,55.255],[10.89,55.258837],[10.9,55.257321],[10.91,55.265853],[10.9144,55.265],[10.915,55.259028],[10.92087,55.26],[10.92,55.2655],[10.925969,55.26],[10.915,55.243478],[10.913507,55.23],[10.896875,55.195],[10.88931,55.125],[10.896028,55.13],[10.897632,55.14],[10.925,55.164268],[10.931867,55.18],[10.943472,55.185],[10.945,55.190244],[10.96,55.189444],[10.97,55.177683],[10.975,55.185703],[10.985,55.185811],[10.99,55.195],[11.008889,55.19],[11.0075,55.185],[10.990179,55.175],[10.956989,55.125],[10.953636,55.115],[10.957459,55.1],[10.9522,55.09],[10.955278,55.08],[10.937115,55.06],[10.94,55.055833],[10.945,55.06],[10.947812,55.055],[10.94,55.049432],[10.935,55.058625],[10.928507,55.05],[10.931351,55.035],[10.915,55.01575],[10.918,55.01],[10.914677,55.005],[10.848462,54.94],[10.805,54.848095],[10.793247,54.829999]]}},{"type":"Feature","properties":{"depth":10,"source":"DDM 2024 coarse contour","resolution":"0.005 degree sampled grid","scope":"denmark","tileSource":"contours-denmark-coarse.geojson"},"geometry":{"type":"LineString","coordinates":[[11.046296,54.98],[11.04,54.972],[11.036,54.975],[11.046296,54.98]]}},{"type":"Feature","properties":{"depth":10,"source":"DDM 2024 coarse contour","resolution":"0.005 degree sampled grid","scope":"denmark","tileSource":"contours-denmark-coarse.geojson"},"geometry":{"type":"LineString","coordinates":[[11.095,55.0014],[11.087222,55],[11.095,54.994667],[11.095,55.0014]]}},{"type":"Feature","properties":{"depth":10,"source":"DDM 2024 coarse contour","resolution":"0.005 degree sampled grid","scope":"denmark","tileSource":"contours-denmark-coarse.geojson"},"geometry":{"type":"LineString","coordinates":[[11.195,55.065909],[11.189773,55.065],[11.185,55.045],[11.19,55.044167],[11.204667,55.06],[11.195,55.065909]]}},{"type":"Feature","properties":{"depth":10,"source":"DDM 2024 coarse contour","resolution":"0.005 degree sampled grid","scope":"denmark","tileSource":"contours-denmark-coarse.geojson"},"geometry":{"type":"LineString","coordinates":[[11.22,55.07],[11.213,55.065],[11.22,55.056111],[11.228611,55.06],[11.220263,55.065],[11.22,55.07]]}},{"type":"Feature","properties":{"depth":10,"source":"DDM 2024 coarse contour","resolution":"0.005 degree sampled grid","scope":"denmark","tileSource":"contours-denmark-coarse.geojson"},"geometry":{"type":"LineString","coordinates":[[11.175,55.0829],[11.164,55.08],[11.17,55.061111],[11.178864,55.065],[11.174773,55.075],[11.178919,55.08],[11.175,55.0829]]}},{"type":"Feature","properties":{"depth":10,"source":"DDM 2024 coarse contour","resolution":"0.005 degree sampled grid","scope":"denmark","tileSource":"contours-denmark-coarse.geojson"},"geometry":{"type":"LineString","coordinates":[[11.185,55.092647],[11.179167,55.09],[11.18,55.081818],[11.185,55.092647]]}},{"type":"Feature","properties":{"depth":10,"source":"DDM 2024 coarse contour","resolution":"0.005 degree sampled grid","scope":"denmark","tileSource":"contours-denmark-coarse.geojson"},"geometry":{"type":"LineString","coordinates":[[11.153462,55.28],[11.179194,55.275],[11.195,55.265419],[11.195328,55.235],[11.201179,55.22],[11.21,55.209394],[11.235001,55.196964]]}},{"type":"Feature","properties":{"depth":10,"source":"DDM 2024 coarse contour","resolution":"0.005 degree sampled grid","scope":"denmark","tileSource":"contours-denmark-coarse.geojson"},"geometry":{"type":"LineString","coordinates":[[11.235001,55.154426],[11.235,55.154426],[11.195,55.188025],[11.17,55.198683],[11.146795,55.2],[11.150085,55.205],[11.145,55.211308],[11.135,55.199101],[11.113864,55.205],[11.125,55.206933],[11.13,55.202845],[11.130641,55.21],[11.141129,55.215],[11.13,55.217619],[11.123385,55.225],[11.13,55.224167],[11.13,55.233788],[11.1015,55.26],[11.11,55.2695],[11.125,55.260667],[11.132273,55.27],[11.129375,55.275],[11.14,55.281719],[11.153462,55.28]]}},{"type":"Feature","properties":{"depth":10,"source":"DDM 2024 coarse contour","resolution":"0.005 degree sampled grid","scope":"denmark","tileSource":"contours-denmark-coarse.geojson"},"geometry":{"type":"LineString","coordinates":[[11.028,55.2],[11.015,55.1916],[11.015,55.197237],[11.028,55.2]]}},{"type":"Feature","properties":{"depth":10,"source":"DDM 2024 coarse contour","resolution":"0.005 degree sampled grid","scope":"denmark","tileSource":"contours-denmark-coarse.geojson"},"geometry":{"type":"LineString","coordinates":[[10.82,55.275],[10.815833,55.265],[10.82,55.259535],[10.82,55.275]]}},{"type":"Feature","properties":{"depth":10,"source":"DDM 2024 coarse contour","resolution":"0.005 degree sampled grid","scope":"denmark","tileSource":"contours-denmark-coarse.geojson"},"geometry":{"type":"LineString","coordinates":[[11.126447,55.285],[11.1125,55.275],[11.115,55.282763],[11.126447,55.285]]}},{"type":"Feature","properties":{"depth":10,"source":"DDM 2024 coarse contour","resolution":"0.005 degree sampled grid","scope":"denmark","tileSource":"contours-denmark-coarse.geojson"},"geometry":{"type":"LineString","coordinates":[[10.967932,55.305001],[10.965,55.304348],[10.963408,55.305001]]}},{"type":"Feature","properties":{"depth":15,"source":"DDM 2024 coarse contour","resolution":"0.005 degree sampled grid","scope":"denmark","tileSource":"contours-denmark-coarse.geojson"},"geometry":{"type":"LineString","coordinates":[[10.858866,55.305001],[10.8616,55.295],[10.86,55.28],[10.842059,55.27],[10.843841,55.26],[10.832031,55.245],[10.82625,55.22],[10.834286,55.195],[10.840426,55.195],[10.836094,55.2],[10.84,55.2075],[10.85,55.19875],[10.852368,55.185],[10.851905,55.165],[10.833333,55.135],[10.836667,55.125],[10.842143,55.125],[10.868636,55.175],[10.862679,55.2],[10.846667,55.21],[10.85,55.2226],[10.86,55.21375],[10.864412,55.22],[10.86,55.23],[10.855,55.233684],[10.85,55.229615],[10.85,55.235],[10.86,55.23],[10.857368,55.245],[10.87,55.242037],[10.873333,55.25],[10.87,55.256176],[10.88,55.253163],[10.891324,55.265],[10.887258,55.27],[10.89,55.273542],[10.895,55.266712],[10.905,55.265],[10.912714,55.27],[10.906444,55.275],[10.92,55.2735],[10.925,55.284],[10.939221,55.275],[10.9275,55.265],[10.918947,55.235],[10.93,55.22875],[10.945,55.230714],[10.95125,55.225],[10.947941,55.22],[10.955556,55.21],[10.949375,55.2],[10.955,55.193026],[10.97,55.201757],[10.975,55.198523],[10.99,55.2015],[11.005,55.195667],[11.055,55.214245],[11.065,55.222903],[11.075,55.222273],[11.07875,55.23],[11.075,55.235143],[11.09,55.23025],[11.09023,55.225],[11.080511,55.205],[11.05,55.202083],[11.025,55.189577],[11.02,55.191016],[11.005,55.178176],[10.995,55.1775],[10.968462,55.14],[10.958232,55.12],[10.965,55.112857],[10.97,55.122333],[10.975625,55.115],[10.97,55.104559],[10.965,55.104615],[10.962619,55.095],[10.966667,55.09],[10.96,55.091944],[10.959231,55.085],[10.965588,55.08],[10.95625,55.055],[10.941111,55.04],[10.937857,55.025],[10.95,55.025],[10.94,55.013846],[10.915811,55],[10.925,54.992778],[10.931429,54.995],[10.928125,54.99],[10.935,54.986413],[10.94,54.988846],[10.949,54.975],[10.940588,54.97],[10.92,54.971818],[10.913333,54.98],[10.919167,54.985],[10.91,54.991719],[10.889167,54.975],[10.885,54.964091],[10.875,54.960769],[10.858182,54.945],[10.831667,54.9],[10.835139,54.885],[10.828,54.88],[10.83,54.874348],[10.8148,54.865],[10.816731,54.86],[10.810833,54.85],[10.815,54.8325],[10.811797,54.829999]]}},{"type":"Feature","properties":{"depth":15,"source":"DDM 2024 coarse contour","resolution":"0.005 degree sampled grid","scope":"denmark","tileSource":"contours-denmark-coarse.geojson"},"geometry":{"type":"LineString","coordinates":[[10.87703,54.829999],[10.875833,54.84],[10.885,54.85125],[10.889324,54.87],[10.883333,54.875],[10.885,54.88],[10.895,54.88],[10.9,54.895769],[10.91,54.895],[10.905,54.913333],[10.915,54.911667],[10.92,54.922222],[10.95,54.938148],[10.965,54.943333],[10.985,54.942672],[10.9935,54.955],[10.99,54.96],[11,54.957273],[11.005,54.964375],[11.03,54.975],[11.025,54.985],[11.03,54.980167],[11.034833,54.985],[11.035312,54.995],[11.045,55.011509],[11.055,55.007143],[11.06,55.01],[11.05,55.024444],[11.044179,55.02],[11.052727,55.03],[11.045,55.036],[11.044133,55.05],[11.058529,55.065],[11.063143,55.105],[11.073846,55.12],[11.0695,55.125],[11.073636,55.13],[11.05988,55.145],[11.073864,55.155],[11.061935,55.16],[11.07,55.171125],[11.095,55.178529],[11.11,55.176643],[11.114123,55.18],[11.109872,55.195],[11.125,55.190579],[11.17,55.191686],[11.197014,55.175],[11.225,55.144],[11.235001,55.143265]]}},{"type":"Feature","properties":{"depth":15,"source":"DDM 2024 coarse contour","resolution":"0.005 degree sampled grid","scope":"denmark","tileSource":"contours-denmark-coarse.geojson"},"geometry":{"type":"LineString","coordinates":[[11.235001,55.211303],[11.221717,55.22],[11.208388,55.25],[11.21087,55.265],[11.195,55.283778],[11.17,55.294928],[11.155,55.294045],[11.135,55.301429],[11.115,55.3],[11.105498,55.305001]]}},{"type":"Feature","properties":{"depth":15,"source":"DDM 2024 coarse contour","resolution":"0.005 degree sampled grid","scope":"denmark","tileSource":"contours-denmark-coarse.geojson"},"geometry":{"type":"LineString","coordinates":[[10.865161,54.87],[10.855,54.863],[10.846176,54.87],[10.865161,54.87]]}},{"type":"Feature","properties":{"depth":15,"source":"DDM 2024 coarse contour","resolution":"0.005 degree sampled grid","scope":"denmark","tileSource":"contours-denmark-coarse.geojson"},"geometry":{"type":"LineString","coordinates":[[11.15,55.025179],[11.144565,55.02],[11.15,55.015556],[11.15,55.025179]]}},{"type":"Feature","properties":{"depth":15,"source":"DDM 2024 coarse contour","resolution":"0.005 degree sampled grid","scope":"denmark","tileSource":"contours-denmark-coarse.geojson"},"geometry":{"type":"LineString","coordinates":[[11.065,55.025227],[11.050714,55.025],[11.055,55.02],[11.065,55.025227]]}},{"type":"Feature","properties":{"depth":15,"source":"DDM 2024 coarse contour","resolution":"0.005 degree sampled grid","scope":"denmark","tileSource":"contours-denmark-coarse.geojson"},"geometry":{"type":"LineString","coordinates":[[11.028438,55.16],[11.030625,55.15],[11.0375,55.145],[11.031512,55.14],[11.030375,55.13],[11.015,55.119722],[11.013043,55.13],[11.005,55.128889],[10.999759,55.135],[11.01,55.150541],[11.028438,55.16]]}},{"type":"Feature","properties":{"depth":15,"source":"DDM 2024 coarse contour","resolution":"0.005 degree sampled grid","scope":"denmark","tileSource":"contours-denmark-coarse.geojson"},"geometry":{"type":"LineString","coordinates":[[11.075,55.154537],[11.070196,55.15],[11.07,55.1375],[11.085,55.14],[11.075,55.154537]]}},{"type":"Feature","properties":{"depth":15,"source":"DDM 2024 coarse contour","resolution":"0.005 degree sampled grid","scope":"denmark","tileSource":"contours-denmark-coarse.geojson"},"geometry":{"type":"LineString","coordinates":[[11.153469,55.285],[11.18,55.277083],[11.195,55.26665],[11.202271,55.22],[11.21125,55.21],[11.235001,55.196406]]}},{"type":"Feature","properties":{"depth":15,"source":"DDM 2024 coarse contour","resolution":"0.005 degree sampled grid","scope":"denmark","tileSource":"contours-denmark-coarse.geojson"},"geometry":{"type":"LineString","coordinates":[[11.235001,55.152377],[11.235,55.152377],[11.197554,55.185],[11.17,55.19785],[11.14,55.196917],[11.108059,55.205],[11.125732,55.22],[11.105,55.247969],[11.094519,55.255],[11.094762,55.28],[11.11,55.286406],[11.153469,55.285]]}},{"type":"Feature","properties":{"depth":15,"source":"DDM 2024 coarse contour","resolution":"0.005 degree sampled grid","scope":"denmark","tileSource":"contours-denmark-coarse.geojson"},"geometry":{"type":"LineString","coordinates":[[10.92,55.197353],[10.905,55.197097],[10.905,55.187778],[10.923333,55.195],[10.92,55.197353]]}},{"type":"Feature","properties":{"depth":15,"source":"DDM 2024 coarse contour","resolution":"0.005 degree sampled grid","scope":"denmark","tileSource":"contours-denmark-coarse.geojson"},"geometry":{"type":"LineString","coordinates":[[10.895652,55.29],[10.905737,55.285],[10.9,55.273085],[10.8925,55.285],[10.895652,55.29]]}},{"type":"Feature","properties":{"depth":15,"source":"DDM 2024 coarse contour","resolution":"0.005 degree sampled grid","scope":"denmark","tileSource":"contours-denmark-coarse.geojson"},"geometry":{"type":"LineString","coordinates":[[10.985431,55.305001],[10.975,55.301774],[10.95,55.300729],[10.959167,55.295],[10.955,55.293333],[10.92,55.300859],[10.91,55.295],[10.908125,55.305],[10.908126,55.305001]]}},{"type":"Feature","properties":{"depth":15,"source":"DDM 2024 coarse contour","resolution":"0.005 degree sampled grid","scope":"denmark","tileSource":"contours-denmark-coarse.geojson"},"geometry":{"type":"LineString","coordinates":[[10.926561,55.305001],[10.93,55.302015],[10.930955,55.305001]]}},{"type":"Feature","properties":{"depth":20,"source":"DDM 2024 coarse contour","resolution":"0.005 degree sampled grid","scope":"denmark","tileSource":"contours-denmark-coarse.geojson"},"geometry":{"type":"LineString","coordinates":[[10.864053,55.305001],[10.865,55.294687],[10.87,55.299677],[10.874531,55.295],[10.866538,55.28],[10.875,55.2745],[10.876087,55.265],[10.883103,55.265],[10.883947,55.275],[10.876429,55.28],[10.879667,55.29],[10.885,55.275769],[10.890833,55.295],[10.900333,55.3],[10.900039,55.305001]]}},{"type":"Feature","properties":{"depth":20,"source":"DDM 2024 coarse contour","resolution":"0.005 degree sampled grid","scope":"denmark","tileSource":"contours-denmark-coarse.geojson"},"geometry":{"type":"LineString","coordinates":[[10.98712,55.305001],[10.987115,55.305],[10.96,55.289754],[10.915,55.295872],[10.907647,55.29],[10.907917,55.28],[10.915,55.28],[10.915,55.274188],[10.915,55.28],[10.92,55.279231],[10.925,55.289196],[10.935,55.2809],[10.945,55.28],[10.945652,55.275],[10.93,55.257857],[10.93,55.249643],[10.94,55.241194],[10.945,55.242206],[10.955,55.230714],[10.96,55.235],[10.959167,55.23],[10.96,55.235],[10.975,55.222759],[10.985,55.232143],[11.015,55.215],[11.01875,55.225],[10.98875,55.24],[10.997,55.245],[10.993333,55.25],[11.0025,55.255],[11,55.261],[10.995,55.26],[10.995,55.269],[11.02,55.2725],[11.055,55.243],[11.06,55.232273],[11.065,55.235],[11.065882,55.23],[11.065,55.235],[11.075,55.238714],[11.091484,55.23],[11.09,55.209171],[11.035,55.1924],[11.005,55.174921],[10.995,55.175345],[10.974118,55.14],[10.975,55.134524],[10.97,55.1372],[10.974937,55.12],[10.98,55.124583],[10.980791,55.12],[10.977,55.1],[10.980504,55.095],[10.975766,55.09],[10.9745,55.075],[10.985929,55.07],[10.987661,55.06],[10.983519,55.055],[10.991765,55.04],[10.977969,55.02],[10.967377,54.985],[10.945,54.969205],[10.89,54.954138],[10.875,54.944485],[10.87,54.947959],[10.868182,54.94],[10.850532,54.925],[10.825741,54.86],[10.825,54.836667],[10.821923,54.829999]]}},{"type":"Feature","properties":{"depth":20,"source":"DDM 2024 coarse contour","resolution":"0.005 degree sampled grid","scope":"denmark","tileSource":"contours-denmark-coarse.geojson"},"geometry":{"type":"LineString","coordinates":[[10.856654,54.829999],[10.85,54.833558],[10.85,54.8375],[10.86,54.83625],[10.861406,54.84],[10.844474,54.855],[10.845,54.876354],[10.865,54.894419],[10.87,54.876389],[10.87321,54.88],[10.87061,54.895],[10.898026,54.92],[10.899902,54.93],[10.914506,54.945],[10.9475,54.955],[10.95,54.960083],[10.965,54.958906],[10.98,54.966162],[11,54.967935],[11.02,54.980811],[11.04175,55.015],[11.042792,55.065],[11.052887,55.105],[11.049762,55.135],[11.056867,55.145],[11.054672,55.155],[11.072647,55.185],[11.09,55.187241],[11.116866,55.2],[11.105118,55.205],[11.116667,55.225],[11.113176,55.235],[11.08974,55.26],[11.085,55.285],[11.15,55.287428],[11.186465,55.275],[11.196899,55.265],[11.205,55.217768],[11.235001,55.1994]]}},{"type":"Feature","properties":{"depth":20,"source":"DDM 2024 coarse contour","resolution":"0.005 degree sampled grid","scope":"denmark","tileSource":"contours-denmark-coarse.geojson"},"geometry":{"type":"LineString","coordinates":[[11.235001,55.211509],[11.214968,55.225],[11.206743,55.25],[11.208217,55.265],[11.195,55.282389],[11.17,55.293116],[11.115,55.298663],[11.093247,55.305001]]}},{"type":"Feature","properties":{"depth":20,"source":"DDM 2024 coarse contour","resolution":"0.005 degree sampled grid","scope":"denmark","tileSource":"contours-denmark-coarse.geojson"},"geometry":{"type":"LineString","coordinates":[[11.00875,55.03],[11.018133,55.01],[11.01,54.998333],[11.005,55.003194],[11,54.997551],[11.004323,55.03],[11.00875,55.03]]}},{"type":"Feature","properties":{"depth":20,"source":"DDM 2024 coarse contour","resolution":"0.005 degree sampled grid","scope":"denmark","tileSource":"contours-denmark-coarse.geojson"},"geometry":{"type":"LineString","coordinates":[[11.000439,55.09],[11.005,55.080714],[11,55.08],[10.996875,55.09],[11.000439,55.09]]}},{"type":"Feature","properties":{"depth":20,"source":"DDM 2024 coarse contour","resolution":"0.005 degree sampled grid","scope":"denmark","tileSource":"contours-denmark-coarse.geojson"},"geometry":{"type":"LineString","coordinates":[[11.040645,55.16],[11.034444,55.105],[11.040619,55.095],[11.035,55.1],[11.025,55.087812],[11.005781,55.105],[10.998034,55.135],[11.005606,55.15],[11.02,55.163306],[11.03,55.164891],[11.040645,55.16]]}},{"type":"Feature","properties":{"depth":20,"source":"DDM 2024 coarse contour","resolution":"0.005 degree sampled grid","scope":"denmark","tileSource":"contours-denmark-coarse.geojson"},"geometry":{"type":"LineString","coordinates":[[11.22,55.162986],[11.21551,55.16],[11.225,55.147075],[11.235001,55.146347]]}},{"type":"Feature","properties":{"depth":20,"source":"DDM 2024 coarse contour","resolution":"0.005 degree sampled grid","scope":"denmark","tileSource":"contours-denmark-coarse.geojson"},"geometry":{"type":"LineString","coordinates":[[11.235001,55.149976],[11.22,55.162986]]}},{"type":"Feature","properties":{"depth":20,"source":"DDM 2024 coarse contour","resolution":"0.005 degree sampled grid","scope":"denmark","tileSource":"contours-denmark-coarse.geojson"},"geometry":{"type":"LineString","coordinates":[[11.205,55.177],[11.2,55.179615],[11.19875,55.175],[11.21,55.165534],[11.21467,55.17],[11.205,55.177]]}},{"type":"Feature","properties":{"depth":20,"source":"DDM 2024 coarse contour","resolution":"0.005 degree sampled grid","scope":"denmark","tileSource":"contours-denmark-coarse.geojson"},"geometry":{"type":"LineString","coordinates":[[11.195,55.185525],[11.185031,55.185],[11.195,55.177204],[11.199893,55.18],[11.195,55.185525]]}},{"type":"Feature","properties":{"depth":20,"source":"DDM 2024 coarse contour","resolution":"0.005 degree sampled grid","scope":"denmark","tileSource":"contours-denmark-coarse.geojson"},"geometry":{"type":"LineString","coordinates":[[11.175,55.195021],[11.155,55.198073],[11.142547,55.195],[11.17,55.192655],[11.185,55.185089],[11.186285,55.19],[11.175,55.195021]]}},{"type":"Feature","properties":{"depth":20,"source":"DDM 2024 coarse contour","resolution":"0.005 degree sampled grid","scope":"denmark","tileSource":"contours-denmark-coarse.geojson"},"geometry":{"type":"LineString","coordinates":[[11.135,55.196797],[11.12138,55.195],[11.13,55.191748],[11.138714,55.195],[11.135,55.196797]]}},{"type":"Feature","properties":{"depth":20,"source":"DDM 2024 coarse contour","resolution":"0.005 degree sampled grid","scope":"denmark","tileSource":"contours-denmark-coarse.geojson"},"geometry":{"type":"LineString","coordinates":[[10.975,55.213281],[10.963889,55.21],[10.975,55.206379],[10.9785,55.21],[10.975,55.213281]]}},{"type":"Feature","properties":{"depth":20,"source":"DDM 2024 coarse contour","resolution":"0.005 degree sampled grid","scope":"denmark","tileSource":"contours-denmark-coarse.geojson"},"geometry":{"type":"LineString","coordinates":[[10.985,55.216071],[10.9845,55.21],[10.99,55.209783],[10.985,55.216071]]}},{"type":"Feature","properties":{"depth":20,"source":"DDM 2024 coarse contour","resolution":"0.005 degree sampled grid","scope":"denmark","tileSource":"contours-denmark-coarse.geojson"},"geometry":{"type":"LineString","coordinates":[[11.04,55.2425],[11.025,55.243929],[11.021333,55.24],[11.021667,55.225],[11.03,55.211667],[11.045,55.224375],[11.052,55.225],[11.050625,55.235],[11.04,55.2425]]}},{"type":"Feature","properties":{"depth":20,"source":"DDM 2024 coarse contour","resolution":"0.005 degree sampled grid","scope":"denmark","tileSource":"contours-denmark-coarse.geojson"},"geometry":{"type":"LineString","coordinates":[[10.84,55.244615],[10.835833,55.235],[10.84,55.218649],[10.84,55.244615]]}},{"type":"Feature","properties":{"depth":20,"source":"DDM 2024 coarse contour","resolution":"0.005 degree sampled grid","scope":"denmark","tileSource":"contours-denmark-coarse.geojson"},"geometry":{"type":"LineString","coordinates":[[10.855,55.255517],[10.845,55.255571],[10.8425,55.245],[10.85569,55.25],[10.855,55.255517]]}},{"type":"Feature","properties":{"depth":20,"source":"DDM 2024 coarse contour","resolution":"0.005 degree sampled grid","scope":"denmark","tileSource":"contours-denmark-coarse.geojson"},"geometry":{"type":"LineString","coordinates":[[10.86,55.266212],[10.8548,55.265],[10.86,55.25625],[10.864,55.26],[10.86,55.266212]]}},{"type":"Feature","properties":{"depth":20,"source":"DDM 2024 coarse contour","resolution":"0.005 degree sampled grid","scope":"denmark","tileSource":"contours-denmark-coarse.geojson"},"geometry":{"type":"LineString","coordinates":[[10.87,55.273947],[10.86463,55.27],[10.87,55.263776],[10.873529,55.265],[10.87,55.273947]]}},{"type":"Feature","properties":{"depth":30,"source":"DDM 2024 coarse contour","resolution":"0.005 degree sampled grid","scope":"denmark","tileSource":"contours-denmark-coarse.geojson"},"geometry":{"type":"LineString","coordinates":[[10.835,54.834135],[10.832795,54.829999]]}},{"type":"Feature","properties":{"depth":30,"source":"DDM 2024 coarse contour","resolution":"0.005 degree sampled grid","scope":"denmark","tileSource":"contours-denmark-coarse.geojson"},"geometry":{"type":"LineString","coordinates":[[10.838125,54.829999],[10.838125,54.83],[10.835,54.834135]]}},{"type":"Feature","properties":{"depth":30,"source":"DDM 2024 coarse contour","resolution":"0.005 degree sampled grid","scope":"denmark","tileSource":"contours-denmark-coarse.geojson"},"geometry":{"type":"LineString","coordinates":[[10.85,54.908083],[10.832174,54.87],[10.831261,54.855],[10.84,54.83205],[10.846536,54.835],[10.838876,54.855],[10.84,54.869681],[10.857308,54.895],[10.85,54.908083]]}},{"type":"Feature","properties":{"depth":30,"source":"DDM 2024 coarse contour","resolution":"0.005 degree sampled grid","scope":"denmark","tileSource":"contours-denmark-coarse.geojson"},"geometry":{"type":"LineString","coordinates":[[10.865,54.926327],[10.851949,54.91],[10.855,54.905443],[10.865556,54.92],[10.865,54.926327]]}},{"type":"Feature","properties":{"depth":30,"source":"DDM 2024 coarse contour","resolution":"0.005 degree sampled grid","scope":"denmark","tileSource":"contours-denmark-coarse.geojson"},"geometry":{"type":"LineString","coordinates":[[10.975,54.978072],[10.905,54.955455],[10.8894,54.945],[10.895,54.940556],[10.905,54.943971],[10.975,54.971357],[10.979722,54.975],[10.975,54.978072]]}},{"type":"Feature","properties":{"depth":30,"source":"DDM 2024 coarse contour","resolution":"0.005 degree sampled grid","scope":"denmark","tileSource":"contours-denmark-coarse.geojson"},"geometry":{"type":"LineString","coordinates":[[11.03,55.063898],[11.025306,55.06],[11.0275,55.03],[11.021413,55.025],[11.019211,55],[11.005,54.98197],[10.99125,54.98],[10.995,54.9775],[11.017765,54.985],[11.03,55.003304],[11.036379,55.04],[11.035688,55.055],[11.03,55.063898]]}},{"type":"Feature","properties":{"depth":30,"source":"DDM 2024 coarse contour","resolution":"0.005 degree sampled grid","scope":"denmark","tileSource":"contours-denmark-coarse.geojson"},"geometry":{"type":"LineString","coordinates":[[11.025171,55.305001],[11.024519,55.3],[11.035,55.296016],[11.055,55.272746],[11.065443,55.27],[11.094089,55.23],[11.095,55.22],[11.093556,55.21],[11.085,55.203071],[11.02,55.18226],[10.98617,55.155],[10.981,55.135],[10.984439,55.11],[10.99,55.098623],[10.995,55.098687],[11.015,55.080143],[11.019857,55.085],[10.9965,55.11],[10.996048,55.15],[11.03,55.177571],[11.055,55.187835],[11.065,55.18487],[11.1,55.202353],[11.110765,55.225],[11.110031,55.235],[11.093277,55.25],[11.08,55.27402],[11.055,55.299886],[11.059167,55.305],[11.059166,55.305001]]}},{"type":"Feature","properties":{"depth":30,"source":"DDM 2024 coarse contour","resolution":"0.005 degree sampled grid","scope":"denmark","tileSource":"contours-denmark-coarse.geojson"},"geometry":{"type":"LineString","coordinates":[[11.04,55.134848],[11.04,55.109595],[11.043721,55.13],[11.04,55.134848]]}},{"type":"Feature","properties":{"depth":30,"source":"DDM 2024 coarse contour","resolution":"0.005 degree sampled grid","scope":"denmark","tileSource":"contours-denmark-coarse.geojson"},"geometry":{"type":"LineString","coordinates":[[11.055,55.177063],[11.046301,55.16],[11.045,55.135],[11.05543,55.16],[11.055,55.177063]]}},{"type":"Feature","properties":{"depth":30,"source":"DDM 2024 coarse contour","resolution":"0.005 degree sampled grid","scope":"denmark","tileSource":"contours-denmark-coarse.geojson"},"geometry":{"type":"LineString","coordinates":[[11.205,55.249206],[11.20136,55.245],[11.205,55.221359],[11.218103,55.21],[11.23,55.207308],[11.211763,55.225],[11.205,55.249206]]}},{"type":"Feature","properties":{"depth":30,"source":"DDM 2024 coarse contour","resolution":"0.005 degree sampled grid","scope":"denmark","tileSource":"contours-denmark-coarse.geojson"},"geometry":{"type":"LineString","coordinates":[[11.2,55.275446],[11.195,55.278679],[11.192174,55.275],[11.199667,55.27],[11.2,55.246838],[11.203865,55.25],[11.204213,55.265],[11.2,55.275446]]}},{"type":"Feature","properties":{"depth":30,"source":"DDM 2024 coarse contour","resolution":"0.005 degree sampled grid","scope":"denmark","tileSource":"contours-denmark-coarse.geojson"},"geometry":{"type":"LineString","coordinates":[[11.165,55.291255],[11.15141,55.29],[11.169146,55.29],[11.165,55.291255]]}},{"type":"Feature","properties":{"depth":30,"source":"DDM 2024 coarse contour","resolution":"0.005 degree sampled grid","scope":"denmark","tileSource":"contours-denmark-coarse.geojson"},"geometry":{"type":"LineString","coordinates":[[11.14,55.295756],[11.107353,55.295],[11.14,55.292578],[11.14,55.295756]]}}]}