{"type":"FeatureCollection","name":"DDM contour tile r01_c01","bbox":[7.88,54.83,8.355,55.305],"metadata":{"schema":"waternav-ddm-contour-tile-v1","version":"v45.4","tileId":"r01_c01","source":"Danmarks Dybdemodel 2024 ddm_50m.dybde.tiff via bundled DDM contour GeoJSON files"},"features":[{"type":"Feature","properties":{"depth":1,"source":"DDM 2024 coarse contour","resolution":"0.005 degree sampled grid","scope":"denmark","tileSource":"contours-denmark-coarse.geojson"},"geometry":{"type":"LineString","coordinates":[[7.879999,55.124909],[7.89,55.124909],[7.895,55.119909],[7.925,55.119909],[7.93,55.11491],[7.965,55.114911],[7.97,55.109911],[8,55.109912],[8.005,55.104912],[8.035,55.104914],[8.04,55.099917],[8.07,55.099917],[8.075,55.094919],[8.11,55.094921],[8.115,55.089923],[8.14,55.089925],[8.145,55.084925],[8.18,55.084928],[8.185,55.079928],[8.215,55.079932],[8.22,55.074932],[8.25,55.074937],[8.255,55.069938],[8.285,55.069976],[8.29,55.064958],[8.355,55.064935],[8.355001,55.064936]]}},{"type":"Feature","properties":{"depth":2,"source":"DDM 2024 coarse contour","resolution":"0.005 degree sampled grid","scope":"denmark","tileSource":"contours-denmark-coarse.geojson"},"geometry":{"type":"LineString","coordinates":[[7.879999,55.124914],[7.89,55.124914],[7.895,55.119914],[7.925,55.119914],[7.93,55.114915],[7.965,55.114916],[7.97,55.109916],[8,55.109917],[8.005,55.104917],[8.035,55.104919],[8.04,55.099922],[8.07,55.099922],[8.075,55.094924],[8.11,55.094926],[8.115,55.089928],[8.14,55.08993],[8.145,55.08493],[8.18,55.084933],[8.185,55.079933],[8.215,55.079937],[8.22,55.074937],[8.25,55.074942],[8.255,55.069943],[8.285,55.069981],[8.29,55.064963],[8.355,55.06494],[8.355001,55.064941]]}},{"type":"Feature","properties":{"depth":3,"source":"DDM 2024 coarse contour","resolution":"0.005 degree sampled grid","scope":"denmark","tileSource":"contours-denmark-coarse.geojson"},"geometry":{"type":"LineString","coordinates":[[7.879999,55.124919],[7.89,55.124919],[7.895,55.119919],[7.925,55.119919],[7.93,55.114919],[7.965,55.114921],[7.97,55.10992],[8,55.109921],[8.005,55.104921],[8.035,55.104924],[8.04,55.099927],[8.07,55.099927],[8.075,55.094929],[8.11,55.094931],[8.115,55.089933],[8.14,55.089935],[8.145,55.084935],[8.18,55.084938],[8.185,55.079938],[8.215,55.079942],[8.22,55.074942],[8.25,55.074947],[8.255,55.069948],[8.285,55.069986],[8.29,55.064968],[8.355,55.064945],[8.355001,55.064946]]}},{"type":"Feature","properties":{"depth":5,"source":"DDM 2024 coarse contour","resolution":"0.005 degree sampled grid","scope":"denmark","tileSource":"contours-denmark-coarse.geojson"},"geometry":{"type":"LineString","coordinates":[[7.879999,55.124928],[7.89,55.124928],[7.895,55.119929],[7.925,55.119929],[7.93,55.114929],[7.965,55.114931],[7.97,55.10993],[8,55.109931],[8.005,55.104931],[8.035,55.104934],[8.04,55.099937],[8.07,55.099937],[8.075,55.094939],[8.11,55.094941],[8.115,55.089942],[8.14,55.089944],[8.145,55.084945],[8.18,55.084948],[8.185,55.079948],[8.215,55.079952],[8.22,55.074952],[8.25,55.074957],[8.255,55.069958],[8.285,55.069996],[8.29,55.064978],[8.308929,55.065],[8.295,55.07],[8.297143,55.075],[8.295,55.078],[8.285,55.080109],[8.32,55.083478],[8.335,55.08],[8.323125,55.075],[8.33,55.074167],[8.3306,55.065],[8.355,55.064955],[8.355001,55.064956]]}},{"type":"Feature","properties":{"depth":5,"source":"DDM 2024 coarse contour","resolution":"0.005 degree sampled grid","scope":"denmark","tileSource":"contours-denmark-coarse.geojson"},"geometry":{"type":"LineString","coordinates":[[8.355001,55.297549],[8.351429,55.3],[8.351072,55.305001]]}},{"type":"Feature","properties":{"depth":10,"source":"DDM 2024 coarse contour","resolution":"0.005 degree sampled grid","scope":"denmark","tileSource":"contours-denmark-coarse.geojson"},"geometry":{"type":"LineString","coordinates":[[7.879999,55.123415],[7.925,55.119953],[7.93,55.114954],[7.965,55.114955],[7.97,55.109955],[8,55.109956],[8.005,55.104956],[8.035,55.104958],[8.04,55.099962],[8.07,55.099962],[8.075,55.094964],[8.11,55.094966],[8.115,55.089967],[8.14,55.089969],[8.145,55.084969],[8.18,55.084972],[8.185,55.079972],[8.215,55.079977],[8.22,55.074976],[8.25,55.074982],[8.255,55.069982],[8.272727,55.07],[8.270455,55.075],[8.275,55.081333],[8.305,55.1],[8.30375,55.115],[8.3125,55.135],[8.305,55.1475],[8.291,55.155],[8.29,55.165],[8.3,55.178333],[8.29,55.18],[8.275,55.1725],[8.27,55.175],[8.28,55.180909],[8.319583,55.185],[8.263333,55.195],[8.285,55.203333],[8.2875,55.21],[8.31,55.211071],[8.323125,55.22],[8.32,55.226667],[8.305,55.222812],[8.275,55.226],[8.32,55.237],[8.33,55.23],[8.335,55.21625],[8.345385,55.23],[8.325,55.251364],[8.318214,55.25],[8.324286,55.26],[8.325625,55.295],[8.319167,55.3],[8.325,55.305],[8.324999,55.305001]]}},{"type":"Feature","properties":{"depth":10,"source":"DDM 2024 coarse contour","resolution":"0.005 degree sampled grid","scope":"denmark","tileSource":"contours-denmark-coarse.geojson"},"geometry":{"type":"LineString","coordinates":[[8.325,55.305001],[8.325,55.305],[8.325,55.305001]]}},{"type":"Feature","properties":{"depth":10,"source":"DDM 2024 coarse contour","resolution":"0.005 degree sampled grid","scope":"denmark","tileSource":"contours-denmark-coarse.geojson"},"geometry":{"type":"LineString","coordinates":[[8.247368,55.215],[8.215,55.191071],[8.204167,55.19],[8.183333,55.165],[8.155,55.164237],[8.121,55.18],[8.15,55.184286],[8.155,55.1925],[8.195,55.199687],[8.205,55.206957],[8.22,55.207128],[8.24,55.217273],[8.247368,55.215]]}},{"type":"Feature","properties":{"depth":15,"source":"DDM 2024 coarse contour","resolution":"0.005 degree sampled grid","scope":"denmark","tileSource":"contours-denmark-coarse.geojson"},"geometry":{"type":"LineString","coordinates":[[7.879999,55.12344],[7.925,55.119978],[7.93,55.114978],[7.965,55.11498],[7.97,55.109979],[8,55.10998],[8.005,55.10498],[8.035,55.104983],[8.04,55.099986],[8.07,55.099986],[8.075,55.094988],[8.11,55.09499],[8.115,55.089992],[8.14,55.089994],[8.145,55.084994],[8.18,55.084997],[8.185,55.079997],[8.196667,55.08],[8.225,55.095],[8.22,55.11],[8.215,55.1],[8.21,55.105],[8.208333,55.125],[8.21,55.135],[8.22,55.125],[8.225,55.13],[8.225,55.145],[8.215,55.145],[8.21,55.135],[8.205,55.148],[8.175,55.15],[8.12,55.175984],[8.1,55.180909],[8.085,55.177059],[8.084091,55.19],[8.063182,55.21],[8.06375,55.23],[8.065,55.235],[8.07,55.235],[8.09,55.225455],[8.115,55.2375],[8.135,55.233333],[8.135,55.236667],[8.13,55.235],[8.135,55.242],[8.145,55.238333],[8.195,55.26],[8.2,55.26],[8.2,55.249444],[8.215,55.2525],[8.218571,55.255],[8.21125,55.26],[8.215,55.27],[8.2275,55.28],[8.226667,55.29],[8.245,55.305],[8.245,55.305001]]}},{"type":"Feature","properties":{"depth":15,"source":"DDM 2024 coarse contour","resolution":"0.005 degree sampled grid","scope":"denmark","tileSource":"contours-denmark-coarse.geojson"},"geometry":{"type":"LineString","coordinates":[[8.12,55.29],[8.13,55.285],[8.131667,55.275],[8.12,55.263333],[8.1,55.259],[8.078077,55.27],[8.076667,55.28],[8.085,55.29],[8.1,55.294],[8.12,55.29]]}},{"type":"Feature","properties":{"depth":15,"source":"DDM 2024 coarse contour","resolution":"0.005 degree sampled grid","scope":"denmark","tileSource":"contours-denmark-coarse.geojson"},"geometry":{"type":"LineString","coordinates":[[8.24,55.2605],[8.225,55.26],[8.23,55.256667],[8.24,55.2605]]}},{"type":"Feature","properties":{"depth":20,"source":"DDM 2024 coarse contour","resolution":"0.005 degree sampled grid","scope":"denmark","tileSource":"contours-denmark-coarse.geojson"},"geometry":{"type":"LineString","coordinates":[[7.879999,55.194224],[7.905,55.1875],[7.925,55.19],[7.92,55.18],[7.93,55.1725],[7.94,55.1725],[7.965,55.175],[7.97,55.18],[7.955,55.19],[7.955,55.195],[7.9825,55.205],[7.955,55.220833],[7.935,55.215833],[7.92,55.20625],[7.91,55.21],[7.909,55.215],[7.91,55.245],[7.91625,55.255],[7.9625,55.275],[7.943214,55.305001]]}},{"type":"Feature","properties":{"depth":20,"source":"DDM 2024 coarse contour","resolution":"0.005 degree sampled grid","scope":"denmark","tileSource":"contours-denmark-coarse.geojson"},"geometry":{"type":"LineString","coordinates":[[8.02,55.181],[8.01,55.18375],[7.996667,55.175],[8.005,55.16875],[8.0275,55.17],[8.02,55.181]]}}]}