{"type":"FeatureCollection","name":"DDM contour tile r01_c10","bbox":[12.2,54.83,12.675,55.305],"metadata":{"schema":"waternav-ddm-contour-tile-v1","version":"v45.4","tileId":"r01_c10","source":"Danmarks Dybdemodel 2024 ddm_50m.dybde.tiff via bundled DDM contour GeoJSON files"},"features":[{"type":"Feature","properties":{"depth":1,"source":"DDM 2024 coarse contour","resolution":"0.005 degree sampled grid","scope":"denmark","tileSource":"contours-denmark-coarse.geojson"},"geometry":{"type":"LineString","coordinates":[[12.675001,55.250103],[12.6651,55.26],[12.665098,55.265],[12.655096,55.275],[12.655097,55.28],[12.635092,55.305],[12.635092,55.305001]]}},{"type":"Feature","properties":{"depth":1,"source":"DDM 2024 coarse contour","resolution":"0.005 degree sampled grid","scope":"denmark","tileSource":"contours-denmark-coarse.geojson"},"geometry":{"type":"LineString","coordinates":[[12.219,55.095],[12.215,55.085],[12.205,55.08],[12.22,55.076957],[12.225,55.0825],[12.23,55.081515],[12.25,55.092857],[12.280455,55.075],[12.283,55.07],[12.261,55.065],[12.27,55.06],[12.28,55.06],[12.27625,55.055],[12.284999,55.04],[12.29,55.036429],[12.305,55.034987],[12.31,55.030625],[12.4,55.029981],[12.408214,55.025],[12.47,55.024961],[12.475,55.019993],[12.485,55.019967],[12.49129,55.015],[12.51,55.014964],[12.520205,55.01],[12.549975,54.98],[12.549999,54.975],[12.554985,54.97],[12.554995,54.96],[12.54,54.945003],[12.525,54.940017],[12.505,54.940031],[12.5,54.944833],[12.485,54.945032],[12.48,54.949713],[12.465,54.950025],[12.458696,54.955],[12.44,54.955037],[12.435,54.960002],[12.39,54.960028],[12.385,54.964453],[12.375,54.965002],[12.365,54.9643],[12.36,54.960021],[12.34,54.96],[12.335,54.955018],[12.321111,54.955],[12.285,54.935024],[12.28,54.935008],[12.265,54.920017],[12.250875,54.915],[12.225,54.890016],[12.220147,54.89],[12.21,54.880012],[12.199999,54.879365]]}},{"type":"Feature","properties":{"depth":1,"source":"DDM 2024 coarse contour","resolution":"0.005 degree sampled grid","scope":"denmark","tileSource":"contours-denmark-coarse.geojson"},"geometry":{"type":"LineString","coordinates":[[12.199999,54.980691],[12.21,54.972083],[12.227222,54.975],[12.235,54.979989],[12.255,54.981],[12.259286,54.985],[12.25375,54.99],[12.255,54.995476],[12.265,54.985],[12.275,54.984992],[12.275002,54.99],[12.264773,55],[12.273333,55.01],[12.255,55.025714],[12.25,55.035003],[12.235,55.035013],[12.23,55.040833],[12.220714,55.03],[12.225,55.025714],[12.23,55.021667],[12.24,55.021111],[12.245,55.026429],[12.246667,55.025],[12.235,55.01825],[12.225,55.023333],[12.215,55.023824],[12.218333,55.03],[12.199999,55.035505]]}},{"type":"Feature","properties":{"depth":1,"source":"DDM 2024 coarse contour","resolution":"0.005 degree sampled grid","scope":"denmark","tileSource":"contours-denmark-coarse.geojson"},"geometry":{"type":"LineString","coordinates":[[12.199999,55.069999],[12.2,55.07],[12.21,55.065385],[12.215625,55.07],[12.205,55.08],[12.199999,55.078906]]}},{"type":"Feature","properties":{"depth":1,"source":"DDM 2024 coarse contour","resolution":"0.005 degree sampled grid","scope":"denmark","tileSource":"contours-denmark-coarse.geojson"},"geometry":{"type":"LineString","coordinates":[[12.199999,55.083182],[12.2,55.083182],[12.205,55.0925],[12.215,55.096818],[12.219,55.095]]}},{"type":"Feature","properties":{"depth":1,"source":"DDM 2024 coarse contour","resolution":"0.005 degree sampled grid","scope":"denmark","tileSource":"contours-denmark-coarse.geojson"},"geometry":{"type":"LineString","coordinates":[[12.449991,55.305001],[12.449995,55.3],[12.454995,55.295],[12.454985,55.285],[12.445,55.275021],[12.42,55.265002],[12.41,55.255044],[12.4,55.255016],[12.395,55.250036],[12.39,55.250027],[12.385,55.255002],[12.38,55.250032],[12.365,55.250004],[12.355,55.235011],[12.285,55.235009],[12.28,55.2386],[12.238214,55.235],[12.23,55.227812],[12.22,55.224688],[12.199999,55.221904]]}},{"type":"Feature","properties":{"depth":1,"source":"DDM 2024 coarse contour","resolution":"0.005 degree sampled grid","scope":"denmark","tileSource":"contours-denmark-coarse.geojson"},"geometry":{"type":"LineString","coordinates":[[12.199999,55.120002],[12.2,55.12],[12.21,55.12],[12.199999,55.118718]]}},{"type":"Feature","properties":{"depth":1,"source":"DDM 2024 coarse contour","resolution":"0.005 degree sampled grid","scope":"denmark","tileSource":"contours-denmark-coarse.geojson"},"geometry":{"type":"LineString","coordinates":[[12.305,54.985003],[12.3,54.98875],[12.29,54.985001],[12.2905,54.98],[12.28125,54.975],[12.28,54.97],[12.295,54.969998],[12.305,54.979991],[12.311818,54.98],[12.305,54.985003]]}},{"type":"Feature","properties":{"depth":1,"source":"DDM 2024 coarse contour","resolution":"0.005 degree sampled grid","scope":"denmark","tileSource":"contours-denmark-coarse.geojson"},"geometry":{"type":"LineString","coordinates":[[12.232,55.01],[12.23,54.998235],[12.220001,55.005],[12.218421,55.01],[12.232,55.01]]}},{"type":"Feature","properties":{"depth":1,"source":"DDM 2024 coarse contour","resolution":"0.005 degree sampled grid","scope":"denmark","tileSource":"contours-denmark-coarse.geojson"},"geometry":{"type":"LineString","coordinates":[[12.25,55.059519],[12.2375,55.055],[12.25,55.054977],[12.25,55.059519]]}},{"type":"Feature","properties":{"depth":2,"source":"DDM 2024 coarse contour","resolution":"0.005 degree sampled grid","scope":"denmark","tileSource":"contours-denmark-coarse.geojson"},"geometry":{"type":"LineString","coordinates":[[12.675001,55.250099],[12.665095,55.26],[12.665093,55.265],[12.655091,55.275],[12.655092,55.28],[12.635087,55.305],[12.635087,55.305001]]}},{"type":"Feature","properties":{"depth":2,"source":"DDM 2024 coarse contour","resolution":"0.005 degree sampled grid","scope":"denmark","tileSource":"contours-denmark-coarse.geojson"},"geometry":{"type":"LineString","coordinates":[[12.201875,54.86],[12.200833,54.855],[12.199999,54.854928]]}},{"type":"Feature","properties":{"depth":2,"source":"DDM 2024 coarse contour","resolution":"0.005 degree sampled grid","scope":"denmark","tileSource":"contours-denmark-coarse.geojson"},"geometry":{"type":"LineString","coordinates":[[12.199999,54.860211],[12.201875,54.86]]}},{"type":"Feature","properties":{"depth":2,"source":"DDM 2024 coarse contour","resolution":"0.005 degree sampled grid","scope":"denmark","tileSource":"contours-denmark-coarse.geojson"},"geometry":{"type":"LineString","coordinates":[[12.220833,54.86],[12.215,54.854091],[12.210714,54.855],[12.220833,54.86]]}},{"type":"Feature","properties":{"depth":2,"source":"DDM 2024 coarse contour","resolution":"0.005 degree sampled grid","scope":"denmark","tileSource":"contours-denmark-coarse.geojson"},"geometry":{"type":"LineString","coordinates":[[12.45,55.305001],[12.45,55.3],[12.455,55.295],[12.45499,55.285],[12.445,55.275016],[12.42,55.26462],[12.41,55.255039],[12.4,55.255011],[12.395,55.250031],[12.39,55.250022],[12.385,55.254565],[12.38,55.250027],[12.365102,55.25],[12.361757,55.24],[12.355,55.235006],[12.26,55.236136],[12.24,55.232222],[12.23,55.224583],[12.213864,55.225],[12.205,55.218571],[12.199999,55.219016]]}},{"type":"Feature","properties":{"depth":2,"source":"DDM 2024 coarse contour","resolution":"0.005 degree sampled grid","scope":"denmark","tileSource":"contours-denmark-coarse.geojson"},"geometry":{"type":"LineString","coordinates":[[12.199999,55.13],[12.205,55.13],[12.2025,55.135],[12.205,55.137187],[12.22,55.130714],[12.23,55.131458],[12.236429,55.125],[12.2325,55.12],[12.235,55.117778],[12.25,55.12],[12.25125,55.115],[12.2675,55.1],[12.262273,55.095],[12.263333,55.09],[12.27,55.09],[12.271818,55.085],[12.28,55.081667],[12.2925,55.07],[12.286111,55.06],[12.27875,55.055],[12.281964,55.045],[12.29,55.038214],[12.315,55.031098],[12.4,55.029986],[12.411786,55.025],[12.47,55.024966],[12.475,55.019998],[12.485,55.019972],[12.492903,55.015],[12.51,55.014969],[12.52,55.010631],[12.54998,54.98],[12.555862,54.965],[12.552381,54.955],[12.53,54.940026],[12.505,54.940026],[12.5,54.944278],[12.485,54.945027],[12.48,54.949138],[12.465,54.95002],[12.456522,54.955],[12.44,54.955032],[12.432273,54.96],[12.39,54.960023],[12.385,54.963672],[12.375,54.964468],[12.36,54.960016],[12.342,54.96],[12.335,54.955013],[12.3225,54.955],[12.295,54.940016],[12.29,54.940006],[12.285,54.935019],[12.28,54.935003],[12.265,54.920012],[12.245,54.910004],[12.23,54.893636],[12.21,54.880007],[12.199999,54.878007]]}},{"type":"Feature","properties":{"depth":2,"source":"DDM 2024 coarse contour","resolution":"0.005 degree sampled grid","scope":"denmark","tileSource":"contours-denmark-coarse.geojson"},"geometry":{"type":"LineString","coordinates":[[12.199999,54.983853],[12.209167,54.98],[12.215,54.974524],[12.255714,54.985],[12.249667,54.99],[12.251,54.995],[12.255,54.997857],[12.26,54.995769],[12.263333,55.01],[12.256,55.02],[12.25,55.022273],[12.24,55.016471],[12.225,55.0175],[12.215,55.020882],[12.21,55.03],[12.199999,55.034405]]}},{"type":"Feature","properties":{"depth":2,"source":"DDM 2024 coarse contour","resolution":"0.005 degree sampled grid","scope":"denmark","tileSource":"contours-denmark-coarse.geojson"},"geometry":{"type":"LineString","coordinates":[[12.217143,55.015],[12.235,55.012857],[12.2375,55.01],[12.234091,55.005],[12.236,55],[12.23,54.995294],[12.225,54.9975],[12.212,55.015],[12.215,55.0175],[12.217143,55.015]]}},{"type":"Feature","properties":{"depth":2,"source":"DDM 2024 coarse contour","resolution":"0.005 degree sampled grid","scope":"denmark","tileSource":"contours-denmark-coarse.geojson"},"geometry":{"type":"LineString","coordinates":[[12.28,55.067419],[12.268333,55.065],[12.28,55.062],[12.284687,55.065],[12.28,55.067419]]}},{"type":"Feature","properties":{"depth":2,"source":"DDM 2024 coarse contour","resolution":"0.005 degree sampled grid","scope":"denmark","tileSource":"contours-denmark-coarse.geojson"},"geometry":{"type":"LineString","coordinates":[[12.22,55.1125],[12.199999,55.113611]]}},{"type":"Feature","properties":{"depth":2,"source":"DDM 2024 coarse contour","resolution":"0.005 degree sampled grid","scope":"denmark","tileSource":"contours-denmark-coarse.geojson"},"geometry":{"type":"LineString","coordinates":[[12.199999,55.094],[12.2,55.094],[12.2,55.1025],[12.199999,55.1025]]}},{"type":"Feature","properties":{"depth":2,"source":"DDM 2024 coarse contour","resolution":"0.005 degree sampled grid","scope":"denmark","tileSource":"contours-denmark-coarse.geojson"},"geometry":{"type":"LineString","coordinates":[[12.199999,55.106249],[12.2,55.10625],[12.21,55.099167],[12.215,55.101364],[12.225,55.09875],[12.227778,55.105],[12.22,55.1125]]}},{"type":"Feature","properties":{"depth":3,"source":"DDM 2024 coarse contour","resolution":"0.005 degree sampled grid","scope":"denmark","tileSource":"contours-denmark-coarse.geojson"},"geometry":{"type":"LineString","coordinates":[[12.675001,55.250094],[12.66509,55.26],[12.665088,55.265],[12.655086,55.275],[12.655087,55.28],[12.635082,55.305],[12.635082,55.305001]]}},{"type":"Feature","properties":{"depth":3,"source":"DDM 2024 coarse contour","resolution":"0.005 degree sampled grid","scope":"denmark","tileSource":"contours-denmark-coarse.geojson"},"geometry":{"type":"LineString","coordinates":[[12.226042,54.86],[12.215,54.852576],[12.199999,54.852375]]}},{"type":"Feature","properties":{"depth":3,"source":"DDM 2024 coarse contour","resolution":"0.005 degree sampled grid","scope":"denmark","tileSource":"contours-denmark-coarse.geojson"},"geometry":{"type":"LineString","coordinates":[[12.199999,54.861455],[12.2,54.861455],[12.21,54.856957],[12.215,54.865],[12.226042,54.86]]}},{"type":"Feature","properties":{"depth":3,"source":"DDM 2024 coarse contour","resolution":"0.005 degree sampled grid","scope":"denmark","tileSource":"contours-denmark-coarse.geojson"},"geometry":{"type":"LineString","coordinates":[[12.45,55.305001],[12.45,55.30225],[12.455877,55.295],[12.454995,55.285],[12.445,55.275011],[12.43,55.270008],[12.41,55.255034],[12.4,55.255006],[12.395,55.250026],[12.385,55.253841],[12.38,55.250022],[12.366122,55.25],[12.36,55.2354],[12.26,55.233684],[12.245,55.231053],[12.23,55.220417],[12.215,55.2225],[12.205,55.216786],[12.199999,55.217612]]}},{"type":"Feature","properties":{"depth":3,"source":"DDM 2024 coarse contour","resolution":"0.005 degree sampled grid","scope":"denmark","tileSource":"contours-denmark-coarse.geojson"},"geometry":{"type":"LineString","coordinates":[[12.199999,55.147728],[12.2,55.147727],[12.205714,55.14],[12.23,55.133542],[12.25,55.122],[12.2675,55.12],[12.264286,55.115],[12.276,55.105],[12.2755,55.1],[12.285,55.09],[12.29,55.09],[12.295625,55.085],[12.293,55.08],[12.298333,55.075],[12.291364,55.06],[12.283571,55.055],[12.28375,55.045],[12.3035,55.035],[12.335,55.030833],[12.4,55.029991],[12.4155,55.025],[12.435,55.027315],[12.47,55.024971],[12.475937,55.02],[12.52,55.011117],[12.542857,54.99],[12.556724,54.965],[12.553571,54.955],[12.541625,54.945],[12.53,54.940021],[12.505,54.940021],[12.5,54.943722],[12.485,54.945022],[12.454063,54.955],[12.44,54.955027],[12.43,54.959537],[12.39,54.960018],[12.375,54.963404],[12.344,54.96],[12.335,54.955008],[12.323889,54.955],[12.280625,54.935],[12.265,54.920007],[12.245,54.909865],[12.23,54.892121],[12.21,54.880002],[12.199999,54.878678]]}},{"type":"Feature","properties":{"depth":3,"source":"DDM 2024 coarse contour","resolution":"0.005 degree sampled grid","scope":"denmark","tileSource":"contours-denmark-coarse.geojson"},"geometry":{"type":"LineString","coordinates":[[12.21575,54.87],[12.215,54.865],[12.203333,54.87],[12.21,54.872778],[12.21575,54.87]]}},{"type":"Feature","properties":{"depth":3,"source":"DDM 2024 coarse contour","resolution":"0.005 degree sampled grid","scope":"denmark","tileSource":"contours-denmark-coarse.geojson"},"geometry":{"type":"LineString","coordinates":[[12.215,55],[12.205,54.991667],[12.199999,54.993056]]}},{"type":"Feature","properties":{"depth":3,"source":"DDM 2024 coarse contour","resolution":"0.005 degree sampled grid","scope":"denmark","tileSource":"contours-denmark-coarse.geojson"},"geometry":{"type":"LineString","coordinates":[[12.199999,54.987452],[12.21,54.9845],[12.22,54.9775],[12.24,54.98],[12.235,54.982],[12.235,54.988],[12.24,54.98],[12.249,54.985],[12.245,54.994],[12.22,54.993333],[12.215,54.988333],[12.211667,54.99],[12.218333,54.995],[12.215,55]]}},{"type":"Feature","properties":{"depth":5,"source":"DDM 2024 coarse contour","resolution":"0.005 degree sampled grid","scope":"denmark","tileSource":"contours-denmark-coarse.geojson"},"geometry":{"type":"LineString","coordinates":[[12.675001,55.250084],[12.66508,55.26],[12.665078,55.265],[12.655077,55.275],[12.655077,55.28],[12.635073,55.305],[12.635073,55.305001]]}},{"type":"Feature","properties":{"depth":5,"source":"DDM 2024 coarse contour","resolution":"0.005 degree sampled grid","scope":"denmark","tileSource":"contours-denmark-coarse.geojson"},"geometry":{"type":"LineString","coordinates":[[12.452013,55.305001],[12.452736,55.3],[12.457632,55.295],[12.455556,55.285],[12.445,55.275001],[12.43,55.269706],[12.41,55.255024],[12.401538,55.255],[12.395,55.250016],[12.385,55.252391],[12.368163,55.25],[12.365937,55.24],[12.36,55.232429],[12.275,55.229706],[12.25,55.224],[12.24,55.216364],[12.199999,55.211978]]}},{"type":"Feature","properties":{"depth":5,"source":"DDM 2024 coarse contour","resolution":"0.005 degree sampled grid","scope":"denmark","tileSource":"contours-denmark-coarse.geojson"},"geometry":{"type":"LineString","coordinates":[[12.199999,55.155555],[12.205,55.156111],[12.22,55.150556],[12.23,55.145],[12.239,55.135],[12.245,55.136],[12.27,55.126818],[12.275,55.128],[12.280625,55.125],[12.281,55.12],[12.29,55.117273],[12.29125,55.11],[12.3,55.105],[12.30625,55.095],[12.31,55.0935],[12.315,55.0975],[12.32,55.093929],[12.345,55.094444],[12.353462,55.09],[12.351667,55.085],[12.335,55.077273],[12.315,55.077143],[12.305,55.070625],[12.304667,55.065],[12.296316,55.055],[12.295,55.045],[12.298333,55.04],[12.33,55.033488],[12.445,55.029667],[12.52,55.012087],[12.545,54.990238],[12.55,54.978854],[12.56,54.971579],[12.555,54.953788],[12.54,54.942574],[12.505,54.940011],[12.435,54.957534],[12.385,54.961328],[12.354,54.96],[12.335,54.954091],[12.329,54.955],[12.28375,54.935],[12.27,54.922045],[12.245,54.907162],[12.23,54.888],[12.219231,54.885],[12.221667,54.87],[12.230135,54.86],[12.225,54.851905],[12.205,54.84875],[12.20125,54.845],[12.2055,54.84],[12.2,54.84125],[12.199999,54.841249]]}},{"type":"Feature","properties":{"depth":5,"source":"DDM 2024 coarse contour","resolution":"0.005 degree sampled grid","scope":"denmark","tileSource":"contours-denmark-coarse.geojson"},"geometry":{"type":"LineString","coordinates":[[12.205,54.866667],[12.199999,54.867085]]}},{"type":"Feature","properties":{"depth":5,"source":"DDM 2024 coarse contour","resolution":"0.005 degree sampled grid","scope":"denmark","tileSource":"contours-denmark-coarse.geojson"},"geometry":{"type":"LineString","coordinates":[[12.199999,54.862797],[12.205,54.863226],[12.207115,54.865],[12.205,54.866667]]}},{"type":"Feature","properties":{"depth":10,"source":"DDM 2024 coarse contour","resolution":"0.005 degree sampled grid","scope":"denmark","tileSource":"contours-denmark-coarse.geojson"},"geometry":{"type":"LineString","coordinates":[[12.675001,55.250059],[12.665056,55.26],[12.635048,55.305],[12.635048,55.305001]]}},{"type":"Feature","properties":{"depth":10,"source":"DDM 2024 coarse contour","resolution":"0.005 degree sampled grid","scope":"denmark","tileSource":"contours-denmark-coarse.geojson"},"geometry":{"type":"LineString","coordinates":[[12.459737,55.305001],[12.461855,55.295],[12.458642,55.285],[12.45,55.271923],[12.410278,55.255],[12.392333,55.245],[12.39,55.239348],[12.385,55.245526],[12.36,55.227],[12.355,55.230467],[12.338333,55.225],[12.343654,55.22],[12.34,55.214091],[12.325,55.2165],[12.31,55.20875],[12.305,55.2175],[12.265,55.1975],[12.26,55.200714],[12.199999,55.195649]]}},{"type":"Feature","properties":{"depth":10,"source":"DDM 2024 coarse contour","resolution":"0.005 degree sampled grid","scope":"denmark","tileSource":"contours-denmark-coarse.geojson"},"geometry":{"type":"LineString","coordinates":[[12.199999,55.191605],[12.24,55.173947],[12.265,55.166],[12.275,55.1675],[12.287857,55.15],[12.287647,55.14],[12.3,55.135],[12.3,55.127368],[12.315,55.12625],[12.32,55.1182],[12.33,55.11875],[12.34,55.1275],[12.34,55.114444],[12.36,55.11],[12.365,55.118182],[12.37375,55.115],[12.394286,55.085],[12.360625,55.07],[12.356818,55.065],[12.36,55.058462],[12.35,55.0555],[12.34,55.059],[12.336667,55.055],[12.34,55.047273],[12.355,55.049091],[12.375,55.042727],[12.4,55.046667],[12.415,55.039868],[12.426667,55.055],[12.425,55.059],[12.415,55.055625],[12.4,55.07],[12.41,55.071429],[12.4275,55.065],[12.434167,55.06],[12.431786,55.045],[12.435,55.041538],[12.45,55.042],[12.477059,55.025],[12.52,55.014515],[12.548548,55],[12.550612,54.99],[12.5582,54.985],[12.556552,54.98],[12.565636,54.975],[12.565875,54.96],[12.555,54.946212],[12.54,54.937],[12.525,54.935],[12.52,54.926667],[12.519167,54.935],[12.51,54.938152],[12.435,54.953587],[12.375,54.953049],[12.300417,54.93],[12.286667,54.92],[12.288333,54.91],[12.250294,54.88],[12.227,54.84],[12.215,54.835],[12.213833,54.829999]]}},{"type":"Feature","properties":{"depth":10,"source":"DDM 2024 coarse contour","resolution":"0.005 degree sampled grid","scope":"denmark","tileSource":"contours-denmark-coarse.geojson"},"geometry":{"type":"LineString","coordinates":[[12.399444,55.125],[12.405,55.1185],[12.41,55.121667],[12.415,55.112941],[12.44,55.120227],[12.445,55.114615],[12.45,55.12],[12.46,55.120357],[12.461875,55.105],[12.468182,55.1],[12.45,55.091667],[12.435,55.095],[12.415,55.089583],[12.405,55.098889],[12.404545,55.11],[12.395,55.119667],[12.39407,55.125],[12.399444,55.125]]}},{"type":"Feature","properties":{"depth":10,"source":"DDM 2024 coarse contour","resolution":"0.005 degree sampled grid","scope":"denmark","tileSource":"contours-denmark-coarse.geojson"},"geometry":{"type":"LineString","coordinates":[[12.36,55.17],[12.355,55.1625],[12.34,55.158],[12.309459,55.165],[12.335,55.1725],[12.36,55.17]]}},{"type":"Feature","properties":{"depth":15,"source":"DDM 2024 coarse contour","resolution":"0.005 degree sampled grid","scope":"denmark","tileSource":"contours-denmark-coarse.geojson"},"geometry":{"type":"LineString","coordinates":[[12.467376,55.305001],[12.467917,55.285],[12.459167,55.275],[12.461136,55.27],[12.43,55.259583],[12.4,55.22375],[12.3875,55.225],[12.395,55.21],[12.400833,55.21],[12.395,55.205],[12.415,55.19],[12.42,55.17625],[12.435,55.176333],[12.44,55.17],[12.43,55.173333],[12.43,55.169412],[12.45,55.166154],[12.455,55.157917],[12.461364,55.165],[12.51,55.127273],[12.5,55.095],[12.47,55.075],[12.469444,55.065],[12.47625,55.05],[12.500208,55.04],[12.498889,55.03],[12.504643,55.025],[12.525,55.018542],[12.553661,55],[12.556,54.99],[12.570278,54.985],[12.569245,54.97],[12.575,54.969167],[12.575455,54.955],[12.565741,54.95],[12.563846,54.935],[12.55,54.916667],[12.53,54.906167],[12.496154,54.915],[12.503333,54.925],[12.5,54.935],[12.485,54.938846],[12.45,54.945625],[12.365,54.945635],[12.315,54.922632],[12.302381,54.91],[12.2995,54.9],[12.27,54.8825],[12.242917,54.835],[12.237596,54.829999]]}},{"type":"Feature","properties":{"depth":15,"source":"DDM 2024 coarse contour","resolution":"0.005 degree sampled grid","scope":"denmark","tileSource":"contours-denmark-coarse.geojson"},"geometry":{"type":"LineString","coordinates":[[12.675001,55.250035],[12.665031,55.26],[12.635024,55.305],[12.635024,55.305001]]}},{"type":"Feature","properties":{"depth":15,"source":"DDM 2024 coarse contour","resolution":"0.005 degree sampled grid","scope":"denmark","tileSource":"contours-denmark-coarse.geojson"},"geometry":{"type":"LineString","coordinates":[[12.44,55.15625],[12.4275,55.155],[12.44,55.15],[12.44,55.15625]]}},{"type":"Feature","properties":{"depth":20,"source":"DDM 2024 coarse contour","resolution":"0.005 degree sampled grid","scope":"denmark","tileSource":"contours-denmark-coarse.geojson"},"geometry":{"type":"LineString","coordinates":[[12.491908,55.305001],[12.489474,55.3],[12.491964,55.295],[12.475385,55.28],[12.470625,55.265],[12.4875,55.225],[12.485,55.22],[12.491667,55.215],[12.5025,55.185],[12.515,55.175],[12.52,55.176111],[12.526818,55.165],[12.525,55.155],[12.530625,55.145],[12.545625,55.135],[12.54875,55.12],[12.58,55.09],[12.5905,55.09],[12.586667,55.085],[12.59,55.08],[12.6,55.077333],[12.605,55.0825],[12.6,55.063333],[12.555,55.071875],[12.535,55.068571],[12.531875,55.065],[12.535,55.06],[12.529231,55.06],[12.541429,55.055],[12.538571,55.05],[12.55375,55.02],[12.546538,55.015],[12.567,54.99],[12.575,54.99125],[12.596143,54.95],[12.585,54.946304],[12.584706,54.94],[12.57,54.93375],[12.547891,54.91],[12.525,54.900761],[12.485,54.905],[12.475833,54.91],[12.47,54.923],[12.405,54.935],[12.365,54.932857],[12.335,54.9215],[12.275,54.853],[12.26496,54.829999]]}},{"type":"Feature","properties":{"depth":20,"source":"DDM 2024 coarse contour","resolution":"0.005 degree sampled grid","scope":"denmark","tileSource":"contours-denmark-coarse.geojson"},"geometry":{"type":"LineString","coordinates":[[12.523551,54.829999],[12.52,54.83125],[12.455,54.83375],[12.395,54.856786],[12.387292,54.865],[12.390429,54.875],[12.422,54.885],[12.408571,54.895],[12.407143,54.9],[12.415,54.907308],[12.43,54.91],[12.42625,54.905],[12.43,54.898125],[12.4675,54.89],[12.48,54.88],[12.535,54.883077],[12.625,54.909],[12.665,54.9075],[12.675001,54.902214]]}},{"type":"Feature","properties":{"depth":20,"source":"DDM 2024 coarse contour","resolution":"0.005 degree sampled grid","scope":"denmark","tileSource":"contours-denmark-coarse.geojson"},"geometry":{"type":"LineString","coordinates":[[12.675001,55.250011],[12.665007,55.26],[12.645,55.295],[12.630805,55.305001]]}},{"type":"Feature","properties":{"depth":20,"source":"DDM 2024 coarse contour","resolution":"0.005 degree sampled grid","scope":"denmark","tileSource":"contours-denmark-coarse.geojson"},"geometry":{"type":"LineString","coordinates":[[12.641667,55],[12.645,54.995],[12.63,55],[12.63,55.005],[12.641667,55]]}},{"type":"Feature","properties":{"depth":20,"source":"DDM 2024 coarse contour","resolution":"0.005 degree sampled grid","scope":"denmark","tileSource":"contours-denmark-coarse.geojson"},"geometry":{"type":"LineString","coordinates":[[12.675001,55.035],[12.674,55.035],[12.675,55.04125],[12.675001,55.04125]]}},{"type":"Feature","properties":{"depth":30,"source":"DDM 2024 coarse contour","resolution":"0.005 degree sampled grid","scope":"denmark","tileSource":"contours-denmark-coarse.geojson"},"geometry":{"type":"LineString","coordinates":[[12.58,54.919],[12.53,54.896951],[12.504167,54.895],[12.545,54.893929],[12.566892,54.905],[12.580435,54.915],[12.58,54.919]]}}]}