{"type":"FeatureCollection","name":"DDM contour tile r01_c16","bbox":[15.08,54.83,15.555,55.305],"metadata":{"schema":"waternav-ddm-contour-tile-v1","version":"v45.4","tileId":"r01_c16","source":"Danmarks Dybdemodel 2024 ddm_50m.dybde.tiff via bundled DDM contour GeoJSON files"},"features":[{"type":"Feature","properties":{"depth":1,"source":"DDM 2024 coarse contour","resolution":"0.005 degree sampled grid","scope":"denmark","tileSource":"contours-denmark-coarse.geojson"},"geometry":{"type":"LineString","coordinates":[[15.079999,55.155058],[15.08,55.155057],[15.095,55.15491],[15.1,55.149998],[15.11,55.14993],[15.115,55.145102],[15.145,55.144874],[15.154963,55.13],[15.154998,55.125],[15.145481,55.11],[15.14625,55.105],[15.159897,55.085],[15.145,55.070031],[15.139989,55.07],[15.139971,55.06],[15.135,55.055015],[15.13,55.055003],[15.11498,55.04],[15.114991,55.035],[15.120208,55.03],[15.120111,55.015],[15.08,54.985016],[15.079999,54.985016]]}},{"type":"Feature","properties":{"depth":2,"source":"DDM 2024 coarse contour","resolution":"0.005 degree sampled grid","scope":"denmark","tileSource":"contours-denmark-coarse.geojson"},"geometry":{"type":"LineString","coordinates":[[15.079999,55.155342],[15.08,55.155341],[15.095,55.154915],[15.1,55.150138],[15.11,55.149935],[15.115,55.145355],[15.145,55.144879],[15.154968,55.13],[15.155104,55.125],[15.146442,55.11],[15.147639,55.105],[15.159902,55.085],[15.145,55.070026],[15.139994,55.07],[15.139976,55.06],[15.135,55.05501],[15.130652,55.055],[15.114985,55.04],[15.114996,55.035],[15.122292,55.03],[15.121222,55.015],[15.08,54.985011],[15.079999,54.985011]]}},{"type":"Feature","properties":{"depth":3,"source":"DDM 2024 coarse contour","resolution":"0.005 degree sampled grid","scope":"denmark","tileSource":"contours-denmark-coarse.geojson"},"geometry":{"type":"LineString","coordinates":[[15.079999,55.155626],[15.08,55.155625],[15.095,55.154919],[15.100769,55.15],[15.11,55.14994],[15.115,55.145609],[15.145,55.144884],[15.154973,55.13],[15.155311,55.125],[15.147404,55.11],[15.149991,55.1],[15.159906,55.085],[15.145,55.070021],[15.139999,55.07],[15.139981,55.06],[15.130082,55.05],[15.11499,55.04],[15.115,55.035238],[15.124375,55.03],[15.12,55.021667],[15.122333,55.015],[15.08,54.985006],[15.079999,54.985006]]}},{"type":"Feature","properties":{"depth":5,"source":"DDM 2024 coarse contour","resolution":"0.005 degree sampled grid","scope":"denmark","tileSource":"contours-denmark-coarse.geojson"},"geometry":{"type":"LineString","coordinates":[[15.079999,55.156194],[15.08,55.156193],[15.095,55.154929],[15.115,55.146117],[15.145,55.144894],[15.154983,55.13],[15.155726,55.125],[15.15,55.117626],[15.150034,55.1],[15.159916,55.085],[15.15,55.07375],[15.142195,55.07],[15.143605,55.065],[15.131721,55.05],[15.115,55.04],[15.12,55.035],[15.135,55.035254],[15.137049,55.03],[15.12675,55.025],[15.124556,55.015],[15.12,55.010233],[15.092833,54.99],[15.08,54.984677],[15.079999,54.984677]]}},{"type":"Feature","properties":{"depth":10,"source":"DDM 2024 coarse contour","resolution":"0.005 degree sampled grid","scope":"denmark","tileSource":"contours-denmark-coarse.geojson"},"geometry":{"type":"LineString","coordinates":[[15.079999,55.158829],[15.104135,55.15],[15.145,55.144918],[15.155,55.1332],[15.156763,55.125],[15.15,55.114778],[15.151759,55.1],[15.159941,55.085],[15.146709,55.07],[15.145,55.0575],[15.1287,55.045],[15.13,55.04],[15.148636,55.035],[15.137963,55.025],[15.133235,55.01],[15.102115,54.99],[15.08,54.982661],[15.079999,54.982661]]}},{"type":"Feature","properties":{"depth":15,"source":"DDM 2024 coarse contour","resolution":"0.005 degree sampled grid","scope":"denmark","tileSource":"contours-denmark-coarse.geojson"},"geometry":{"type":"LineString","coordinates":[[15.079999,55.159199],[15.091207,55.155],[15.145,55.144942],[15.155,55.136178],[15.157801,55.125],[15.153517,55.12],[15.153483,55.1],[15.159965,55.085],[15.149873,55.07],[15.15,55.0572],[15.14,55.045],[15.156731,55.04],[15.15931,55.035],[15.155,55.026],[15.160714,55.015],[15.138333,55.005],[15.134286,54.995],[15.140322,54.97],[15.105,54.975],[15.113333,54.985],[15.11,54.985857],[15.1,54.986611],[15.095,54.98],[15.079999,54.979394]]}},{"type":"Feature","properties":{"depth":20,"source":"DDM 2024 coarse contour","resolution":"0.005 degree sampled grid","scope":"denmark","tileSource":"contours-denmark-coarse.geojson"},"geometry":{"type":"LineString","coordinates":[[15.079999,55.161314],[15.095789,55.155],[15.145,55.144967],[15.157286,55.135],[15.158838,55.125],[15.154713,55.12],[15.159211,55.07],[15.152857,55.05],[15.163929,55.04],[15.163226,55.03],[15.170135,55.025],[15.171579,55.015],[15.146143,55.005],[15.140882,54.99],[15.146134,54.975],[15.13,54.964972],[15.079999,54.970144]]}},{"type":"Feature","properties":{"depth":30,"source":"DDM 2024 coarse contour","resolution":"0.005 degree sampled grid","scope":"denmark","tileSource":"contours-denmark-coarse.geojson"},"geometry":{"type":"LineString","coordinates":[[15.079999,55.168012],[15.155,55.14085],[15.163729,55.125],[15.16178,55.075],[15.168068,55.065],[15.168704,55.05],[15.18,55.040577],[15.18,55.034595],[15.2025,55.03],[15.200962,55.015],[15.16,55.002179],[15.149041,54.975],[15.13,54.962179],[15.079999,54.96382]]}},{"type":"Feature","properties":{"depth":50,"source":"DDM 2024 coarse contour","resolution":"0.005 degree sampled grid","scope":"denmark","tileSource":"contours-denmark-coarse.geojson"},"geometry":{"type":"LineString","coordinates":[[15.079999,55.195114],[15.16,55.160606],[15.185,55.137667],[15.19,55.141875],[15.181346,55.12],[15.184222,55.07],[15.2,55.053571],[15.23,55.037411],[15.26,54.997143],[15.27,54.991875],[15.28,54.992917],[15.29,54.980625],[15.310625,54.985],[15.3,54.975],[15.301071,54.96],[15.295,54.94881],[15.265,54.938295],[15.24,54.934565],[15.2,54.936875],[15.175,54.93],[15.2,54.91375],[15.201875,54.91],[15.195,54.907787],[15.155,54.913333],[15.079999,54.913425]]}},{"type":"Feature","properties":{"depth":50,"source":"DDM 2024 coarse contour","resolution":"0.005 degree sampled grid","scope":"denmark","tileSource":"contours-denmark-coarse.geojson"},"geometry":{"type":"LineString","coordinates":[[15.21875,55.26],[15.249,55.25],[15.255,55.23],[15.275,55.216765],[15.295,55.213333],[15.32,55.220476],[15.345,55.213333],[15.368214,55.195],[15.36875,55.185],[15.35,55.173333],[15.315,55.169063],[15.28,55.175278],[15.245,55.195263],[15.215968,55.2],[15.197826,55.23],[15.19825,55.245],[15.206176,55.26],[15.21875,55.26]]}},{"type":"Feature","properties":{"depth":100,"source":"DDM 2024 coarse contour","resolution":"0.005 degree sampled grid","scope":"denmark","tileSource":"contours-denmark-coarse.geojson"},"geometry":{"type":"LineString","coordinates":[[15.224571,55.305001],[15.225,55.30431],[15.225874,55.305001]]}}]}