{"type":"FeatureCollection","name":"DDM contour tile r02_c18","bbox":[16.04,55.31,16.2,55.785],"metadata":{"schema":"waternav-ddm-contour-tile-v1","version":"v45.4","tileId":"r02_c18","source":"Danmarks Dybdemodel 2024 ddm_50m.dybde.tiff via bundled DDM contour GeoJSON files"},"features":[{"type":"Feature","properties":{"depth":1,"source":"DDM 2024 coarse contour","resolution":"0.005 degree sampled grid","scope":"denmark","tileSource":"contours-denmark-coarse.geojson"},"geometry":{"type":"LineString","coordinates":[[16.2,55.425354],[16.185,55.425357],[16.18,55.430357],[16.165,55.43036],[16.16,55.43536],[16.14,55.435364],[16.135,55.440363],[16.12,55.440366],[16.115,55.445367],[16.1,55.44537],[16.095,55.45037],[16.075,55.450373],[16.07,55.455373],[16.055,55.455374],[16.05,55.460373],[16.039999,55.460374]]}},{"type":"Feature","properties":{"depth":2,"source":"DDM 2024 coarse contour","resolution":"0.005 degree sampled grid","scope":"denmark","tileSource":"contours-denmark-coarse.geojson"},"geometry":{"type":"LineString","coordinates":[[16.2,55.42535],[16.185,55.425353],[16.18,55.430352],[16.165,55.430355],[16.16,55.435355],[16.14,55.435359],[16.135,55.440358],[16.12,55.440361],[16.115,55.445362],[16.1,55.445365],[16.095,55.450366],[16.075,55.450368],[16.07,55.455368],[16.055,55.455369],[16.05,55.460369],[16.039999,55.46037]]}},{"type":"Feature","properties":{"depth":3,"source":"DDM 2024 coarse contour","resolution":"0.005 degree sampled grid","scope":"denmark","tileSource":"contours-denmark-coarse.geojson"},"geometry":{"type":"LineString","coordinates":[[16.2,55.425345],[16.185,55.425348],[16.18,55.430348],[16.165,55.430351],[16.16,55.43535],[16.14,55.435354],[16.135,55.440353],[16.12,55.440356],[16.115,55.445357],[16.1,55.445361],[16.095,55.450361],[16.075,55.450363],[16.07,55.455363],[16.055,55.455365],[16.05,55.460364],[16.039999,55.460365]]}},{"type":"Feature","properties":{"depth":5,"source":"DDM 2024 coarse contour","resolution":"0.005 degree sampled grid","scope":"denmark","tileSource":"contours-denmark-coarse.geojson"},"geometry":{"type":"LineString","coordinates":[[16.2,55.425336],[16.185,55.425339],[16.18,55.430338],[16.165,55.430341],[16.16,55.435341],[16.14,55.435345],[16.135,55.440344],[16.12,55.440347],[16.115,55.445348],[16.1,55.445351],[16.095,55.450352],[16.075,55.450354],[16.07,55.455354],[16.055,55.455355],[16.05,55.460355],[16.039999,55.460356]]}},{"type":"Feature","properties":{"depth":10,"source":"DDM 2024 coarse contour","resolution":"0.005 degree sampled grid","scope":"denmark","tileSource":"contours-denmark-coarse.geojson"},"geometry":{"type":"LineString","coordinates":[[16.2,55.425313],[16.165,55.430318],[16.16,55.435318],[16.14,55.435322],[16.115,55.445325],[16.1,55.445328],[16.095,55.450329],[16.075,55.450331],[16.05,55.460332],[16.039999,55.460333]]}},{"type":"Feature","properties":{"depth":15,"source":"DDM 2024 coarse contour","resolution":"0.005 degree sampled grid","scope":"denmark","tileSource":"contours-denmark-coarse.geojson"},"geometry":{"type":"LineString","coordinates":[[16.2,55.425289],[16.165,55.430295],[16.16,55.435295],[16.14,55.435299],[16.115,55.445302],[16.1,55.445305],[16.095,55.450306],[16.075,55.450308],[16.05,55.460309],[16.039999,55.46031]]}},{"type":"Feature","properties":{"depth":20,"source":"DDM 2024 coarse contour","resolution":"0.005 degree sampled grid","scope":"denmark","tileSource":"contours-denmark-coarse.geojson"},"geometry":{"type":"LineString","coordinates":[[16.2,55.425266],[16.165,55.430272],[16.16,55.435271],[16.14,55.435275],[16.115,55.445278],[16.1,55.445282],[16.095,55.450282],[16.075,55.450285],[16.05,55.460285],[16.039999,55.460286]]}},{"type":"Feature","properties":{"depth":30,"source":"DDM 2024 coarse contour","resolution":"0.005 degree sampled grid","scope":"denmark","tileSource":"contours-denmark-coarse.geojson"},"geometry":{"type":"LineString","coordinates":[[16.2,55.42522],[16.165,55.430226],[16.16,55.435225],[16.14,55.435229],[16.115,55.445232],[16.1,55.445236],[16.095,55.450236],[16.075,55.450238],[16.05,55.460239],[16.039999,55.46024]]}},{"type":"Feature","properties":{"depth":50,"source":"DDM 2024 coarse contour","resolution":"0.005 degree sampled grid","scope":"denmark","tileSource":"contours-denmark-coarse.geojson"},"geometry":{"type":"LineString","coordinates":[[16.2,55.425127],[16.165,55.430133],[16.16,55.435132],[16.14,55.435136],[16.115,55.445139],[16.1,55.445143],[16.095,55.450144],[16.075,55.450146],[16.05,55.460147],[16.039999,55.460148]]}}]}