{"type":"FeatureCollection","name":"DDM contour tile r02_c07","bbox":[10.76,55.31,11.235,55.785],"metadata":{"schema":"waternav-ddm-contour-tile-v1","version":"v45.4","tileId":"r02_c07","source":"Danmarks Dybdemodel 2024 ddm_50m.dybde.tiff via bundled DDM contour GeoJSON files"},"features":[{"type":"Feature","properties":{"depth":1,"source":"DDM 2024 coarse contour","resolution":"0.005 degree sampled grid","scope":"denmark","tileSource":"contours-denmark-coarse.geojson"},"geometry":{"type":"LineString","coordinates":[[10.759999,55.391661],[10.765,55.389993],[10.78,55.37],[10.794995,55.36],[10.795571,55.355],[10.81,55.335],[10.815,55.316613],[10.82419,55.309999]]}},{"type":"Feature","properties":{"depth":1,"source":"DDM 2024 coarse contour","resolution":"0.005 degree sampled grid","scope":"denmark","tileSource":"contours-denmark-coarse.geojson"},"geometry":{"type":"LineString","coordinates":[[11.163352,55.309999],[11.15,55.32],[11.125,55.325],[11.125019,55.33],[11.13,55.335036],[11.12,55.335022],[11.109728,55.345],[11.095,55.345023],[11.090023,55.35],[11.11,55.370208],[11.153276,55.37],[11.17,55.379989],[11.18,55.380727],[11.185,55.384983],[11.205,55.386607],[11.21,55.390652],[11.21,55.403548],[11.205,55.405009],[11.190004,55.42],[11.2,55.435],[11.2,55.449375],[11.175003,55.475],[11.175002,55.49],[11.17,55.499043],[11.145,55.510004],[11.13,55.522917],[11.121316,55.52],[11.115,55.51002],[11.09,55.510013],[11.0815,55.515],[11.080021,55.525],[11.095,55.539986],[11.105,55.534999],[11.11,55.539987],[11.145,55.540222],[11.155001,55.555],[11.155,55.569643],[11.150012,55.575],[11.149135,55.585],[11.125,55.615007],[11.12,55.615013],[11.104762,55.625],[11.08,55.630016],[11.075,55.63501],[11.065,55.635022],[11.06,55.640009],[11.05,55.640021],[11.0348,55.65],[11.01,55.650034],[11.002083,55.655],[10.945,55.655025],[10.930006,55.665],[10.930007,55.67],[10.935,55.674995],[10.94,55.675],[10.96,55.674962],[10.965,55.669999],[11.035,55.669952],[11.045,55.665],[11.075,55.664967],[11.08,55.669985],[11.085,55.66499],[11.095,55.664993],[11.090002,55.67],[11.095039,55.675],[11.065,55.67501],[11.054,55.685],[11.045,55.685012],[11.02,55.700017],[11.015,55.700022],[10.989762,55.725],[10.905,55.725043],[10.9,55.730013],[10.89,55.730033],[10.87501,55.74],[10.88,55.744988],[10.9,55.744997],[10.905,55.749976],[10.925,55.7506],[10.93,55.75497],[10.935,55.749998],[10.94,55.750273],[10.945,55.754974],[10.95,55.750703],[10.99,55.749969],[10.995,55.745],[11.005,55.744978],[11.012857,55.74],[11.03,55.739977],[11.035968,55.735],[11.07,55.734998],[11.075,55.739973],[11.095,55.739995],[11.1,55.744973],[11.11,55.744996],[11.125,55.75498],[11.1686,55.755],[11.175,55.759983],[11.2,55.740738],[11.21,55.742188],[11.22,55.749997],[11.225,55.749988],[11.235001,55.743991]]}},{"type":"Feature","properties":{"depth":1,"source":"DDM 2024 coarse contour","resolution":"0.005 degree sampled grid","scope":"denmark","tileSource":"contours-denmark-coarse.geojson"},"geometry":{"type":"LineString","coordinates":[[10.989979,55.34],[10.990581,55.335],[10.985,55.330022],[10.97,55.330014],[10.965,55.325024],[10.955,55.325023],[10.95002,55.33],[10.965,55.339975],[10.975,55.339997],[10.98,55.344981],[10.985,55.344984],[10.989979,55.34]]}},{"type":"Feature","properties":{"depth":1,"source":"DDM 2024 coarse contour","resolution":"0.005 degree sampled grid","scope":"denmark","tileSource":"contours-denmark-coarse.geojson"},"geometry":{"type":"LineString","coordinates":[[11.18,55.350001],[11.1675,55.35],[11.164999,55.34],[11.16,55.335004],[11.152692,55.335],[11.16,55.33],[11.18,55.330417],[11.194167,55.335],[11.197143,55.34],[11.1825,55.345],[11.18,55.350001]]}},{"type":"Feature","properties":{"depth":1,"source":"DDM 2024 coarse contour","resolution":"0.005 degree sampled grid","scope":"denmark","tileSource":"contours-denmark-coarse.geojson"},"geometry":{"type":"LineString","coordinates":[[11.075455,55.48],[11.08,55.477368],[11.085,55.479981],[11.089978,55.475],[11.09,55.469783],[11.074318,55.475],[11.075455,55.48]]}},{"type":"Feature","properties":{"depth":1,"source":"DDM 2024 coarse contour","resolution":"0.005 degree sampled grid","scope":"denmark","tileSource":"contours-denmark-coarse.geojson"},"geometry":{"type":"LineString","coordinates":[[10.799993,55.515],[10.79,55.505013],[10.785,55.505012],[10.775011,55.515],[10.78,55.519984],[10.785,55.519988],[10.795,55.519975],[10.799993,55.515]]}},{"type":"Feature","properties":{"depth":2,"source":"DDM 2024 coarse contour","resolution":"0.005 degree sampled grid","scope":"denmark","tileSource":"contours-denmark-coarse.geojson"},"geometry":{"type":"LineString","coordinates":[[10.759999,55.39267],[10.765,55.389998],[10.78,55.371731],[10.795,55.36],[10.812045,55.335],[10.815,55.318226],[10.83,55.31069],[10.830414,55.309999]]}},{"type":"Feature","properties":{"depth":2,"source":"DDM 2024 coarse contour","resolution":"0.005 degree sampled grid","scope":"denmark","tileSource":"contours-denmark-coarse.geojson"},"geometry":{"type":"LineString","coordinates":[[11.162667,55.309999],[11.147955,55.32],[11.125,55.32375],[11.125014,55.33],[11.13,55.335031],[11.12,55.335017],[11.109185,55.345],[11.095,55.345018],[11.090018,55.35],[11.11,55.37125],[11.151552,55.37],[11.165,55.374997],[11.17,55.379994],[11.185,55.384988],[11.196364,55.385],[11.21,55.391739],[11.21,55.401935],[11.189167,55.42],[11.2,55.437632],[11.2,55.447292],[11.174375,55.475],[11.174265,55.49],[11.17,55.497979],[11.145,55.509853],[11.13,55.520833],[11.122632,55.52],[11.115,55.510015],[11.09,55.510008],[11.079,55.515],[11.080016,55.525],[11.095,55.539991],[11.105,55.537105],[11.11,55.539992],[11.145,55.541333],[11.155,55.5575],[11.155,55.566071],[11.148173,55.585],[11.125,55.615002],[11.12,55.615008],[11.102381,55.625],[11.095,55.625013],[11.09,55.630004],[11.08,55.630011],[11.075,55.635005],[11.05,55.640016],[11.0328,55.65],[11.01,55.650029],[10.998077,55.655],[10.945,55.65502],[10.930001,55.665],[10.930002,55.67],[10.94,55.676389],[10.96,55.674967],[10.967333,55.67],[11.035,55.669957],[11.04,55.665794],[11.050333,55.665],[11.075,55.664972],[11.08,55.66999],[11.085,55.664995],[11.095,55.664998],[11.08939,55.67],[11.095034,55.675],[11.075,55.672625],[11.065,55.675005],[11.0515,55.685],[11.045,55.685007],[11.02,55.700012],[11.015,55.700017],[10.988571,55.725],[10.905,55.725038],[10.9,55.730008],[10.89,55.730028],[10.875005,55.74],[10.88,55.744993],[10.8992,55.745],[10.905,55.749981],[10.918913,55.75],[10.93,55.754975],[10.935,55.750481],[10.94,55.751182],[10.945,55.754979],[10.95,55.751484],[10.99,55.749974],[10.996136,55.745],[11.005,55.744983],[11.016,55.74],[11.03,55.739982],[11.037581,55.735],[11.067,55.735],[11.075,55.739978],[11.095,55.74],[11.1,55.744978],[11.109821,55.745],[11.125,55.754985],[11.1666,55.755],[11.175,55.759988],[11.2,55.741557],[11.215,55.748958],[11.225,55.749993],[11.235001,55.74418]]}},{"type":"Feature","properties":{"depth":2,"source":"DDM 2024 coarse contour","resolution":"0.005 degree sampled grid","scope":"denmark","tileSource":"contours-denmark-coarse.geojson"},"geometry":{"type":"LineString","coordinates":[[10.989984,55.34],[10.991744,55.335],[10.985,55.330017],[10.97,55.330009],[10.965,55.325019],[10.955,55.325018],[10.950015,55.33],[10.955,55.334982],[10.96,55.334995],[10.965,55.33998],[10.974375,55.34],[10.98,55.344986],[10.985,55.344989],[10.989984,55.34]]}},{"type":"Feature","properties":{"depth":2,"source":"DDM 2024 coarse contour","resolution":"0.005 degree sampled grid","scope":"denmark","tileSource":"contours-denmark-coarse.geojson"},"geometry":{"type":"LineString","coordinates":[[11.08,55.48],[11.085,55.479986],[11.089983,55.475],[11.09,55.467609],[11.072045,55.475],[11.075,55.481833],[11.08,55.48]]}},{"type":"Feature","properties":{"depth":2,"source":"DDM 2024 coarse contour","resolution":"0.005 degree sampled grid","scope":"denmark","tileSource":"contours-denmark-coarse.geojson"},"geometry":{"type":"LineString","coordinates":[[11.094999,55.485],[11.09,55.48002],[11.085,55.484394],[11.08,55.48],[11.09,55.489988],[11.094999,55.485]]}},{"type":"Feature","properties":{"depth":2,"source":"DDM 2024 coarse contour","resolution":"0.005 degree sampled grid","scope":"denmark","tileSource":"contours-denmark-coarse.geojson"},"geometry":{"type":"LineString","coordinates":[[10.799998,55.515],[10.795,55.507976],[10.785,55.505007],[10.775937,55.51],[10.775006,55.515],[10.78,55.519989],[10.785,55.519993],[10.795,55.51998],[10.799998,55.515]]}},{"type":"Feature","properties":{"depth":3,"source":"DDM 2024 coarse contour","resolution":"0.005 degree sampled grid","scope":"denmark","tileSource":"contours-denmark-coarse.geojson"},"geometry":{"type":"LineString","coordinates":[[10.759999,55.394688],[10.765,55.3925],[10.778654,55.375],[10.797381,55.36],[10.8,55.3525],[10.814318,55.335],[10.815,55.319839],[10.83,55.312414],[10.831929,55.309999]]}},{"type":"Feature","properties":{"depth":3,"source":"DDM 2024 coarse contour","resolution":"0.005 degree sampled grid","scope":"denmark","tileSource":"contours-denmark-coarse.geojson"},"geometry":{"type":"LineString","coordinates":[[11.161905,55.309999],[11.145682,55.32],[11.125,55.3225],[11.121774,55.325],[11.13,55.335026],[11.12,55.335012],[11.108641,55.345],[11.095,55.345013],[11.090013,55.35],[11.11,55.372292],[11.15,55.370139],[11.175,55.382119],[11.193182,55.385],[11.21,55.392826],[11.21,55.400323],[11.2,55.410003],[11.187143,55.415],[11.185,55.42],[11.199706,55.44],[11.2,55.445208],[11.172813,55.475],[11.17,55.496915],[11.127857,55.52],[11.123947,55.52],[11.115,55.51001],[11.095,55.509091],[11.077571,55.515],[11.080011,55.525],[11.09,55.538462],[11.141944,55.54],[11.145,55.542444],[11.154643,55.56],[11.147212,55.585],[11.122692,55.615],[11.095,55.625008],[11.089091,55.63],[11.08,55.630006],[11.075,55.635],[11.065,55.635012],[11.059583,55.64],[11.05,55.640011],[11.045,55.645002],[11.0308,55.65],[11.01,55.650024],[10.993889,55.655],[10.945,55.655015],[10.93,55.663571],[10.928571,55.67],[10.935,55.6775],[10.94,55.677778],[10.96,55.674972],[10.970385,55.67],[11.035,55.669962],[11.04,55.666262],[11.055,55.664977],[11.075,55.664977],[11.08,55.669995],[11.085,55.665],[11.093636,55.665],[11.085,55.674815],[11.075,55.671375],[11.05,55.684756],[11.04,55.686667],[11.02,55.700007],[11.015,55.700012],[10.987381,55.725],[10.905,55.725033],[10.9,55.730003],[10.89,55.730023],[10.875,55.74],[10.88,55.744998],[10.8972,55.745],[10.905,55.749986],[10.916739,55.75],[10.93,55.75498],[10.935,55.751442],[10.945,55.754984],[10.95,55.752266],[10.99,55.749979],[10.997273,55.745],[11.03,55.739987],[11.039194,55.735],[11.060714,55.735],[11.075,55.739983],[11.092826,55.74],[11.125,55.75499],[11.15,55.758077],[11.16,55.755],[11.175,55.759993],[11.2,55.742377],[11.22,55.751667],[11.235001,55.744027]]}},{"type":"Feature","properties":{"depth":3,"source":"DDM 2024 coarse contour","resolution":"0.005 degree sampled grid","scope":"denmark","tileSource":"contours-denmark-coarse.geojson"},"geometry":{"type":"LineString","coordinates":[[10.949985,55.325],[10.95,55.319615],[10.945,55.320006],[10.940004,55.325],[10.945,55.32999],[10.949985,55.325]]}},{"type":"Feature","properties":{"depth":3,"source":"DDM 2024 coarse contour","resolution":"0.005 degree sampled grid","scope":"denmark","tileSource":"contours-denmark-coarse.geojson"},"geometry":{"type":"LineString","coordinates":[[10.989989,55.34],[10.992907,55.335],[10.985,55.330012],[10.97,55.330004],[10.965,55.325014],[10.955,55.325013],[10.95001,55.33],[10.955,55.334987],[10.98,55.344991],[10.985,55.344994],[10.989989,55.34]]}},{"type":"Feature","properties":{"depth":3,"source":"DDM 2024 coarse contour","resolution":"0.005 degree sampled grid","scope":"denmark","tileSource":"contours-denmark-coarse.geojson"},"geometry":{"type":"LineString","coordinates":[[11.095745,55.485],[11.09,55.480015],[11.085,55.482879],[11.081724,55.48],[11.089988,55.475],[11.09,55.465435],[11.069875,55.475],[11.08,55.487727],[11.09,55.489993],[11.095745,55.485]]}},{"type":"Feature","properties":{"depth":3,"source":"DDM 2024 coarse contour","resolution":"0.005 degree sampled grid","scope":"denmark","tileSource":"contours-denmark-coarse.geojson"},"geometry":{"type":"LineString","coordinates":[[10.800857,55.515],[10.799219,55.51],[10.79,55.505003],[10.759999,55.509846]]}},{"type":"Feature","properties":{"depth":3,"source":"DDM 2024 coarse contour","resolution":"0.005 degree sampled grid","scope":"denmark","tileSource":"contours-denmark-coarse.geojson"},"geometry":{"type":"LineString","coordinates":[[10.759999,55.510084],[10.77,55.510962],[10.78,55.519994],[10.795,55.519985],[10.800857,55.515]]}},{"type":"Feature","properties":{"depth":5,"source":"DDM 2024 coarse contour","resolution":"0.005 degree sampled grid","scope":"denmark","tileSource":"contours-denmark-coarse.geojson"},"geometry":{"type":"LineString","coordinates":[[11.160335,55.309999],[11.145,55.3175],[11.12,55.32125],[11.1175,55.325],[11.13,55.335016],[11.105,55.339444],[11.107554,55.345],[11.09,55.345],[11.090003,55.35],[11.09875,55.365],[11.095556,55.37],[11.1,55.374444],[11.115,55.374388],[11.124082,55.37],[11.145,55.371418],[11.162857,55.38],[11.182917,55.385],[11.20625,55.4],[11.195,55.409125],[11.177222,55.41],[11.172273,55.42],[11.197206,55.445],[11.196161,55.45],[11.185,55.456071],[11.1695,55.475],[11.168,55.495],[11.13,55.513462],[11.095,55.504792],[11.0746,55.515],[11.085,55.54],[11.09,55.543636],[11.1,55.542241],[11.11,55.5465],[11.12,55.541477],[11.145,55.544667],[11.145,55.553077],[11.135,55.548],[11.129545,55.55],[11.14,55.56],[11.150476,55.555],[11.15,55.57],[11.145789,55.575],[11.145288,55.585],[11.139375,55.585],[11.140849,55.59],[11.13,55.598684],[11.1215,55.6],[11.115357,55.615],[11.025,55.649375],[10.945,55.655005],[10.94,55.66],[10.93,55.66],[10.923913,55.675],[10.925,55.680625],[10.93,55.684444],[10.945,55.676505],[10.974231,55.67],[11.01,55.671696],[11.035,55.669972],[11.052833,55.665],[11.075013,55.665],[11.075,55.66875],[11.06,55.678706],[11.03,55.689345],[10.994833,55.72],[10.985,55.725],[10.905,55.725023],[10.9,55.72932],[10.89,55.730013],[10.87,55.740333],[10.851875,55.745],[10.86375,55.75],[10.875,55.745],[10.885,55.748333],[10.895,55.746098],[10.93,55.75499],[10.945,55.754994],[10.99,55.749989],[10.999545,55.745],[11.02,55.743889],[11.023333,55.74],[11.04,55.736974],[11.055,55.737286],[11.06,55.740982],[11.07,55.738673],[11.104118,55.745],[11.125,55.755],[11.13,55.762105],[11.137,55.76],[11.14,55.765517],[11.18,55.765],[11.181667,55.77],[11.1775,55.775],[11.18,55.775833],[11.195,55.772857],[11.215,55.755294],[11.225,55.754211],[11.227222,55.75],[11.235001,55.745495]]}},{"type":"Feature","properties":{"depth":5,"source":"DDM 2024 coarse contour","resolution":"0.005 degree sampled grid","scope":"denmark","tileSource":"contours-denmark-coarse.geojson"},"geometry":{"type":"LineString","coordinates":[[10.759999,55.39958],[10.775,55.395132],[10.772,55.39],[10.774697,55.385],[10.785,55.372692],[10.801957,55.36],[10.8025,55.355],[10.818036,55.335],[10.821818,55.32],[10.835,55.314167],[10.83818,55.309999]]}},{"type":"Feature","properties":{"depth":5,"source":"DDM 2024 coarse contour","resolution":"0.005 degree sampled grid","scope":"denmark","tileSource":"contours-denmark-coarse.geojson"},"geometry":{"type":"LineString","coordinates":[[10.949995,55.325],[10.955333,55.32],[10.95,55.317051],[10.938167,55.325],[10.945,55.33],[10.949995,55.325]]}},{"type":"Feature","properties":{"depth":5,"source":"DDM 2024 coarse contour","resolution":"0.005 degree sampled grid","scope":"denmark","tileSource":"contours-denmark-coarse.geojson"},"geometry":{"type":"LineString","coordinates":[[10.989,55.345],[10.99,55.339787],[10.995556,55.335],[10.99,55.331538],[10.974583,55.33],[10.965,55.325004],[10.955,55.325003],[10.95,55.33],[10.965,55.339995],[10.98,55.345238],[10.989,55.345]]}},{"type":"Feature","properties":{"depth":5,"source":"DDM 2024 coarse contour","resolution":"0.005 degree sampled grid","scope":"denmark","tileSource":"contours-denmark-coarse.geojson"},"geometry":{"type":"LineString","coordinates":[[11.086818,55.35],[11.09,55.345],[11.086667,55.34],[11.074643,55.34],[11.075294,55.35],[11.086818,55.35]]}},{"type":"Feature","properties":{"depth":5,"source":"DDM 2024 coarse contour","resolution":"0.005 degree sampled grid","scope":"denmark","tileSource":"contours-denmark-coarse.geojson"},"geometry":{"type":"LineString","coordinates":[[11.090543,55.49],[11.097872,55.485],[11.095,55.481143],[11.085455,55.48],[11.093203,55.47],[11.09,55.452187],[11.067375,55.475],[11.075,55.493077],[11.090543,55.49]]}},{"type":"Feature","properties":{"depth":5,"source":"DDM 2024 coarse contour","resolution":"0.005 degree sampled grid","scope":"denmark","tileSource":"contours-denmark-coarse.geojson"},"geometry":{"type":"LineString","coordinates":[[10.793,55.52],[10.803714,55.515],[10.803947,55.51],[10.79,55.500667],[10.78,55.500312],[10.77,55.507222],[10.759999,55.509035]]}},{"type":"Feature","properties":{"depth":5,"source":"DDM 2024 coarse contour","resolution":"0.005 degree sampled grid","scope":"denmark","tileSource":"contours-denmark-coarse.geojson"},"geometry":{"type":"LineString","coordinates":[[10.759999,55.512308],[10.78,55.520976],[10.793,55.52]]}},{"type":"Feature","properties":{"depth":5,"source":"DDM 2024 coarse contour","resolution":"0.005 degree sampled grid","scope":"denmark","tileSource":"contours-denmark-coarse.geojson"},"geometry":{"type":"LineString","coordinates":[[11.122273,55.59],[11.126905,55.585],[11.12,55.581333],[11.105,55.583437],[11.1,55.59],[11.115,55.594062],[11.122273,55.59]]}},{"type":"Feature","properties":{"depth":5,"source":"DDM 2024 coarse contour","resolution":"0.005 degree sampled grid","scope":"denmark","tileSource":"contours-denmark-coarse.geojson"},"geometry":{"type":"LineString","coordinates":[[10.915357,55.66],[10.90375,55.66],[10.91,55.662206],[10.915357,55.66]]}},{"type":"Feature","properties":{"depth":5,"source":"DDM 2024 coarse contour","resolution":"0.005 degree sampled grid","scope":"denmark","tileSource":"contours-denmark-coarse.geojson"},"geometry":{"type":"LineString","coordinates":[[11.19,55.760789],[11.185,55.763636],[11.182895,55.76],[11.2,55.744016],[11.21,55.75],[11.2,55.751875],[11.19,55.760789]]}},{"type":"Feature","properties":{"depth":10,"source":"DDM 2024 coarse contour","resolution":"0.005 degree sampled grid","scope":"denmark","tileSource":"contours-denmark-coarse.geojson"},"geometry":{"type":"LineString","coordinates":[[11.143,55.309999],[11.143,55.31],[11.142986,55.309999]]}},{"type":"Feature","properties":{"depth":10,"source":"DDM 2024 coarse contour","resolution":"0.005 degree sampled grid","scope":"denmark","tileSource":"contours-denmark-coarse.geojson"},"geometry":{"type":"LineString","coordinates":[[11.118651,55.309999],[11.11,55.320682],[11.105,55.315208],[11.08,55.319],[11.085,55.326094],[11.095,55.323333],[11.108571,55.33],[11.09,55.335],[11.07,55.329589],[11.067632,55.335],[11.05,55.339516],[11.055,55.346613],[11.081389,55.36],[11.074255,55.37],[11.081957,55.38],[11.1,55.388182],[11.095789,55.4],[11.105,55.405373],[11.121,55.405],[11.115833,55.39],[11.125,55.378667],[11.170455,55.39],[11.1725,55.4],[11.165556,55.41],[11.15,55.4117],[11.138043,55.42],[11.165,55.435],[11.174,55.45],[11.155,55.465833],[11.11,55.4625],[11.1035,55.45],[11.093684,55.445],[11.118305,55.415],[11.09,55.409688],[11.085,55.413333],[11.069844,55.44],[11.064205,55.46],[11.068242,55.465],[11.061222,55.47],[11.055455,55.49],[11.061563,55.495],[11.065781,55.515],[11.055,55.526786],[11.044167,55.53],[11.039211,55.54],[11.05,55.552143],[11.07,55.548214],[11.07,55.555938],[11.085,55.564],[11.1205,55.57],[11.09,55.575],[11.074118,55.6],[11.061429,55.61],[11.091,55.61],[11.035,55.629286],[11.025,55.640469],[11.01,55.647027],[10.93,55.655098],[10.915,55.649178],[10.89,55.650167],[10.886184,55.655],[10.8924,55.67],[10.9,55.668571],[10.912273,55.675],[10.906739,55.68],[10.925,55.691533],[10.945,55.678932],[10.983793,55.67],[11.01,55.67387],[11.065,55.667606],[11.067576,55.67],[11.06,55.675765],[11.015,55.692881],[10.987439,55.72],[10.976778,55.725],[10.91,55.723495],[10.845,55.739265],[10.839111,55.745],[10.845,55.752263],[10.895,55.752],[10.97,55.76125],[11.005,55.748594],[11.02,55.751765],[11.055,55.744306],[11.08,55.748472],[11.151471,55.78],[11.142292,55.785001]]}},{"type":"Feature","properties":{"depth":10,"source":"DDM 2024 coarse contour","resolution":"0.005 degree sampled grid","scope":"denmark","tileSource":"contours-denmark-coarse.geojson"},"geometry":{"type":"LineString","coordinates":[[11.138486,55.785001],[11.13,55.778],[11.117683,55.785001]]}},{"type":"Feature","properties":{"depth":10,"source":"DDM 2024 coarse contour","resolution":"0.005 degree sampled grid","scope":"denmark","tileSource":"contours-denmark-coarse.geojson"},"geometry":{"type":"LineString","coordinates":[[11.171609,55.785001],[11.205,55.776481],[11.2075,55.77],[11.235001,55.757307]]}},{"type":"Feature","properties":{"depth":10,"source":"DDM 2024 coarse contour","resolution":"0.005 degree sampled grid","scope":"denmark","tileSource":"contours-denmark-coarse.geojson"},"geometry":{"type":"LineString","coordinates":[[10.759999,55.523153],[10.76,55.523152],[10.7725,55.53],[10.785,55.526905],[10.795,55.530682],[10.80175,55.52],[10.817089,55.51],[10.815,55.499805],[10.782667,55.49],[10.78,55.47413],[10.76,55.477708],[10.759999,55.477707]]}},{"type":"Feature","properties":{"depth":10,"source":"DDM 2024 coarse contour","resolution":"0.005 degree sampled grid","scope":"denmark","tileSource":"contours-denmark-coarse.geojson"},"geometry":{"type":"LineString","coordinates":[[10.759999,55.473287],[10.764615,55.47],[10.759999,55.467507]]}},{"type":"Feature","properties":{"depth":10,"source":"DDM 2024 coarse contour","resolution":"0.005 degree sampled grid","scope":"denmark","tileSource":"contours-denmark-coarse.geojson"},"geometry":{"type":"LineString","coordinates":[[10.759999,55.464198],[10.765,55.463333],[10.77,55.46875],[10.771837,55.465],[10.765,55.453382],[10.759999,55.454467]]}},{"type":"Feature","properties":{"depth":10,"source":"DDM 2024 coarse contour","resolution":"0.005 degree sampled grid","scope":"denmark","tileSource":"contours-denmark-coarse.geojson"},"geometry":{"type":"LineString","coordinates":[[10.759999,55.406406],[10.775,55.398421],[10.781296,55.385],[10.822969,55.35],[10.84912,55.309999]]}},{"type":"Feature","properties":{"depth":10,"source":"DDM 2024 coarse contour","resolution":"0.005 degree sampled grid","scope":"denmark","tileSource":"contours-denmark-coarse.geojson"},"geometry":{"type":"LineString","coordinates":[[10.997,55.35],[11.005,55.3425],[11.015,55.344998],[11.019967,55.34],[11.006184,55.335],[11.005,55.329123],[10.996852,55.33],[10.995732,55.325],[11.003409,55.315],[10.991,55.315],[10.990017,55.309999]]}},{"type":"Feature","properties":{"depth":10,"source":"DDM 2024 coarse contour","resolution":"0.005 degree sampled grid","scope":"denmark","tileSource":"contours-denmark-coarse.geojson"},"geometry":{"type":"LineString","coordinates":[[10.951219,55.309999],[10.926829,55.32],[10.95,55.342143],[10.96,55.341111],[10.98,55.351613],[10.997,55.35]]}},{"type":"Feature","properties":{"depth":10,"source":"DDM 2024 coarse contour","resolution":"0.005 degree sampled grid","scope":"denmark","tileSource":"contours-denmark-coarse.geojson"},"geometry":{"type":"LineString","coordinates":[[11.16,55.46],[11.155,55.449643],[11.155,55.458333],[11.16,55.46]]}},{"type":"Feature","properties":{"depth":10,"source":"DDM 2024 coarse contour","resolution":"0.005 degree sampled grid","scope":"denmark","tileSource":"contours-denmark-coarse.geojson"},"geometry":{"type":"LineString","coordinates":[[10.932986,55.535],[10.93,55.529359],[10.918636,55.535],[10.925,55.538017],[10.932986,55.535]]}},{"type":"Feature","properties":{"depth":10,"source":"DDM 2024 coarse contour","resolution":"0.005 degree sampled grid","scope":"denmark","tileSource":"contours-denmark-coarse.geojson"},"geometry":{"type":"LineString","coordinates":[[11.043667,55.57],[11.045,55.56375],[11.035,55.558077],[11.03,55.547429],[10.995227,55.565],[11.005,55.569231],[11.015,55.563684],[11.03,55.563929],[11.035,55.570417],[11.043667,55.57]]}},{"type":"Feature","properties":{"depth":10,"source":"DDM 2024 coarse contour","resolution":"0.005 degree sampled grid","scope":"denmark","tileSource":"contours-denmark-coarse.geojson"},"geometry":{"type":"LineString","coordinates":[[10.935667,55.615],[10.94,55.609545],[10.9575,55.61],[10.971,55.6],[10.966087,55.59],[10.9682,55.58],[10.953182,55.57],[10.95,55.554161],[10.947143,55.565],[10.937692,55.575],[10.935323,55.595],[10.926111,55.6],[10.931,55.61],[10.9265,55.615],[10.93,55.618889],[10.935667,55.615]]}},{"type":"Feature","properties":{"depth":10,"source":"DDM 2024 coarse contour","resolution":"0.005 degree sampled grid","scope":"denmark","tileSource":"contours-denmark-coarse.geojson"},"geometry":{"type":"LineString","coordinates":[[11.050857,55.605],[11.057838,55.59],[11.055,55.5858],[11.048542,55.59],[11.043696,55.605],[11.050857,55.605]]}},{"type":"Feature","properties":{"depth":10,"source":"DDM 2024 coarse contour","resolution":"0.005 degree sampled grid","scope":"denmark","tileSource":"contours-denmark-coarse.geojson"},"geometry":{"type":"LineString","coordinates":[[10.875263,55.635],[10.895,55.622941],[10.922917,55.62],[10.921667,55.615],[10.915,55.607667],[10.877,55.61],[10.870625,55.615],[10.875263,55.635]]}},{"type":"Feature","properties":{"depth":10,"source":"DDM 2024 coarse contour","resolution":"0.005 degree sampled grid","scope":"denmark","tileSource":"contours-denmark-coarse.geojson"},"geometry":{"type":"LineString","coordinates":[[11.016364,55.62],[11.01,55.616452],[11.001,55.62],[11.016364,55.62]]}},{"type":"Feature","properties":{"depth":15,"source":"DDM 2024 coarse contour","resolution":"0.005 degree sampled grid","scope":"denmark","tileSource":"contours-denmark-coarse.geojson"},"geometry":{"type":"LineString","coordinates":[[10.759999,55.55409],[10.76,55.554091],[10.7625,55.55],[10.759999,55.547499]]}},{"type":"Feature","properties":{"depth":15,"source":"DDM 2024 coarse contour","resolution":"0.005 degree sampled grid","scope":"denmark","tileSource":"contours-denmark-coarse.geojson"},"geometry":{"type":"LineString","coordinates":[[10.759999,55.543726],[10.765,55.541176],[10.775,55.55217],[10.783333,55.545],[10.78,55.540625],[10.77,55.544412],[10.765588,55.54],[10.769138,55.535],[10.78,55.5375],[10.8,55.53197],[10.822,55.505],[10.796842,55.485],[10.795,55.469643],[10.78,55.466],[10.775,55.458571],[10.765,55.42],[10.785217,55.39],[10.8258,55.36],[10.8575,55.31],[10.8575,55.309999]]}},{"type":"Feature","properties":{"depth":15,"source":"DDM 2024 coarse contour","resolution":"0.005 degree sampled grid","scope":"denmark","tileSource":"contours-denmark-coarse.geojson"},"geometry":{"type":"LineString","coordinates":[[11.096002,55.309999],[11.0865,55.315],[11.07,55.317778],[11.073864,55.325],[11.06,55.336376],[11.048136,55.335],[11.053141,55.35],[11.069687,55.36],[11.065,55.37],[11.082778,55.39],[11.08,55.395714],[11.088667,55.4],[11.07575,55.405],[11.07,55.415],[11.065,55.4075],[11.06,55.408571],[11.0355,55.425],[11.04,55.433485],[11.053182,55.43],[11.055,55.42125],[11.06125,55.43],[11.062069,55.45],[11.055,55.4725],[11.025,55.504783],[10.993636,55.52],[11.0025,55.535],[10.995,55.548],[10.985,55.544444],[10.985,55.551667],[10.98,55.555],[10.965,55.542703],[10.969167,55.555],[10.95,55.552548],[10.945,55.561083],[10.934483,55.56],[10.925,55.576538],[10.9014,55.6],[10.8547,55.62],[10.875,55.639113],[10.895,55.628452],[10.905,55.631446],[10.915,55.624697],[10.92,55.629655],[10.95,55.626324],[10.955,55.63],[10.951957,55.625],[10.965,55.62],[10.965833,55.625],[10.955,55.63],[10.964107,55.635],[10.953,55.64],[10.955,55.645],[10.96,55.64],[10.969643,55.65],[10.935,55.65],[10.925,55.644224],[10.866277,55.65],[10.89,55.68],[10.91,55.693772],[10.9775,55.705],[10.96,55.72],[10.875,55.724474],[10.85,55.735794],[10.845,55.732981],[10.823077,55.75],[10.8775,55.755],[10.870625,55.76],[10.88,55.767083],[10.8875,55.765],[10.876458,55.76],[10.885,55.756184],[10.995,55.774524],[11.04,55.7725],[11.03,55.7806],[11.02,55.77925],[11.008667,55.785],[11.008667,55.785001]]}},{"type":"Feature","properties":{"depth":15,"source":"DDM 2024 coarse contour","resolution":"0.005 degree sampled grid","scope":"denmark","tileSource":"contours-denmark-coarse.geojson"},"geometry":{"type":"LineString","coordinates":[[10.985,55.355],[11.02,55.352],[11.016471,55.33],[11.00575,55.325],[11.016786,55.32],[11.01775,55.315],[11.001585,55.309999]]}},{"type":"Feature","properties":{"depth":15,"source":"DDM 2024 coarse contour","resolution":"0.005 degree sampled grid","scope":"denmark","tileSource":"contours-denmark-coarse.geojson"},"geometry":{"type":"LineString","coordinates":[[10.912678,55.309999],[10.94,55.34],[10.965,55.353019],[10.985,55.355]]}},{"type":"Feature","properties":{"depth":15,"source":"DDM 2024 coarse contour","resolution":"0.005 degree sampled grid","scope":"denmark","tileSource":"contours-denmark-coarse.geojson"},"geometry":{"type":"LineString","coordinates":[[10.925,55.318113],[10.920804,55.31],[10.920805,55.309999]]}},{"type":"Feature","properties":{"depth":15,"source":"DDM 2024 coarse contour","resolution":"0.005 degree sampled grid","scope":"denmark","tileSource":"contours-denmark-coarse.geojson"},"geometry":{"type":"LineString","coordinates":[[10.932553,55.309999],[10.932553,55.31],[10.925,55.318113]]}},{"type":"Feature","properties":{"depth":15,"source":"DDM 2024 coarse contour","resolution":"0.005 degree sampled grid","scope":"denmark","tileSource":"contours-denmark-coarse.geojson"},"geometry":{"type":"LineString","coordinates":[[11.013043,55.36],[11,55.355],[11.005,55.364375],[11.013043,55.36]]}},{"type":"Feature","properties":{"depth":15,"source":"DDM 2024 coarse contour","resolution":"0.005 degree sampled grid","scope":"denmark","tileSource":"contours-denmark-coarse.geojson"},"geometry":{"type":"LineString","coordinates":[[11.125,55.420741],[11.125,55.410833],[11.130313,55.415],[11.125,55.420741]]}},{"type":"Feature","properties":{"depth":15,"source":"DDM 2024 coarse contour","resolution":"0.005 degree sampled grid","scope":"denmark","tileSource":"contours-denmark-coarse.geojson"},"geometry":{"type":"LineString","coordinates":[[10.946596,55.515],[10.94,55.5075],[10.935385,55.51],[10.94,55.518571],[10.946596,55.515]]}},{"type":"Feature","properties":{"depth":15,"source":"DDM 2024 coarse contour","resolution":"0.005 degree sampled grid","scope":"denmark","tileSource":"contours-denmark-coarse.geojson"},"geometry":{"type":"LineString","coordinates":[[10.936087,55.54],[10.937625,55.53],[10.93,55.526154],[10.909737,55.535],[10.908846,55.54],[10.936087,55.54]]}},{"type":"Feature","properties":{"depth":15,"source":"DDM 2024 coarse contour","resolution":"0.005 degree sampled grid","scope":"denmark","tileSource":"contours-denmark-coarse.geojson"},"geometry":{"type":"LineString","coordinates":[[10.99,55.616518],[10.975909,55.615],[10.99,55.612821],[10.99,55.616518]]}},{"type":"Feature","properties":{"depth":15,"source":"DDM 2024 coarse contour","resolution":"0.005 degree sampled grid","scope":"denmark","tileSource":"contours-denmark-coarse.geojson"},"geometry":{"type":"LineString","coordinates":[[10.985,55.642083],[10.97,55.64],[10.973333,55.635],[10.985,55.635833],[10.985,55.642083]]}},{"type":"Feature","properties":{"depth":15,"source":"DDM 2024 coarse contour","resolution":"0.005 degree sampled grid","scope":"denmark","tileSource":"contours-denmark-coarse.geojson"},"geometry":{"type":"LineString","coordinates":[[10.858625,55.645],[10.855,55.64],[10.827959,55.645],[10.858625,55.645]]}},{"type":"Feature","properties":{"depth":15,"source":"DDM 2024 coarse contour","resolution":"0.005 degree sampled grid","scope":"denmark","tileSource":"contours-denmark-coarse.geojson"},"geometry":{"type":"LineString","coordinates":[[10.856429,55.72],[10.88,55.71],[10.88875,55.7],[10.87,55.669062],[10.859444,55.67],[10.85,55.677188],[10.825,55.715],[10.83,55.72375],[10.856429,55.72]]}},{"type":"Feature","properties":{"depth":15,"source":"DDM 2024 coarse contour","resolution":"0.005 degree sampled grid","scope":"denmark","tileSource":"contours-denmark-coarse.geojson"},"geometry":{"type":"LineString","coordinates":[[11.045,55.770556],[11.05,55.77],[11.046667,55.765],[11.05,55.763462],[11.07,55.765],[11.045,55.770556]]}},{"type":"Feature","properties":{"depth":20,"source":"DDM 2024 coarse contour","resolution":"0.005 degree sampled grid","scope":"denmark","tileSource":"contours-denmark-coarse.geojson"},"geometry":{"type":"LineString","coordinates":[[10.759999,55.559746],[10.78,55.555677],[10.825,55.510962],[10.826389,55.505],[10.817143,55.49],[10.83125,55.485],[10.871667,55.395],[10.865,55.393333],[10.845,55.41125],[10.83,55.414],[10.815,55.41],[10.809286,55.395],[10.825795,55.385],[10.820909,55.37],[10.834833,55.36],[10.833846,55.355],[10.855,55.316786],[10.863594,55.31],[10.863594,55.309999]]}},{"type":"Feature","properties":{"depth":20,"source":"DDM 2024 coarse contour","resolution":"0.005 degree sampled grid","scope":"denmark","tileSource":"contours-denmark-coarse.geojson"},"geometry":{"type":"LineString","coordinates":[[10.904559,55.309999],[10.930816,55.335],[10.908889,55.38],[10.915,55.383125],[10.94,55.366944],[10.945,55.370119],[10.965,55.364524],[10.975,55.36631],[10.985,55.358968],[11.005,55.366573],[11.02,55.365043],[11.025769,55.35],[11.016948,55.325],[11.02125,55.32],[11.02,55.311974],[11.010687,55.309999]]}},{"type":"Feature","properties":{"depth":20,"source":"DDM 2024 coarse contour","resolution":"0.005 degree sampled grid","scope":"denmark","tileSource":"contours-denmark-coarse.geojson"},"geometry":{"type":"LineString","coordinates":[[11.076092,55.309999],[11.07,55.311774],[11.06,55.332872],[11.05,55.325],[11.053636,55.33],[11.043194,55.335],[11.05,55.350064],[11.060071,55.355],[11.067195,55.39],[11.041176,55.405],[11.042,55.41],[11.03,55.4185],[11.014722,55.42],[11.0225,55.435],[11.035,55.447143],[11.045455,55.45],[11.011,55.495],[10.995,55.51075],[10.975,55.511026],[10.975909,55.52],[10.969459,55.525],[10.97125,55.535],[10.96,55.546034],[10.928182,55.56],[10.920714,55.575],[10.9,55.597171],[10.85553,55.615],[10.8425,55.625],[10.838,55.635],[10.825,55.636379],[10.815,55.650333],[10.805,55.638182],[10.794757,55.645],[10.8,55.654643],[10.805,55.652273],[10.812857,55.66],[10.803049,55.67],[10.805,55.672759],[10.81,55.665263],[10.815,55.666964],[10.835,55.652353],[10.857606,55.65],[10.85,55.66],[10.827857,55.67],[10.817917,55.68],[10.8225,55.685],[10.812059,55.71],[10.810938,55.725],[10.82,55.753953],[10.845,55.755286],[10.855,55.76],[10.859,55.77],[10.875,55.775942],[10.89,55.775568],[10.905,55.767778],[10.935,55.76837],[10.965,55.775],[10.974474,55.785001]]}},{"type":"Feature","properties":{"depth":20,"source":"DDM 2024 coarse contour","resolution":"0.005 degree sampled grid","scope":"denmark","tileSource":"contours-denmark-coarse.geojson"},"geometry":{"type":"LineString","coordinates":[[10.989973,55.785001],[10.99,55.785],[10.98,55.785],[10.98,55.785001]]}},{"type":"Feature","properties":{"depth":20,"source":"DDM 2024 coarse contour","resolution":"0.005 degree sampled grid","scope":"denmark","tileSource":"contours-denmark-coarse.geojson"},"geometry":{"type":"LineString","coordinates":[[11.05,55.325],[11.057462,55.32],[11.055,55.317241],[11.05,55.325],[11.045,55.3196],[11.039222,55.325],[11.05,55.325]]}},{"type":"Feature","properties":{"depth":20,"source":"DDM 2024 coarse contour","resolution":"0.005 degree sampled grid","scope":"denmark","tileSource":"contours-denmark-coarse.geojson"},"geometry":{"type":"LineString","coordinates":[[11.011071,55.445],[11.01,55.439583],[11.002083,55.445],[11.005,55.448043],[11.011071,55.445]]}},{"type":"Feature","properties":{"depth":20,"source":"DDM 2024 coarse contour","resolution":"0.005 degree sampled grid","scope":"denmark","tileSource":"contours-denmark-coarse.geojson"},"geometry":{"type":"LineString","coordinates":[[10.868,55.595],[10.892439,55.585],[10.905875,55.56],[10.92,55.546532],[10.941032,55.54],[10.955,55.511875],[10.97,55.445],[10.92,55.493571],[10.90898,55.495],[10.901579,55.505],[10.893929,55.535],[10.885,55.538478],[10.875,55.534018],[10.875,55.541531],[10.863125,55.545],[10.872778,55.55],[10.86939,55.56],[10.875,55.57],[10.864286,55.585],[10.848333,55.595],[10.868,55.595]]}},{"type":"Feature","properties":{"depth":20,"source":"DDM 2024 coarse contour","resolution":"0.005 degree sampled grid","scope":"denmark","tileSource":"contours-denmark-coarse.geojson"},"geometry":{"type":"LineString","coordinates":[[10.935,55.501538],[10.919375,55.5],[10.928333,55.49],[10.94,55.485714],[10.942143,55.49],[10.935,55.501538]]}},{"type":"Feature","properties":{"depth":20,"source":"DDM 2024 coarse contour","resolution":"0.005 degree sampled grid","scope":"denmark","tileSource":"contours-denmark-coarse.geojson"},"geometry":{"type":"LineString","coordinates":[[10.915,55.53019],[10.907051,55.525],[10.92,55.516],[10.922222,55.525],[10.915,55.53019]]}},{"type":"Feature","properties":{"depth":20,"source":"DDM 2024 coarse contour","resolution":"0.005 degree sampled grid","scope":"denmark","tileSource":"contours-denmark-coarse.geojson"},"geometry":{"type":"LineString","coordinates":[[10.801944,55.565],[10.807436,55.56],[10.8,55.555833],[10.797083,55.565],[10.801944,55.565]]}},{"type":"Feature","properties":{"depth":20,"source":"DDM 2024 coarse contour","resolution":"0.005 degree sampled grid","scope":"denmark","tileSource":"contours-denmark-coarse.geojson"},"geometry":{"type":"LineString","coordinates":[[10.7756,55.58],[10.780455,55.575],[10.769565,55.58],[10.7756,55.58]]}},{"type":"Feature","properties":{"depth":20,"source":"DDM 2024 coarse contour","resolution":"0.005 degree sampled grid","scope":"denmark","tileSource":"contours-denmark-coarse.geojson"},"geometry":{"type":"LineString","coordinates":[[10.885,55.646754],[10.866286,55.645],[10.91,55.632071],[10.942391,55.635],[10.925,55.639904],[10.91,55.638106],[10.885,55.646754]]}},{"type":"Feature","properties":{"depth":20,"source":"DDM 2024 coarse contour","resolution":"0.005 degree sampled grid","scope":"denmark","tileSource":"contours-denmark-coarse.geojson"},"geometry":{"type":"LineString","coordinates":[[10.778932,55.785001],[10.778947,55.755],[10.76,55.741875],[10.759999,55.741875]]}},{"type":"Feature","properties":{"depth":30,"source":"DDM 2024 coarse contour","resolution":"0.005 degree sampled grid","scope":"denmark","tileSource":"contours-denmark-coarse.geojson"},"geometry":{"type":"LineString","coordinates":[[11.02,55.405308],[11.009762,55.405],[11.02,55.395],[11.016071,55.385],[11.032007,55.355],[11.022244,55.33],[11.026476,55.315],[11.025824,55.309999]]}},{"type":"Feature","properties":{"depth":30,"source":"DDM 2024 coarse contour","resolution":"0.005 degree sampled grid","scope":"denmark","tileSource":"contours-denmark-coarse.geojson"},"geometry":{"type":"LineString","coordinates":[[11.053027,55.309999],[11.034601,55.325],[11.03615,55.335],[11.045038,55.345],[11.049714,55.37],[11.045,55.383065],[11.02,55.405308]]}},{"type":"Feature","properties":{"depth":30,"source":"DDM 2024 coarse contour","resolution":"0.005 degree sampled grid","scope":"denmark","tileSource":"contours-denmark-coarse.geojson"},"geometry":{"type":"LineString","coordinates":[[11.02,55.371739],[11.005345,55.37],[11.023077,55.37],[11.02,55.371739]]}},{"type":"Feature","properties":{"depth":30,"source":"DDM 2024 coarse contour","resolution":"0.005 degree sampled grid","scope":"denmark","tileSource":"contours-denmark-coarse.geojson"},"geometry":{"type":"LineString","coordinates":[[11.005,55.376603],[10.990205,55.375],[11.005,55.37037],[11.005,55.376603]]}},{"type":"Feature","properties":{"depth":30,"source":"DDM 2024 coarse contour","resolution":"0.005 degree sampled grid","scope":"denmark","tileSource":"contours-denmark-coarse.geojson"},"geometry":{"type":"LineString","coordinates":[[10.88,55.485833],[10.870714,55.485],[10.89,55.467],[10.895,55.471143],[10.9,55.46625],[10.9,55.4774],[10.89,55.47625],[10.885,55.4825],[10.88,55.48],[10.883333,55.485],[10.88,55.485833]]}},{"type":"Feature","properties":{"depth":30,"source":"DDM 2024 coarse contour","resolution":"0.005 degree sampled grid","scope":"denmark","tileSource":"contours-denmark-coarse.geojson"},"geometry":{"type":"LineString","coordinates":[[10.808834,55.785001],[10.795059,55.745],[10.781622,55.73],[10.77,55.706429],[10.759999,55.699652]]}},{"type":"Feature","properties":{"depth":30,"source":"DDM 2024 coarse contour","resolution":"0.005 degree sampled grid","scope":"denmark","tileSource":"contours-denmark-coarse.geojson"},"geometry":{"type":"LineString","coordinates":[[10.759999,55.638204],[10.766644,55.635],[10.759999,55.630855]]}},{"type":"Feature","properties":{"depth":30,"source":"DDM 2024 coarse contour","resolution":"0.005 degree sampled grid","scope":"denmark","tileSource":"contours-denmark-coarse.geojson"},"geometry":{"type":"LineString","coordinates":[[10.759999,55.625004],[10.76,55.625],[10.775,55.630617],[10.801,55.605],[10.831126,55.565],[10.846714,55.53],[10.85875,55.515],[10.861667,55.5],[10.846905,55.51],[10.83194,55.51],[10.86,55.488],[10.87,55.485333],[10.875,55.4972],[10.89,55.49],[10.895345,55.495],[10.876163,55.51],[10.867672,55.53],[10.854925,55.545],[10.851087,55.56],[10.818072,55.6],[10.815476,55.605],[10.8205,55.615],[10.79,55.644667],[10.766522,55.655],[10.759999,55.664827]]}},{"type":"Feature","properties":{"depth":30,"source":"DDM 2024 coarse contour","resolution":"0.005 degree sampled grid","scope":"denmark","tileSource":"contours-denmark-coarse.geojson"},"geometry":{"type":"LineString","coordinates":[[10.759999,55.665183],[10.769318,55.68],[10.8,55.708462],[10.816786,55.77],[10.827117,55.785001]]}},{"type":"Feature","properties":{"depth":30,"source":"DDM 2024 coarse contour","resolution":"0.005 degree sampled grid","scope":"denmark","tileSource":"contours-denmark-coarse.geojson"},"geometry":{"type":"LineString","coordinates":[[10.82,55.550071],[10.804429,55.545],[10.828507,55.525],[10.83,55.511733],[10.837075,55.53],[10.826053,55.545],[10.818,55.545],[10.82,55.550071]]}},{"type":"Feature","properties":{"depth":30,"source":"DDM 2024 coarse contour","resolution":"0.005 degree sampled grid","scope":"denmark","tileSource":"contours-denmark-coarse.geojson"},"geometry":{"type":"LineString","coordinates":[[10.92,55.563704],[10.91783,55.555],[10.922375,55.55],[10.942703,55.545],[10.92,55.563704]]}},{"type":"Feature","properties":{"depth":50,"source":"DDM 2024 coarse contour","resolution":"0.005 degree sampled grid","scope":"denmark","tileSource":"contours-denmark-coarse.geojson"},"geometry":{"type":"LineString","coordinates":[[10.8,55.747345],[10.8,55.734947],[10.803786,55.745],[10.8,55.747345]]}},{"type":"Feature","properties":{"depth":50,"source":"DDM 2024 coarse contour","resolution":"0.005 degree sampled grid","scope":"denmark","tileSource":"contours-denmark-coarse.geojson"},"geometry":{"type":"LineString","coordinates":[[10.81,55.777705],[10.803023,55.76],[10.805,55.746635],[10.813015,55.775],[10.81,55.777705]]}}]}