{"type":"FeatureCollection","name":"DDM contour tile r02_c00","bbox":[7.4,55.31,7.875,55.785],"metadata":{"schema":"waternav-ddm-contour-tile-v1","version":"v45.4","tileId":"r02_c00","source":"Danmarks Dybdemodel 2024 ddm_50m.dybde.tiff via bundled DDM contour GeoJSON files"},"features":[{"type":"Feature","properties":{"depth":5,"source":"DDM 2024 coarse contour","resolution":"0.005 degree sampled grid","scope":"denmark","tileSource":"contours-denmark-coarse.geojson"},"geometry":{"type":"LineString","coordinates":[[7.698333,55.565],[7.71,55.560962],[7.7325,55.56],[7.735,55.552692],[7.751786,55.55],[7.76,55.535758],[7.785,55.540222],[7.815,55.526875],[7.84,55.53013],[7.86,55.525054],[7.873056,55.52],[7.875001,55.515543]]}},{"type":"Feature","properties":{"depth":5,"source":"DDM 2024 coarse contour","resolution":"0.005 degree sampled grid","scope":"denmark","tileSource":"contours-denmark-coarse.geojson"},"geometry":{"type":"LineString","coordinates":[[7.875001,55.515012],[7.78,55.52],[7.775,55.523333],[7.77,55.5225],[7.755,55.535],[7.7425,55.535],[7.739167,55.54],[7.745,55.54],[7.745,55.549167],[7.73,55.546765],[7.725,55.543125],[7.715,55.551053],[7.675,55.554615],[7.67,55.5575],[7.655,55.55],[7.6575,55.555],[7.6525,55.56],[7.698333,55.565]]}},{"type":"Feature","properties":{"depth":5,"source":"DDM 2024 coarse contour","resolution":"0.005 degree sampled grid","scope":"denmark","tileSource":"contours-denmark-coarse.geojson"},"geometry":{"type":"LineString","coordinates":[[7.525,55.56],[7.53,55.558571],[7.535,55.550625],[7.545,55.549333],[7.55,55.543462],[7.565,55.548889],[7.595,55.55],[7.605,55.5475],[7.61,55.551364],[7.64,55.557187],[7.655,55.55],[7.64,55.546],[7.635,55.5475],[7.625,55.5425],[7.605,55.5425],[7.595,55.537692],[7.59,55.543043],[7.585,55.542187],[7.58,55.535667],[7.541875,55.54],[7.535,55.544831],[7.52,55.545],[7.51,55.554],[7.505,55.553077],[7.499583,55.56],[7.51,55.555769],[7.515,55.560333],[7.525,55.56]]}},{"type":"Feature","properties":{"depth":10,"source":"DDM 2024 coarse contour","resolution":"0.005 degree sampled grid","scope":"denmark","tileSource":"contours-denmark-coarse.geojson"},"geometry":{"type":"LineString","coordinates":[[7.875001,55.546195],[7.85,55.554167],[7.832222,55.565],[7.824,55.58],[7.865,55.59],[7.875,55.583846],[7.875001,55.583846]]}},{"type":"Feature","properties":{"depth":10,"source":"DDM 2024 coarse contour","resolution":"0.005 degree sampled grid","scope":"denmark","tileSource":"contours-denmark-coarse.geojson"},"geometry":{"type":"LineString","coordinates":[[7.475833,55.59],[7.55,55.568525],[7.565,55.570455],[7.586667,55.56],[7.595,55.569333],[7.615,55.564545],[7.68,55.572917],[7.725,55.5675],[7.8,55.537647],[7.845,55.531078],[7.875,55.521132],[7.875001,55.521131]]}},{"type":"Feature","properties":{"depth":10,"source":"DDM 2024 coarse contour","resolution":"0.005 degree sampled grid","scope":"denmark","tileSource":"contours-denmark-coarse.geojson"},"geometry":{"type":"LineString","coordinates":[[7.875001,55.447434],[7.825,55.448718],[7.795,55.463485],[7.78,55.457745],[7.776406,55.46],[7.7796,55.47],[7.775,55.474792],[7.76,55.482857],[7.749688,55.48],[7.754545,55.49],[7.7475,55.5],[7.764286,55.51],[7.76,55.516818],[7.75,55.516154],[7.715,55.533333],[7.675,55.542791],[7.62,55.527561],[7.605,55.535294],[7.58,55.531712],[7.54,55.53733],[7.535,55.542022],[7.52,55.537798],[7.485,55.553061],[7.448913,55.59],[7.475833,55.59]]}},{"type":"Feature","properties":{"depth":10,"source":"DDM 2024 coarse contour","resolution":"0.005 degree sampled grid","scope":"denmark","tileSource":"contours-denmark-coarse.geojson"},"geometry":{"type":"LineString","coordinates":[[7.83,55.509545],[7.785,55.505],[7.79,55.498793],[7.825,55.487308],[7.841429,55.495],[7.835,55.495],[7.835,55.505],[7.83,55.509545]]}},{"type":"Feature","properties":{"depth":10,"source":"DDM 2024 coarse contour","resolution":"0.005 degree sampled grid","scope":"denmark","tileSource":"contours-denmark-coarse.geojson"},"geometry":{"type":"LineString","coordinates":[[7.85,55.68],[7.852143,55.675],[7.844231,55.67],[7.829706,55.67],[7.84,55.68],[7.85,55.68]]}},{"type":"Feature","properties":{"depth":15,"source":"DDM 2024 coarse contour","resolution":"0.005 degree sampled grid","scope":"denmark","tileSource":"contours-denmark-coarse.geojson"},"geometry":{"type":"LineString","coordinates":[[7.875001,55.442973],[7.87,55.440682],[7.83,55.443171],[7.815,55.438537],[7.795,55.455781],[7.78,55.450217],[7.775,55.453103],[7.765,55.467955],[7.7475,55.465],[7.746667,55.475],[7.730938,55.495],[7.695,55.503333],[7.675,55.51875],[7.63,55.515227],[7.6,55.531058],[7.59,55.52125],[7.555682,55.535],[7.52,55.535505],[7.495,55.543231],[7.44375,55.58],[7.435,55.60125],[7.41875,55.615],[7.445,55.627222],[7.455,55.62],[7.495,55.615625],[7.525,55.603],[7.54,55.615],[7.58,55.625],[7.593077,55.635],[7.6075,55.655],[7.605,55.66],[7.589722,55.665],[7.592187,55.67],[7.583125,55.695],[7.562778,55.725],[7.585,55.76],[7.616667,55.74],[7.611667,55.735],[7.635,55.69],[7.655714,55.665],[7.67,55.658929],[7.7,55.662],[7.71,55.6575],[7.745,55.668438],[7.75,55.675],[7.762,55.665],[7.775,55.664286],[7.773333,55.675],[7.7775,55.68],[7.813571,55.69],[7.82,55.696316],[7.85,55.698824],[7.875001,55.69185]]}},{"type":"Feature","properties":{"depth":15,"source":"DDM 2024 coarse contour","resolution":"0.005 degree sampled grid","scope":"denmark","tileSource":"contours-denmark-coarse.geojson"},"geometry":{"type":"LineString","coordinates":[[7.875001,55.660501],[7.87,55.655],[7.83,55.665526],[7.83,55.659],[7.838333,55.655],[7.825,55.6475],[7.8,55.654342],[7.78,55.652188],[7.766364,55.64],[7.771429,55.62],[7.755,55.58],[7.766111,55.565],[7.785,55.551875],[7.875,55.522704],[7.875001,55.522703]]}},{"type":"Feature","properties":{"depth":15,"source":"DDM 2024 coarse contour","resolution":"0.005 degree sampled grid","scope":"denmark","tileSource":"contours-denmark-coarse.geojson"},"geometry":{"type":"LineString","coordinates":[[7.875001,55.541001],[7.835,55.559365],[7.818395,55.58],[7.825,55.589535],[7.845,55.597333],[7.8725,55.6],[7.875001,55.601429]]}},{"type":"Feature","properties":{"depth":15,"source":"DDM 2024 coarse contour","resolution":"0.005 degree sampled grid","scope":"denmark","tileSource":"contours-denmark-coarse.geojson"},"geometry":{"type":"LineString","coordinates":[[7.875001,55.327961],[7.87,55.326125],[7.862059,55.33],[7.875,55.335],[7.875001,55.334999]]}},{"type":"Feature","properties":{"depth":15,"source":"DDM 2024 coarse contour","resolution":"0.005 degree sampled grid","scope":"denmark","tileSource":"contours-denmark-coarse.geojson"},"geometry":{"type":"LineString","coordinates":[[7.72,55.485],[7.709211,55.48],[7.715,55.48625],[7.72,55.485]]}},{"type":"Feature","properties":{"depth":15,"source":"DDM 2024 coarse contour","resolution":"0.005 degree sampled grid","scope":"denmark","tileSource":"contours-denmark-coarse.geojson"},"geometry":{"type":"LineString","coordinates":[[7.533864,55.5],[7.525,55.495244],[7.518942,55.5],[7.53,55.505],[7.533864,55.5]]}},{"type":"Feature","properties":{"depth":15,"source":"DDM 2024 coarse contour","resolution":"0.005 degree sampled grid","scope":"denmark","tileSource":"contours-denmark-coarse.geojson"},"geometry":{"type":"LineString","coordinates":[[7.6575,55.51],[7.658214,55.505],[7.65,55.497976],[7.65,55.506429],[7.6575,55.51]]}},{"type":"Feature","properties":{"depth":15,"source":"DDM 2024 coarse contour","resolution":"0.005 degree sampled grid","scope":"denmark","tileSource":"contours-denmark-coarse.geojson"},"geometry":{"type":"LineString","coordinates":[[7.705,55.515909],[7.691364,55.515],[7.695,55.510556],[7.705,55.515909]]}},{"type":"Feature","properties":{"depth":15,"source":"DDM 2024 coarse contour","resolution":"0.005 degree sampled grid","scope":"denmark","tileSource":"contours-denmark-coarse.geojson"},"geometry":{"type":"LineString","coordinates":[[7.855,55.63],[7.86,55.62],[7.835385,55.62],[7.845,55.631],[7.855,55.63]]}},{"type":"Feature","properties":{"depth":15,"source":"DDM 2024 coarse contour","resolution":"0.005 degree sampled grid","scope":"denmark","tileSource":"contours-denmark-coarse.geojson"},"geometry":{"type":"LineString","coordinates":[[7.422222,55.635],[7.425,55.63],[7.415,55.622857],[7.404583,55.63],[7.415,55.636591],[7.422222,55.635]]}},{"type":"Feature","properties":{"depth":20,"source":"DDM 2024 coarse contour","resolution":"0.005 degree sampled grid","scope":"denmark","tileSource":"contours-denmark-coarse.geojson"},"geometry":{"type":"LineString","coordinates":[[7.4,55.677],[7.43,55.693333],[7.435,55.701154],[7.465,55.704286],[7.48,55.713333],[7.495,55.695],[7.52,55.6825],[7.54875,55.69],[7.552917,55.72],[7.530625,55.73],[7.492,55.785],[7.492002,55.785001]]}},{"type":"Feature","properties":{"depth":20,"source":"DDM 2024 coarse contour","resolution":"0.005 degree sampled grid","scope":"denmark","tileSource":"contours-denmark-coarse.geojson"},"geometry":{"type":"LineString","coordinates":[[7.702638,55.785001],[7.71125,55.775],[7.7,55.77],[7.74,55.735],[7.765,55.74],[7.78875,55.765],[7.815,55.77],[7.828751,55.785001]]}},{"type":"Feature","properties":{"depth":20,"source":"DDM 2024 coarse contour","resolution":"0.005 degree sampled grid","scope":"denmark","tileSource":"contours-denmark-coarse.geojson"},"geometry":{"type":"LineString","coordinates":[[7.875001,55.320649],[7.87,55.319839],[7.845,55.323],[7.840833,55.335],[7.83,55.34],[7.831667,55.345],[7.865,55.351667],[7.875001,55.373891]]}},{"type":"Feature","properties":{"depth":20,"source":"DDM 2024 coarse contour","resolution":"0.005 degree sampled grid","scope":"denmark","tileSource":"contours-denmark-coarse.geojson"},"geometry":{"type":"LineString","coordinates":[[7.875001,55.388541],[7.87,55.392083],[7.825,55.403333],[7.819,55.425],[7.808667,55.435],[7.765,55.450526],[7.74,55.4475],[7.735,55.457143],[7.717381,55.46],[7.726667,55.465],[7.72,55.471786],[7.7,55.475455],[7.685,55.486667],[7.655,55.491364],[7.64,55.487955],[7.635,55.49875],[7.6075,55.5],[7.599286,55.51],[7.557143,55.52],[7.555,55.530204],[7.515,55.530909],[7.505,55.535366],[7.5,55.5285],[7.492647,55.54],[7.426579,55.58],[7.425,55.589444],[7.4,55.612619]]}},{"type":"Feature","properties":{"depth":20,"source":"DDM 2024 coarse contour","resolution":"0.005 degree sampled grid","scope":"denmark","tileSource":"contours-denmark-coarse.geojson"},"geometry":{"type":"LineString","coordinates":[[7.438571,55.45],[7.439444,55.445],[7.435,55.443462],[7.427083,55.45],[7.438571,55.45]]}},{"type":"Feature","properties":{"depth":20,"source":"DDM 2024 coarse contour","resolution":"0.005 degree sampled grid","scope":"denmark","tileSource":"contours-denmark-coarse.geojson"},"geometry":{"type":"LineString","coordinates":[[7.539032,55.505],[7.53,55.49225],[7.52,55.492712],[7.513953,55.5],[7.525,55.509138],[7.539032,55.505]]}},{"type":"Feature","properties":{"depth":20,"source":"DDM 2024 coarse contour","resolution":"0.005 degree sampled grid","scope":"denmark","tileSource":"contours-denmark-coarse.geojson"},"geometry":{"type":"LineString","coordinates":[[7.81,55.5874],[7.7825,55.58],[7.795357,55.555],[7.815,55.543136],[7.865,55.528982],[7.875001,55.522495]]}},{"type":"Feature","properties":{"depth":20,"source":"DDM 2024 coarse contour","resolution":"0.005 degree sampled grid","scope":"denmark","tileSource":"contours-denmark-coarse.geojson"},"geometry":{"type":"LineString","coordinates":[[7.875001,55.534248],[7.835,55.555397],[7.81,55.5874]]}},{"type":"Feature","properties":{"depth":20,"source":"DDM 2024 coarse contour","resolution":"0.005 degree sampled grid","scope":"denmark","tileSource":"contours-denmark-coarse.geojson"},"geometry":{"type":"LineString","coordinates":[[7.795,55.615455],[7.784091,55.615],[7.79,55.61],[7.795,55.615455]]}},{"type":"Feature","properties":{"depth":20,"source":"DDM 2024 coarse contour","resolution":"0.005 degree sampled grid","scope":"denmark","tileSource":"contours-denmark-coarse.geojson"},"geometry":{"type":"LineString","coordinates":[[7.575,55.640682],[7.569706,55.635],[7.581167,55.635],[7.575,55.640682]]}},{"type":"Feature","properties":{"depth":20,"source":"DDM 2024 coarse contour","resolution":"0.005 degree sampled grid","scope":"denmark","tileSource":"contours-denmark-coarse.geojson"},"geometry":{"type":"LineString","coordinates":[[7.74,55.72],[7.73,55.72],[7.72,55.7075],[7.75,55.705],[7.755,55.71],[7.74,55.72]]}},{"type":"Feature","properties":{"depth":20,"source":"DDM 2024 coarse contour","resolution":"0.005 degree sampled grid","scope":"denmark","tileSource":"contours-denmark-coarse.geojson"},"geometry":{"type":"LineString","coordinates":[[7.445833,55.735],[7.435,55.7255],[7.425,55.725],[7.42,55.73],[7.435,55.739333],[7.445833,55.735]]}},{"type":"Feature","properties":{"depth":30,"source":"DDM 2024 coarse contour","resolution":"0.005 degree sampled grid","scope":"denmark","tileSource":"contours-denmark-coarse.geojson"},"geometry":{"type":"LineString","coordinates":[[7.515,55.416],[7.51,55.41],[7.51,55.399231],[7.523333,55.41],[7.515,55.416]]}},{"type":"Feature","properties":{"depth":30,"source":"DDM 2024 coarse contour","resolution":"0.005 degree sampled grid","scope":"denmark","tileSource":"contours-denmark-coarse.geojson"},"geometry":{"type":"LineString","coordinates":[[7.49,55.493],[7.465,55.485],[7.455,55.4755],[7.42,55.478333],[7.41,55.485],[7.405,55.48],[7.41,55.473],[7.4725,55.46],[7.48,55.445],[7.515,55.4475],[7.522143,55.46],[7.52,55.46375],[7.50625,55.46],[7.5,55.465],[7.49,55.493]]}},{"type":"Feature","properties":{"depth":30,"source":"DDM 2024 coarse contour","resolution":"0.005 degree sampled grid","scope":"denmark","tileSource":"contours-denmark-coarse.geojson"},"geometry":{"type":"LineString","coordinates":[[7.455,55.496667],[7.4425,55.495],[7.45,55.488333],[7.455,55.496667]]}},{"type":"Feature","properties":{"depth":30,"source":"DDM 2024 coarse contour","resolution":"0.005 degree sampled grid","scope":"denmark","tileSource":"contours-denmark-coarse.geojson"},"geometry":{"type":"LineString","coordinates":[[7.4,55.4925],[7.41,55.49],[7.44,55.5],[7.441667,55.51],[7.43,55.511111],[7.415,55.52],[7.4,55.5495]]}}]}