{"type":"FeatureCollection","name":"DDM contour tile r05_c09","bbox":[11.72,56.75,12.195,57.225],"metadata":{"schema":"waternav-ddm-contour-tile-v1","version":"v45.4","tileId":"r05_c09","source":"Danmarks Dybdemodel 2024 ddm_50m.dybde.tiff via bundled DDM contour GeoJSON files"},"features":[{"type":"Feature","properties":{"depth":1,"source":"DDM 2024 coarse contour","resolution":"0.005 degree sampled grid","scope":"denmark","tileSource":"contours-denmark-coarse.geojson"},"geometry":{"type":"LineString","coordinates":[[11.955188,56.749999],[11.950202,56.755],[11.950199,56.76],[11.930131,56.78],[11.930147,56.785],[11.91513,56.8],[11.915122,56.805],[11.875149,56.85],[11.875151,56.855],[11.855172,56.875],[11.855126,56.88],[11.840099,56.895],[11.840108,56.9],[11.820138,56.92],[11.820139,56.925],[11.800208,56.945],[11.800225,56.95],[11.780201,56.97],[11.780201,56.975],[11.735207,57.025],[11.735259,57.03],[11.719999,57.047389]]}},{"type":"Feature","properties":{"depth":2,"source":"DDM 2024 coarse contour","resolution":"0.005 degree sampled grid","scope":"denmark","tileSource":"contours-denmark-coarse.geojson"},"geometry":{"type":"LineString","coordinates":[[11.955183,56.749999],[11.950197,56.755],[11.950194,56.76],[11.930126,56.78],[11.930142,56.785],[11.915125,56.8],[11.915117,56.805],[11.875144,56.85],[11.875146,56.855],[11.855168,56.875],[11.855121,56.88],[11.840094,56.895],[11.840103,56.9],[11.820133,56.92],[11.820134,56.925],[11.800204,56.945],[11.80022,56.95],[11.780196,56.97],[11.780196,56.975],[11.735202,57.025],[11.735255,57.03],[11.719999,57.047384]]}},{"type":"Feature","properties":{"depth":3,"source":"DDM 2024 coarse contour","resolution":"0.005 degree sampled grid","scope":"denmark","tileSource":"contours-denmark-coarse.geojson"},"geometry":{"type":"LineString","coordinates":[[11.955178,56.749999],[11.950192,56.755],[11.950189,56.76],[11.930121,56.78],[11.930137,56.785],[11.91512,56.8],[11.915112,56.805],[11.875139,56.85],[11.875142,56.855],[11.855163,56.875],[11.855116,56.88],[11.840089,56.895],[11.840098,56.9],[11.820128,56.92],[11.820129,56.925],[11.800199,56.945],[11.800215,56.95],[11.780191,56.97],[11.780191,56.975],[11.735197,57.025],[11.73525,57.03],[11.719999,57.047379]]}},{"type":"Feature","properties":{"depth":3,"source":"DDM 2024 coarse contour","resolution":"0.005 degree sampled grid","scope":"denmark","tileSource":"contours-denmark-coarse.geojson"},"geometry":{"type":"LineString","coordinates":[[11.730556,56.75],[11.73055,56.749999]]}},{"type":"Feature","properties":{"depth":3,"source":"DDM 2024 coarse contour","resolution":"0.005 degree sampled grid","scope":"denmark","tileSource":"contours-denmark-coarse.geojson"},"geometry":{"type":"LineString","coordinates":[[11.719999,56.75],[11.730556,56.75]]}},{"type":"Feature","properties":{"depth":5,"source":"DDM 2024 coarse contour","resolution":"0.005 degree sampled grid","scope":"denmark","tileSource":"contours-denmark-coarse.geojson"},"geometry":{"type":"LineString","coordinates":[[11.955168,56.749999],[11.950182,56.755],[11.95018,56.76],[11.930111,56.78],[11.930128,56.785],[11.915111,56.8],[11.915102,56.805],[11.87513,56.85],[11.875132,56.855],[11.855153,56.875],[11.855106,56.88],[11.840079,56.895],[11.840089,56.9],[11.820118,56.92],[11.82012,56.925],[11.800189,56.945],[11.800206,56.95],[11.780181,56.97],[11.780182,56.975],[11.735187,57.025],[11.73524,57.03],[11.719999,57.047368]]}},{"type":"Feature","properties":{"depth":5,"source":"DDM 2024 coarse contour","resolution":"0.005 degree sampled grid","scope":"denmark","tileSource":"contours-denmark-coarse.geojson"},"geometry":{"type":"LineString","coordinates":[[11.719999,56.75],[11.74875,56.75],[11.748745,56.749999]]}},{"type":"Feature","properties":{"depth":10,"source":"DDM 2024 coarse contour","resolution":"0.005 degree sampled grid","scope":"denmark","tileSource":"contours-denmark-coarse.geojson"},"geometry":{"type":"LineString","coordinates":[[11.955097,56.749999],[11.930087,56.78],[11.915078,56.805],[11.855129,56.875],[11.780158,56.975],[11.735163,57.025],[11.735217,57.03],[11.719999,57.048244]]}},{"type":"Feature","properties":{"depth":10,"source":"DDM 2024 coarse contour","resolution":"0.005 degree sampled grid","scope":"denmark","tileSource":"contours-denmark-coarse.geojson"},"geometry":{"type":"LineString","coordinates":[[11.719999,56.752193],[11.820963,56.755],[11.805594,56.749999]]}},{"type":"Feature","properties":{"depth":15,"source":"DDM 2024 coarse contour","resolution":"0.005 degree sampled grid","scope":"denmark","tileSource":"contours-denmark-coarse.geojson"},"geometry":{"type":"LineString","coordinates":[[11.719999,56.7547],[11.78,56.755287],[11.815,56.759593],[11.822815,56.755],[11.810671,56.749999]]}},{"type":"Feature","properties":{"depth":15,"source":"DDM 2024 coarse contour","resolution":"0.005 degree sampled grid","scope":"denmark","tileSource":"contours-denmark-coarse.geojson"},"geometry":{"type":"LineString","coordinates":[[11.956116,56.749999],[11.950132,56.76],[11.930062,56.78],[11.915054,56.805],[11.855105,56.875],[11.780134,56.975],[11.735139,57.025],[11.735193,57.03],[11.719999,57.048216]]}},{"type":"Feature","properties":{"depth":20,"source":"DDM 2024 coarse contour","resolution":"0.005 degree sampled grid","scope":"denmark","tileSource":"contours-denmark-coarse.geojson"},"geometry":{"type":"LineString","coordinates":[[11.719999,56.758206],[11.775,56.757007],[11.815,56.760694],[11.824667,56.755],[11.814721,56.749999]]}},{"type":"Feature","properties":{"depth":20,"source":"DDM 2024 coarse contour","resolution":"0.005 degree sampled grid","scope":"denmark","tileSource":"contours-denmark-coarse.geojson"},"geometry":{"type":"LineString","coordinates":[[11.956092,56.749999],[11.950108,56.76],[11.930038,56.78],[11.915029,56.805],[11.855081,56.875],[11.78011,56.975],[11.735116,57.025],[11.735169,57.03],[11.719999,57.048187]]}},{"type":"Feature","properties":{"depth":30,"source":"DDM 2024 coarse contour","resolution":"0.005 degree sampled grid","scope":"denmark","tileSource":"contours-denmark-coarse.geojson"},"geometry":{"type":"LineString","coordinates":[[11.719999,56.878712],[11.724194,56.875],[11.719999,56.860899]]}},{"type":"Feature","properties":{"depth":30,"source":"DDM 2024 coarse contour","resolution":"0.005 degree sampled grid","scope":"denmark","tileSource":"contours-denmark-coarse.geojson"},"geometry":{"type":"LineString","coordinates":[[11.719999,56.775454],[11.735,56.767632],[11.74,56.759738],[11.767778,56.76],[11.771111,56.77],[11.77875,56.775],[11.799524,56.77],[11.82213,56.76],[11.830583,56.749999]]}},{"type":"Feature","properties":{"depth":30,"source":"DDM 2024 coarse contour","resolution":"0.005 degree sampled grid","scope":"denmark","tileSource":"contours-denmark-coarse.geojson"},"geometry":{"type":"LineString","coordinates":[[11.956044,56.749999],[11.95006,56.76],[11.935,56.775011],[11.918919,56.78],[11.930006,56.785],[11.92,56.793152],[11.89878,56.8],[11.905,56.815],[11.895,56.8275],[11.89,56.82],[11.890001,56.835],[11.855,56.878384],[11.829062,56.88],[11.812619,56.905],[11.819342,56.915],[11.819583,56.925],[11.735068,57.025],[11.735122,57.03],[11.719999,57.04813]]}},{"type":"Feature","properties":{"depth":30,"source":"DDM 2024 coarse contour","resolution":"0.005 degree sampled grid","scope":"denmark","tileSource":"contours-denmark-coarse.geojson"},"geometry":{"type":"LineString","coordinates":[[11.859167,56.785],[11.869091,56.775],[11.865556,56.765],[11.857308,56.76],[11.8176,56.78],[11.835,56.785444],[11.859167,56.785]]}},{"type":"Feature","properties":{"depth":30,"source":"DDM 2024 coarse contour","resolution":"0.005 degree sampled grid","scope":"denmark","tileSource":"contours-denmark-coarse.geojson"},"geometry":{"type":"LineString","coordinates":[[11.751164,56.775],[11.759167,56.765],[11.75,56.764412],[11.7425,56.77],[11.7445,56.775],[11.751164,56.775]]}},{"type":"Feature","properties":{"depth":30,"source":"DDM 2024 coarse contour","resolution":"0.005 degree sampled grid","scope":"denmark","tileSource":"contours-denmark-coarse.geojson"},"geometry":{"type":"LineString","coordinates":[[11.906852,56.78],[11.915714,56.77],[11.905,56.772761],[11.903649,56.78],[11.906852,56.78]]}},{"type":"Feature","properties":{"depth":30,"source":"DDM 2024 coarse contour","resolution":"0.005 degree sampled grid","scope":"denmark","tileSource":"contours-denmark-coarse.geojson"},"geometry":{"type":"LineString","coordinates":[[11.780351,56.825],[11.782714,56.82],[11.775,56.798696],[11.748333,56.79],[11.747391,56.81],[11.755,56.827333],[11.780351,56.825]]}},{"type":"Feature","properties":{"depth":30,"source":"DDM 2024 coarse contour","resolution":"0.005 degree sampled grid","scope":"denmark","tileSource":"contours-denmark-coarse.geojson"},"geometry":{"type":"LineString","coordinates":[[11.837553,56.83],[11.843667,56.815],[11.819593,56.815],[11.82,56.8282],[11.837553,56.83]]}},{"type":"Feature","properties":{"depth":30,"source":"DDM 2024 coarse contour","resolution":"0.005 degree sampled grid","scope":"denmark","tileSource":"contours-denmark-coarse.geojson"},"geometry":{"type":"LineString","coordinates":[[11.848226,56.86],[11.855,56.855],[11.845,56.847319],[11.827981,56.85],[11.824805,56.855],[11.825625,56.86],[11.835,56.86449],[11.848226,56.86]]}},{"type":"Feature","properties":{"depth":30,"source":"DDM 2024 coarse contour","resolution":"0.005 degree sampled grid","scope":"denmark","tileSource":"contours-denmark-coarse.geojson"},"geometry":{"type":"LineString","coordinates":[[11.726792,56.94],[11.73,56.932787],[11.743302,56.93],[11.745,56.92],[11.74,56.9075],[11.735,56.905806],[11.725,56.916136],[11.719999,56.917107]]}},{"type":"Feature","properties":{"depth":30,"source":"DDM 2024 coarse contour","resolution":"0.005 degree sampled grid","scope":"denmark","tileSource":"contours-denmark-coarse.geojson"},"geometry":{"type":"LineString","coordinates":[[11.719999,56.940788],[11.726792,56.94]]}},{"type":"Feature","properties":{"depth":30,"source":"DDM 2024 coarse contour","resolution":"0.005 degree sampled grid","scope":"denmark","tileSource":"contours-denmark-coarse.geojson"},"geometry":{"type":"LineString","coordinates":[[11.729545,56.99],[11.728362,56.985],[11.719999,56.985]]}},{"type":"Feature","properties":{"depth":30,"source":"DDM 2024 coarse contour","resolution":"0.005 degree sampled grid","scope":"denmark","tileSource":"contours-denmark-coarse.geojson"},"geometry":{"type":"LineString","coordinates":[[11.719999,56.991244],[11.72,56.99125],[11.729545,56.99]]}},{"type":"Feature","properties":{"depth":50,"source":"DDM 2024 coarse contour","resolution":"0.005 degree sampled grid","scope":"denmark","tileSource":"contours-denmark-coarse.geojson"},"geometry":{"type":"LineString","coordinates":[[11.845,56.760442],[11.835,56.763941],[11.830864,56.76],[11.837676,56.749999]]}},{"type":"Feature","properties":{"depth":50,"source":"DDM 2024 coarse contour","resolution":"0.005 degree sampled grid","scope":"denmark","tileSource":"contours-denmark-coarse.geojson"},"geometry":{"type":"LineString","coordinates":[[11.854768,56.749999],[11.845,56.760442]]}},{"type":"Feature","properties":{"depth":50,"source":"DDM 2024 coarse contour","resolution":"0.005 degree sampled grid","scope":"denmark","tileSource":"contours-denmark-coarse.geojson"},"geometry":{"type":"LineString","coordinates":[[11.79,56.785732],[11.783833,56.78],[11.82,56.763265],[11.83,56.760538],[11.834328,56.765],[11.82,56.775022],[11.79,56.785732]]}},{"type":"Feature","properties":{"depth":50,"source":"DDM 2024 coarse contour","resolution":"0.005 degree sampled grid","scope":"denmark","tileSource":"contours-denmark-coarse.geojson"},"geometry":{"type":"LineString","coordinates":[[11.79,56.831007],[11.78,56.833937],[11.778067,56.83],[11.795,56.814352],[11.805,56.811],[11.809255,56.815],[11.8,56.826695],[11.79,56.831007]]}},{"type":"Feature","properties":{"depth":50,"source":"DDM 2024 coarse contour","resolution":"0.005 degree sampled grid","scope":"denmark","tileSource":"contours-denmark-coarse.geojson"},"geometry":{"type":"LineString","coordinates":[[11.79,56.851808],[11.78,56.85459],[11.776159,56.85],[11.79,56.842431],[11.798273,56.845],[11.79,56.851808]]}},{"type":"Feature","properties":{"depth":50,"source":"DDM 2024 coarse contour","resolution":"0.005 degree sampled grid","scope":"denmark","tileSource":"contours-denmark-coarse.geojson"},"geometry":{"type":"LineString","coordinates":[[11.719999,56.968015],[11.725571,56.965],[11.726919,56.96],[11.719999,56.957571]]}},{"type":"Feature","properties":{"depth":50,"source":"DDM 2024 coarse contour","resolution":"0.005 degree sampled grid","scope":"denmark","tileSource":"contours-denmark-coarse.geojson"},"geometry":{"type":"LineString","coordinates":[[11.719999,56.951642],[11.74,56.952804],[11.754194,56.945],[11.742289,56.94],[11.745,56.937186],[11.755,56.937414],[11.775,56.927688],[11.775,56.914778],[11.763391,56.895],[11.767727,56.885],[11.765,56.877727],[11.730948,56.895],[11.719999,56.905983]]}},{"type":"Feature","properties":{"depth":50,"source":"DDM 2024 coarse contour","resolution":"0.005 degree sampled grid","scope":"denmark","tileSource":"contours-denmark-coarse.geojson"},"geometry":{"type":"LineString","coordinates":[[11.719999,56.886648],[11.733269,56.88],[11.755,56.84625],[11.765,56.85378],[11.777333,56.855],[11.767925,56.865],[11.767381,56.87],[11.775,56.874167],[11.8,56.871148],[11.81,56.86528],[11.86,56.869414],[11.805,56.878158],[11.8,56.883077],[11.795,56.879139],[11.78234,56.88],[11.781444,56.885],[11.798099,56.89],[11.794088,56.9],[11.798125,56.93],[11.792683,56.945],[11.796935,56.95],[11.785,56.952553],[11.765,56.968966],[11.755,56.968721],[11.760385,56.985],[11.75,57.010013],[11.745172,57.01],[11.738,57],[11.746129,56.98],[11.74,56.972193],[11.719999,56.982578]]}},{"type":"Feature","properties":{"depth":50,"source":"DDM 2024 coarse contour","resolution":"0.005 degree sampled grid","scope":"denmark","tileSource":"contours-denmark-coarse.geojson"},"geometry":{"type":"LineString","coordinates":[[11.719999,57.029065],[11.735,57.027543],[11.719999,57.045565]]}}]}