{"type":"FeatureCollection","name":"DDM contour tile r05_c03","bbox":[8.84,56.75,9.315,57.225],"metadata":{"schema":"waternav-ddm-contour-tile-v1","version":"v45.4","tileId":"r05_c03","source":"Danmarks Dybdemodel 2024 ddm_50m.dybde.tiff via bundled DDM contour GeoJSON files"},"features":[{"type":"Feature","properties":{"depth":1,"source":"DDM 2024 coarse contour","resolution":"0.005 degree sampled grid","scope":"denmark","tileSource":"contours-denmark-coarse.geojson"},"geometry":{"type":"LineString","coordinates":[[8.86002,56.749999],[8.865,56.75497],[8.870006,56.755],[8.865014,56.76],[8.87,56.764996],[8.88,56.765353],[8.885,56.769957],[8.91,56.775909],[8.93,56.794987],[8.94,56.795],[8.945,56.799992],[8.955,56.800357],[8.96,56.804971],[8.965,56.80499],[8.97,56.800633],[8.99,56.79995],[8.995,56.794994],[9.005,56.794982],[9.01,56.789989],[9.023333,56.79],[9.023864,56.795],[9.02,56.800044],[9.01,56.800005],[9.005,56.795018],[9,56.795014],[8.99,56.805004],[8.975,56.810037],[8.965,56.825008],[8.950003,56.835],[8.955,56.839996],[8.98,56.840305],[8.985,56.844977],[9.015,56.845862],[9.02,56.849989],[9.05,56.849995],[9.064989,56.84],[9.059988,56.835],[9.065,56.830238],[9.076053,56.83],[9.075952,56.825],[9.06,56.815038],[9.045,56.820002],[9.04,56.815037],[9.03,56.815003],[9.024991,56.81],[9.025,56.804993],[9.07,56.804979],[9.075,56.800662],[9.085,56.799993],[9.1,56.791406],[9.11,56.789976],[9.114959,56.785],[9.109998,56.78],[9.110333,56.775],[9.126839,56.749999]]}},{"type":"Feature","properties":{"depth":1,"source":"DDM 2024 coarse contour","resolution":"0.005 degree sampled grid","scope":"denmark","tileSource":"contours-denmark-coarse.geojson"},"geometry":{"type":"LineString","coordinates":[[9.239048,56.749999],[9.239048,56.75],[9.23,56.76],[9.22,56.760031],[9.215,56.764398],[9.185,56.765],[9.180009,56.77],[9.1846,56.775],[9.185006,56.785],[9.165021,56.81],[9.19,56.825469],[9.199062,56.835],[9.207857,56.855],[9.204091,56.865],[9.195,56.87325],[9.185,56.875006],[9.165,56.887826],[9.170014,56.91],[9.18,56.924988],[9.188269,56.925],[9.195012,56.93],[9.195016,56.935],[9.2,56.939998],[9.207692,56.94],[9.213571,56.945],[9.212812,56.955],[9.208,56.96],[9.215,56.967857],[9.2225,56.97],[9.211667,56.975],[9.195,56.997],[9.173889,57],[9.16,57.01],[9.11,57.026],[9.1,57.02],[9.085,57.023],[9.04,57.005002],[9.035,57.005005],[9.03,57.014],[9.02,57.009762],[9.0225,57.015],[9.005,57.0188],[8.984375,57.015],[8.965,57.000008],[8.96,57.000012],[8.955,57.005003],[8.94,57.004322],[8.935,57.000019],[8.925,56.999079],[8.915541,56.985],[8.915,56.978611],[8.9,56.970009],[8.895,56.970008],[8.885002,56.98],[8.883214,56.99],[8.87,56.990008],[8.865,56.99473],[8.855,56.988889],[8.85,56.993235],[8.839999,56.991852]]}},{"type":"Feature","properties":{"depth":1,"source":"DDM 2024 coarse contour","resolution":"0.005 degree sampled grid","scope":"denmark","tileSource":"contours-denmark-coarse.geojson"},"geometry":{"type":"LineString","coordinates":[[8.839999,56.984994],[8.845,56.984986],[8.850714,56.975],[8.845,56.970012],[8.839999,56.969756]]}},{"type":"Feature","properties":{"depth":1,"source":"DDM 2024 coarse contour","resolution":"0.005 degree sampled grid","scope":"denmark","tileSource":"contours-denmark-coarse.geojson"},"geometry":{"type":"LineString","coordinates":[[8.839999,57.114985],[8.85,57.11499],[8.855,57.119979],[8.87,57.119995],[8.875,57.124979],[8.885,57.124984],[8.89,57.129981],[8.915,57.134998],[8.93,57.144981],[8.94,57.144994],[8.965,57.159983],[9.05,57.159982],[9.055,57.154998],[9.07,57.154981],[9.075,57.149992],[9.09,57.149985],[9.097143,57.145],[9.135,57.144985],[9.14375,57.14],[9.20625,57.14],[9.215,57.144984],[9.273333,57.145],[9.28,57.149985],[9.295,57.149992],[9.3,57.154983],[9.315001,57.155522]]}},{"type":"Feature","properties":{"depth":1,"source":"DDM 2024 coarse contour","resolution":"0.005 degree sampled grid","scope":"denmark","tileSource":"contours-denmark-coarse.geojson"},"geometry":{"type":"LineString","coordinates":[[8.9445,56.98],[8.93,56.972647],[8.928077,56.965],[8.91,56.952143],[8.910147,56.945],[8.915256,56.94],[8.915,56.931522],[8.92499,56.92],[8.909998,56.905],[8.909994,56.895],[8.900135,56.885],[8.895,56.873333],[8.894995,56.865],[8.89,56.859167],[8.8825,56.865],[8.884348,56.87],[8.88,56.876667],[8.875,56.87381],[8.865,56.875016],[8.857222,56.885],[8.848214,56.885],[8.846389,56.88],[8.85,56.875],[8.845,56.875833],[8.839999,56.872936]]}},{"type":"Feature","properties":{"depth":1,"source":"DDM 2024 coarse contour","resolution":"0.005 degree sampled grid","scope":"denmark","tileSource":"contours-denmark-coarse.geojson"},"geometry":{"type":"LineString","coordinates":[[8.839999,56.854972],[8.845,56.83125],[8.86,56.816053],[8.8775,56.805],[8.879998,56.79],[8.875,56.785009],[8.870007,56.79],[8.87,56.795],[8.85625,56.79],[8.865,56.787083],[8.865132,56.78],[8.86,56.775037],[8.846739,56.775],[8.84,56.7625],[8.84,56.752857],[8.839999,56.752856]]}},{"type":"Feature","properties":{"depth":1,"source":"DDM 2024 coarse contour","resolution":"0.005 degree sampled grid","scope":"denmark","tileSource":"contours-denmark-coarse.geojson"},"geometry":{"type":"LineString","coordinates":[[8.839999,56.939746],[8.848077,56.945],[8.86,56.959971],[8.865,56.954979],[8.9,56.955179],[8.925,56.975321],[8.935,56.975625],[8.94,56.983462],[8.9445,56.98]]}},{"type":"Feature","properties":{"depth":1,"source":"DDM 2024 coarse contour","resolution":"0.005 degree sampled grid","scope":"denmark","tileSource":"contours-denmark-coarse.geojson"},"geometry":{"type":"LineString","coordinates":[[9.088182,56.905],[9.104981,56.89],[9.095,56.87913],[9.075,56.885004],[9.06501,56.895],[9.075,56.904983],[9.088182,56.905]]}},{"type":"Feature","properties":{"depth":1,"source":"DDM 2024 coarse contour","resolution":"0.005 degree sampled grid","scope":"denmark","tileSource":"contours-denmark-coarse.geojson"},"geometry":{"type":"LineString","coordinates":[[9.23,56.968333],[9.225,56.968571],[9.217,56.96],[9.23,56.95625],[9.233409,56.96],[9.23,56.968333]]}},{"type":"Feature","properties":{"depth":1,"source":"DDM 2024 coarse contour","resolution":"0.005 degree sampled grid","scope":"denmark","tileSource":"contours-denmark-coarse.geojson"},"geometry":{"type":"LineString","coordinates":[[9.25,56.976111],[9.235,56.974868],[9.230256,56.97],[9.235,56.965488],[9.24,56.96998],[9.25,56.969987],[9.253333,56.975],[9.25,56.976111]]}},{"type":"Feature","properties":{"depth":1,"source":"DDM 2024 coarse contour","resolution":"0.005 degree sampled grid","scope":"denmark","tileSource":"contours-denmark-coarse.geojson"},"geometry":{"type":"LineString","coordinates":[[9.295,57.00007],[9.272692,56.995],[9.258571,56.98],[9.2655,56.975],[9.275,56.975325],[9.290001,56.995],[9.295,56.99993],[9.299704,57],[9.295,57.00007]]}},{"type":"Feature","properties":{"depth":1,"source":"DDM 2024 coarse contour","resolution":"0.005 degree sampled grid","scope":"denmark","tileSource":"contours-denmark-coarse.geojson"},"geometry":{"type":"LineString","coordinates":[[9.315001,57.010015],[9.305278,57.01],[9.3,57.0045],[9.315001,57.004758]]}},{"type":"Feature","properties":{"depth":2,"source":"DDM 2024 coarse contour","resolution":"0.005 degree sampled grid","scope":"denmark","tileSource":"contours-denmark-coarse.geojson"},"geometry":{"type":"LineString","coordinates":[[8.839999,57.11499],[8.85,57.114995],[8.855,57.119984],[8.87,57.12],[8.875,57.124984],[8.885,57.124989],[8.89,57.129986],[8.9,57.129996],[8.905,57.134982],[8.914211,57.135],[8.93,57.144986],[8.94,57.144999],[8.965,57.159988],[9.05,57.159987],[9.056563,57.155],[9.07,57.154986],[9.075,57.149997],[9.09,57.14999],[9.10375,57.145],[9.135,57.14499],[9.152,57.14],[9.2005,57.14],[9.215,57.144989],[9.27,57.145],[9.28,57.14999],[9.295,57.149997],[9.3,57.154988],[9.315001,57.154999]]}},{"type":"Feature","properties":{"depth":2,"source":"DDM 2024 coarse contour","resolution":"0.005 degree sampled grid","scope":"denmark","tileSource":"contours-denmark-coarse.geojson"},"geometry":{"type":"LineString","coordinates":[[9.125,57.017059],[9.08,57.017619],[9.06,57.011905],[9.050769,57.005],[9.05,57],[9.045,57.000625],[9.035,56.99375],[9.035,57.005],[9.03,57.008571],[9.02,57.008571],[9.01,57.016429],[8.993,57.015],[8.965,57.000003],[8.96,57.000007],[8.955,57.004412],[8.927742,57],[8.916892,56.985],[8.918571,56.98],[8.915,56.975833],[8.9,56.970004],[8.885,56.97625],[8.879167,56.99],[8.87,56.990003],[8.865,56.993378],[8.855,56.987037],[8.845,56.99125],[8.839999,56.990874]]}},{"type":"Feature","properties":{"depth":2,"source":"DDM 2024 coarse contour","resolution":"0.005 degree sampled grid","scope":"denmark","tileSource":"contours-denmark-coarse.geojson"},"geometry":{"type":"LineString","coordinates":[[8.839999,56.986499],[8.845,56.984991],[8.852143,56.975],[8.839999,56.969517]]}},{"type":"Feature","properties":{"depth":2,"source":"DDM 2024 coarse contour","resolution":"0.005 degree sampled grid","scope":"denmark","tileSource":"contours-denmark-coarse.geojson"},"geometry":{"type":"LineString","coordinates":[[8.860023,56.749999],[8.865,56.754975],[8.870001,56.755],[8.865009,56.76],[8.87,56.765045],[8.88,56.765941],[8.885,56.769962],[8.91,56.777045],[8.93,56.794992],[8.955,56.800952],[8.96,56.804976],[8.97,56.801266],[8.99,56.799955],[8.995,56.794999],[9.005,56.794987],[9.01,56.789994],[9.015,56.793065],[9.02,56.791818],[9.02,56.800039],[9.01,56.8],[9.005,56.795013],[9,56.795009],[8.989932,56.805],[8.975,56.810032],[8.965,56.825003],[8.951818,56.83],[8.95,56.837],[8.96,56.841552],[8.98,56.840915],[8.985,56.844982],[9.04,56.850556],[9.075,56.845083],[9.08,56.849976],[9.084956,56.845],[9.08,56.84003],[9.075,56.8449],[9.065,56.843421],[9.059993,56.835],[9.065,56.831429],[9.078684,56.83],[9.078333,56.825],[9.06,56.815033],[9.045,56.819516],[9.04,56.815032],[9.030385,56.815],[9.024996,56.81],[9.024998,56.805],[9.07,56.804984],[9.11,56.789981],[9.114964,56.785],[9.110357,56.78],[9.111444,56.775],[9.12,56.76629],[9.128821,56.749999]]}},{"type":"Feature","properties":{"depth":2,"source":"DDM 2024 coarse contour","resolution":"0.005 degree sampled grid","scope":"denmark","tileSource":"contours-denmark-coarse.geojson"},"geometry":{"type":"LineString","coordinates":[[9.234743,56.749999],[9.227727,56.76],[9.22,56.760026],[9.215,56.763795],[9.18,56.765],[9.185001,56.785],[9.17,56.805001],[9.164535,56.805],[9.17,56.814988],[9.182344,56.82],[9.1975,56.835],[9.2038,56.85],[9.20375,56.86],[9.2,56.866905],[9.165682,56.885],[9.162917,56.89],[9.175005,56.92],[9.18,56.924993],[9.186346,56.925],[9.195,56.929993],[9.198684,56.94],[9.21,56.945],[9.209286,56.955],[9.184167,56.965],[9.18875,56.97],[9.203,56.975],[9.201818,56.98],[9.185,56.993077],[9.125,57.017059]]}},{"type":"Feature","properties":{"depth":2,"source":"DDM 2024 coarse contour","resolution":"0.005 degree sampled grid","scope":"denmark","tileSource":"contours-denmark-coarse.geojson"},"geometry":{"type":"LineString","coordinates":[[8.941765,56.985],[8.950294,56.98],[8.931667,56.97],[8.93119,56.965],[8.912903,56.955],[8.910714,56.95],[8.916538,56.94],[8.915,56.933696],[8.924995,56.92],[8.923214,56.915],[8.910732,56.905],[8.909999,56.895],[8.901486,56.885],[8.89125,56.855],[8.881667,56.855],[8.88,56.872941],[8.87,56.872368],[8.855,56.883966],[8.849167,56.88],[8.853125,56.875],[8.839999,56.869166]]}},{"type":"Feature","properties":{"depth":2,"source":"DDM 2024 coarse contour","resolution":"0.005 degree sampled grid","scope":"denmark","tileSource":"contours-denmark-coarse.geojson"},"geometry":{"type":"LineString","coordinates":[[8.839999,56.854996],[8.845,56.833333],[8.86,56.817368],[8.88,56.805],[8.880179,56.785],[8.875,56.785004],[8.87,56.791538],[8.867143,56.79],[8.865789,56.78],[8.86,56.775032],[8.848913,56.775],[8.840484,56.76],[8.840109,56.75],[8.840108,56.749999]]}},{"type":"Feature","properties":{"depth":2,"source":"DDM 2024 coarse contour","resolution":"0.005 degree sampled grid","scope":"denmark","tileSource":"contours-denmark-coarse.geojson"},"geometry":{"type":"LineString","coordinates":[[8.839999,56.942842],[8.86,56.959976],[8.865,56.954984],[8.9,56.956964],[8.941765,56.985]]}},{"type":"Feature","properties":{"depth":2,"source":"DDM 2024 coarse contour","resolution":"0.005 degree sampled grid","scope":"denmark","tileSource":"contours-denmark-coarse.geojson"},"geometry":{"type":"LineString","coordinates":[[9.090857,56.905],[9.104986,56.89],[9.1,56.881111],[9.111923,56.87],[9.11,56.868333],[9.103333,56.87],[9.090882,56.88],[9.075,56.884815],[9.065005,56.895],[9.075,56.904988],[9.090857,56.905]]}},{"type":"Feature","properties":{"depth":2,"source":"DDM 2024 coarse contour","resolution":"0.005 degree sampled grid","scope":"denmark","tileSource":"contours-denmark-coarse.geojson"},"geometry":{"type":"LineString","coordinates":[[8.950508,56.935],[8.945,56.9245],[8.944255,56.935],[8.950508,56.935]]}},{"type":"Feature","properties":{"depth":2,"source":"DDM 2024 coarse contour","resolution":"0.005 degree sampled grid","scope":"denmark","tileSource":"contours-denmark-coarse.geojson"},"geometry":{"type":"LineString","coordinates":[[9.25,56.9734],[9.235,56.973553],[9.231538,56.97],[9.235,56.966707],[9.24,56.969985],[9.25,56.969992],[9.25,56.9734]]}},{"type":"Feature","properties":{"depth":2,"source":"DDM 2024 coarse contour","resolution":"0.005 degree sampled grid","scope":"denmark","tileSource":"contours-denmark-coarse.geojson"},"geometry":{"type":"LineString","coordinates":[[9.285,56.998269],[9.276111,56.995],[9.266111,56.985],[9.263333,56.98],[9.267167,56.975],[9.280008,56.98],[9.280037,56.985],[9.289146,56.995],[9.285,56.998269]]}},{"type":"Feature","properties":{"depth":2,"source":"DDM 2024 coarse contour","resolution":"0.005 degree sampled grid","scope":"denmark","tileSource":"contours-denmark-coarse.geojson"},"geometry":{"type":"LineString","coordinates":[[9.315001,57.011074],[9.308056,57.01],[9.301957,57.005],[9.315001,57.005]]}},{"type":"Feature","properties":{"depth":3,"source":"DDM 2024 coarse contour","resolution":"0.005 degree sampled grid","scope":"denmark","tileSource":"contours-denmark-coarse.geojson"},"geometry":{"type":"LineString","coordinates":[[8.839999,57.114995],[8.85,57.115],[8.855,57.119989],[8.885,57.124994],[8.89,57.129991],[8.899583,57.13],[8.905,57.134987],[8.925,57.139998],[8.93,57.144991],[8.93875,57.145],[8.965,57.159993],[9.05,57.159992],[9.075,57.15125],[9.1125,57.145],[9.165,57.141304],[9.27,57.147083],[9.293333,57.15],[9.3,57.154993],[9.313667,57.155],[9.315001,57.155408]]}},{"type":"Feature","properties":{"depth":3,"source":"DDM 2024 coarse contour","resolution":"0.005 degree sampled grid","scope":"denmark","tileSource":"contours-denmark-coarse.geojson"},"geometry":{"type":"LineString","coordinates":[[9.115,57.016176],[9.08,57.015238],[9.061,57.01],[9.046429,56.995],[9.045,56.989853],[9.03,56.988636],[9.031667,57.005],[9.005,57.014828],[8.99,57.011905],[8.97,56.999839],[8.94,57.002627],[8.925,56.996447],[8.918243,56.985],[8.925,56.976239],[8.93,56.976321],[8.94,56.986356],[8.953235,56.98],[8.914516,56.955],[8.913088,56.945],[8.917821,56.94],[8.9158,56.935],[8.925455,56.915],[8.911951,56.905],[8.915,56.897778],[8.905,56.89],[8.902838,56.885],[8.9052,56.88],[8.899063,56.875],[8.89375,56.855],[8.885,56.851667],[8.877273,56.855],[8.875,56.867143],[8.866875,56.875],[8.86,56.876818],[8.839999,56.868319]]}},{"type":"Feature","properties":{"depth":3,"source":"DDM 2024 coarse contour","resolution":"0.005 degree sampled grid","scope":"denmark","tileSource":"contours-denmark-coarse.geojson"},"geometry":{"type":"LineString","coordinates":[[8.839999,56.857281],[8.842308,56.855],[8.845357,56.835],[8.86,56.818684],[8.88,56.81],[8.8825,56.795],[8.880774,56.785],[8.87,56.784909],[8.86,56.775027],[8.85,56.774219],[8.839999,56.751447]]}},{"type":"Feature","properties":{"depth":3,"source":"DDM 2024 coarse contour","resolution":"0.005 degree sampled grid","scope":"denmark","tileSource":"contours-denmark-coarse.geojson"},"geometry":{"type":"LineString","coordinates":[[8.859878,56.749999],[8.865,56.75498],[8.869167,56.755],[8.865004,56.76],[8.87,56.765495],[8.903721,56.775],[8.915,56.780093],[8.925,56.793056],[8.96,56.804981],[8.99,56.79996],[8.995,56.795563],[8.995031,56.8],[8.989257,56.805],[8.975,56.810027],[8.96413,56.825],[8.945,56.83],[8.948,56.84],[8.955,56.843929],[8.98,56.841524],[8.985,56.844987],[9.04,56.851944],[9.065,56.845976],[9.075,56.845917],[9.08,56.849981],[9.084961,56.845],[9.08,56.840025],[9.075,56.8439],[9.07,56.843061],[9.059998,56.835],[9.083571,56.83],[9.080714,56.825],[9.06,56.815028],[9.045,56.81871],[9.04,56.815027],[9.031667,56.815],[9.025143,56.81],[9.025263,56.805],[9.07,56.804989],[9.09,56.799107],[9.114969,56.785],[9.111071,56.78],[9.112556,56.775],[9.12,56.767903],[9.130098,56.749999]]}},{"type":"Feature","properties":{"depth":3,"source":"DDM 2024 coarse contour","resolution":"0.005 degree sampled grid","scope":"denmark","tileSource":"contours-denmark-coarse.geojson"},"geometry":{"type":"LineString","coordinates":[[9.234802,56.749999],[9.232604,56.755],[9.225455,56.76],[9.215,56.763193],[9.178,56.765],[9.1806,56.775],[9.178462,56.78],[9.183182,56.785],[9.176406,56.795],[9.165,56.801111],[9.163372,56.805],[9.17,56.814993],[9.175,56.814997],[9.195937,56.835],[9.2028,56.85],[9.2,56.864677],[9.18,56.878243],[9.165,56.88375],[9.159773,56.88],[9.175,56.92],[9.18,56.924998],[9.195,56.929998],[9.196053,56.94],[9.203889,56.945],[9.205833,56.95],[9.176667,56.96],[9.179444,56.97],[9.195,56.975],[9.195714,56.98],[9.175,56.995926],[9.14,57.010625],[9.115,57.016176]]}},{"type":"Feature","properties":{"depth":3,"source":"DDM 2024 coarse contour","resolution":"0.005 degree sampled grid","scope":"denmark","tileSource":"contours-denmark-coarse.geojson"},"geometry":{"type":"LineString","coordinates":[[9.02,56.800034],[8.9975,56.795],[9.005,56.794992],[9.010469,56.79],[9.02,56.795208],[9.02,56.800034]]}},{"type":"Feature","properties":{"depth":3,"source":"DDM 2024 coarse contour","resolution":"0.005 degree sampled grid","scope":"denmark","tileSource":"contours-denmark-coarse.geojson"},"geometry":{"type":"LineString","coordinates":[[9.092286,56.905],[9.104991,56.89],[9.100833,56.885],[9.101935,56.88],[9.136167,56.855],[9.125,56.854902],[9.115,56.864286],[9.1,56.868],[9.095,56.87375],[9.075,56.882963],[9.065,56.895],[9.08,56.907195],[9.092286,56.905]]}},{"type":"Feature","properties":{"depth":3,"source":"DDM 2024 coarse contour","resolution":"0.005 degree sampled grid","scope":"denmark","tileSource":"contours-denmark-coarse.geojson"},"geometry":{"type":"LineString","coordinates":[[8.865,56.992027],[8.86,56.985278],[8.84,56.9875],[8.853571,56.975],[8.85,56.972596],[8.839999,56.96857]]}},{"type":"Feature","properties":{"depth":3,"source":"DDM 2024 coarse contour","resolution":"0.005 degree sampled grid","scope":"denmark","tileSource":"contours-denmark-coarse.geojson"},"geometry":{"type":"LineString","coordinates":[[8.839999,56.945311],[8.845,56.950417],[8.86,56.959981],[8.865,56.954989],[8.89,56.955889],[8.918581,56.97],[8.915,56.974417],[8.895,56.969211],[8.885,56.971364],[8.878519,56.98],[8.88,56.986765],[8.87,56.988125],[8.865,56.992027]]}},{"type":"Feature","properties":{"depth":3,"source":"DDM 2024 coarse contour","resolution":"0.005 degree sampled grid","scope":"denmark","tileSource":"contours-denmark-coarse.geojson"},"geometry":{"type":"LineString","coordinates":[[9.008333,56.91],[9.018125,56.9],[9.015,56.897917],[9.005526,56.9],[9.002,56.91],[9.005,56.912727],[9.008333,56.91]]}},{"type":"Feature","properties":{"depth":3,"source":"DDM 2024 coarse contour","resolution":"0.005 degree sampled grid","scope":"denmark","tileSource":"contours-denmark-coarse.geojson"},"geometry":{"type":"LineString","coordinates":[[8.951356,56.935],[8.950789,56.925],[8.958125,56.92],[8.952727,56.92],[8.95,56.923333],[8.945,56.922],[8.943333,56.925],[8.943191,56.935],[8.951356,56.935]]}},{"type":"Feature","properties":{"depth":3,"source":"DDM 2024 coarse contour","resolution":"0.005 degree sampled grid","scope":"denmark","tileSource":"contours-denmark-coarse.geojson"},"geometry":{"type":"LineString","coordinates":[[9.25,56.9714],[9.235,56.972237],[9.232821,56.97],[9.235,56.967927],[9.25,56.9714]]}},{"type":"Feature","properties":{"depth":3,"source":"DDM 2024 coarse contour","resolution":"0.005 degree sampled grid","scope":"denmark","tileSource":"contours-denmark-coarse.geojson"},"geometry":{"type":"LineString","coordinates":[[9.285,56.997308],[9.278889,56.995],[9.266667,56.98],[9.268833,56.975],[9.280003,56.98],[9.280032,56.985],[9.287927,56.995],[9.285,56.997308]]}},{"type":"Feature","properties":{"depth":3,"source":"DDM 2024 coarse contour","resolution":"0.005 degree sampled grid","scope":"denmark","tileSource":"contours-denmark-coarse.geojson"},"geometry":{"type":"LineString","coordinates":[[9.315001,57.010321],[9.31125,57.01],[9.30413,57.005],[9.315001,57.005]]}},{"type":"Feature","properties":{"depth":5,"source":"DDM 2024 coarse contour","resolution":"0.005 degree sampled grid","scope":"denmark","tileSource":"contours-denmark-coarse.geojson"},"geometry":{"type":"LineString","coordinates":[[8.839999,57.116905],[8.86,57.12],[8.9,57.134773],[8.910263,57.135],[8.911842,57.14],[8.92,57.140909],[8.925,57.145517],[8.935179,57.145],[8.939167,57.15],[8.945469,57.15],[8.95,57.156757],[8.955,57.155667],[8.965,57.161],[8.98,57.163438],[9.009444,57.16],[9.03,57.163182],[9.13,57.148824],[9.15,57.147143],[9.155,57.15],[9.17,57.145833],[9.18,57.1485],[9.185,57.145938],[9.195,57.148611],[9.22,57.1475],[9.235,57.151053],[9.24,57.148409],[9.245,57.151875],[9.255,57.151],[9.26,57.153846],[9.265,57.151579],[9.305,57.159583],[9.310333,57.155],[9.315,57.16],[9.315001,57.16]]}},{"type":"Feature","properties":{"depth":5,"source":"DDM 2024 coarse contour","resolution":"0.005 degree sampled grid","scope":"denmark","tileSource":"contours-denmark-coarse.geojson"},"geometry":{"type":"LineString","coordinates":[[9.01,57.010862],[8.996,57.01],[8.97,56.996613],[8.94,57.000932],[8.925,56.9925],[8.923816,56.99],[8.928077,56.985],[8.921395,56.98],[8.925,56.977156],[8.933452,56.98],[8.931316,56.985],[8.935,56.988333],[8.95,56.985],[8.956892,56.98],[8.938889,56.965],[8.917833,56.955],[8.91675,56.945],[8.920714,56.94],[8.9198,56.935],[8.927273,56.915],[8.91439,56.905],[8.918636,56.9],[8.901842,56.875],[8.89663,56.855],[8.885,56.848514],[8.869167,56.855],[8.865833,56.86],[8.865,56.871923],[8.854091,56.87],[8.842391,56.86],[8.84825,56.855],[8.847,56.84],[8.855,56.8286],[8.875,56.813214],[8.88,56.812174],[8.89,56.817308],[8.895806,56.81],[8.884054,56.805],[8.885833,56.8],[8.88,56.782988],[8.87,56.783091],[8.85,56.771094],[8.844694,56.755],[8.841016,56.749999]]}},{"type":"Feature","properties":{"depth":5,"source":"DDM 2024 coarse contour","resolution":"0.005 degree sampled grid","scope":"denmark","tileSource":"contours-denmark-coarse.geojson"},"geometry":{"type":"LineString","coordinates":[[8.861027,56.749999],[8.867083,56.755],[8.864526,56.76],[8.868062,56.765],[8.888026,56.77],[8.915,56.781944],[8.925,56.796048],[8.935,56.800814],[8.965,56.806667],[8.995,56.796972],[8.995,56.800021],[8.98,56.81],[8.975,56.810017],[8.96,56.824667],[8.955,56.821389],[8.941875,56.83],[8.943679,56.84],[8.955,56.846545],[8.98,56.842744],[9.005,56.850625],[9.04,56.854722],[9.065,56.847195],[9.08,56.849991],[9.084971,56.845],[9.08,56.840015],[9.07,56.84102],[9.065,56.835],[9.085,56.831607],[9.085,56.824714],[9.06,56.815018],[9.045,56.817097],[9.034231,56.815],[9.026316,56.805],[9.0354,56.805],[9.04,56.811383],[9.1,56.797179],[9.114979,56.785],[9.1125,56.78],[9.114778,56.775],[9.131928,56.749999]]}},{"type":"Feature","properties":{"depth":5,"source":"DDM 2024 coarse contour","resolution":"0.005 degree sampled grid","scope":"denmark","tileSource":"contours-denmark-coarse.geojson"},"geometry":{"type":"LineString","coordinates":[[9.232548,56.749999],[9.230521,56.755],[9.222805,56.76],[9.175,56.764627],[9.174,56.78],[9.179231,56.785],[9.165,56.7924],[9.161047,56.805],[9.186071,56.83],[9.195,56.845],[9.192581,56.855],[9.200865,56.86],[9.19,56.865312],[9.18,56.875541],[9.165,56.880179],[9.16,56.877556],[9.154565,56.885],[9.165,56.9],[9.1615,56.91],[9.168235,56.915],[9.175,56.929],[9.19,56.937857],[9.19,56.94375],[9.165417,56.96],[9.17,56.965],[9.15,56.9725],[9.14,56.98],[9.125,56.98],[9.1,56.99],[9.095,56.9975],[9.085,57],[9.055,56.997222],[9.04,56.982778],[9.03,56.982273],[9.025,57.002667],[9.01,57.010862]]}},{"type":"Feature","properties":{"depth":5,"source":"DDM 2024 coarse contour","resolution":"0.005 degree sampled grid","scope":"denmark","tileSource":"contours-denmark-coarse.geojson"},"geometry":{"type":"LineString","coordinates":[[9.163289,56.775],[9.166094,56.77],[9.1528,56.77],[9.155,56.78],[9.163289,56.775]]}},{"type":"Feature","properties":{"depth":5,"source":"DDM 2024 coarse contour","resolution":"0.005 degree sampled grid","scope":"denmark","tileSource":"contours-denmark-coarse.geojson"},"geometry":{"type":"LineString","coordinates":[[9.085455,56.91],[9.095333,56.905],[9.11,56.89],[9.112727,56.875],[9.125,56.868387],[9.1395,56.855],[9.13,56.852241],[9.115,56.858772],[9.09,56.861429],[9.07,56.883261],[9.053966,56.89],[9.055,56.901],[9.07,56.903276],[9.085455,56.91]]}},{"type":"Feature","properties":{"depth":5,"source":"DDM 2024 coarse contour","resolution":"0.005 degree sampled grid","scope":"denmark","tileSource":"contours-denmark-coarse.geojson"},"geometry":{"type":"LineString","coordinates":[[8.9432,56.875],[8.93,56.872556],[8.9225,56.875],[8.935,56.878056],[8.9432,56.875]]}},{"type":"Feature","properties":{"depth":5,"source":"DDM 2024 coarse contour","resolution":"0.005 degree sampled grid","scope":"denmark","tileSource":"contours-denmark-coarse.geojson"},"geometry":{"type":"LineString","coordinates":[[8.86,56.9812],[8.858846,56.975],[8.845,56.967],[8.839999,56.965877]]}},{"type":"Feature","properties":{"depth":5,"source":"DDM 2024 coarse contour","resolution":"0.005 degree sampled grid","scope":"denmark","tileSource":"contours-denmark-coarse.geojson"},"geometry":{"type":"LineString","coordinates":[[8.839999,56.949686],[8.845,56.954583],[8.851176,56.955],[8.8475,56.96],[8.85,56.962],[8.855,56.958333],[8.86,56.959991],[8.865,56.954999],[8.875,56.959286],[8.885,56.957593],[8.896579,56.96],[8.895,56.963],[8.885,56.964643],[8.875,56.960625],[8.8715,56.965],[8.878333,56.97],[8.875,56.975],[8.87,56.973],[8.86,56.9812]]}},{"type":"Feature","properties":{"depth":5,"source":"DDM 2024 coarse contour","resolution":"0.005 degree sampled grid","scope":"denmark","tileSource":"contours-denmark-coarse.geojson"},"geometry":{"type":"LineString","coordinates":[[9.0115,56.92],[9.021809,56.9],[9.020952,56.895],[9,56.894808],[9.002826,56.905],[8.995,56.909],[8.99,56.904615],[8.988875,56.91],[9.005,56.92],[9.0115,56.92]]}},{"type":"Feature","properties":{"depth":5,"source":"DDM 2024 coarse contour","resolution":"0.005 degree sampled grid","scope":"denmark","tileSource":"contours-denmark-coarse.geojson"},"geometry":{"type":"LineString","coordinates":[[8.9675,56.905],[8.97,56.899054],[8.965625,56.9],[8.964,56.905],[8.9675,56.905]]}},{"type":"Feature","properties":{"depth":5,"source":"DDM 2024 coarse contour","resolution":"0.005 degree sampled grid","scope":"denmark","tileSource":"contours-denmark-coarse.geojson"},"geometry":{"type":"LineString","coordinates":[[8.953051,56.935],[8.955,56.926818],[8.96,56.926667],[8.965625,56.92],[8.955,56.917283],[8.943182,56.92],[8.941064,56.935],[8.945,56.938364],[8.953051,56.935]]}},{"type":"Feature","properties":{"depth":5,"source":"DDM 2024 coarse contour","resolution":"0.005 degree sampled grid","scope":"denmark","tileSource":"contours-denmark-coarse.geojson"},"geometry":{"type":"LineString","coordinates":[[9.001842,56.945],[8.985,56.93],[8.989706,56.935],[8.991047,56.945],[8.995,56.948036],[9.001842,56.945]]}},{"type":"Feature","properties":{"depth":5,"source":"DDM 2024 coarse contour","resolution":"0.005 degree sampled grid","scope":"denmark","tileSource":"contours-denmark-coarse.geojson"},"geometry":{"type":"LineString","coordinates":[[9.171538,56.945],[9.17,56.934286],[9.167778,56.945],[9.17,56.947857],[9.171538,56.945]]}},{"type":"Feature","properties":{"depth":5,"source":"DDM 2024 coarse contour","resolution":"0.005 degree sampled grid","scope":"denmark","tileSource":"contours-denmark-coarse.geojson"},"geometry":{"type":"LineString","coordinates":[[9.285,56.995385],[9.276271,56.985],[9.28,56.98114],[9.285,56.995385]]}},{"type":"Feature","properties":{"depth":10,"source":"DDM 2024 coarse contour","resolution":"0.005 degree sampled grid","scope":"denmark","tileSource":"contours-denmark-coarse.geojson"},"geometry":{"type":"LineString","coordinates":[[8.839999,57.134454],[8.855,57.133636],[8.911667,57.15],[8.92,57.155],[8.922045,57.17],[8.935,57.177436],[8.975,57.172083],[8.995,57.176818],[9.025,57.173667],[9.135,57.184167],[9.155,57.17],[9.17,57.173333],[9.16375,57.185],[9.175,57.193333],[9.205,57.1975],[9.265,57.195],[9.298001,57.225001]]}},{"type":"Feature","properties":{"depth":10,"source":"DDM 2024 coarse contour","resolution":"0.005 degree sampled grid","scope":"denmark","tileSource":"contours-denmark-coarse.geojson"},"geometry":{"type":"LineString","coordinates":[[8.88,56.779615],[8.86,56.773636],[8.845155,56.749999]]}},{"type":"Feature","properties":{"depth":10,"source":"DDM 2024 coarse contour","resolution":"0.005 degree sampled grid","scope":"denmark","tileSource":"contours-denmark-coarse.geojson"},"geometry":{"type":"LineString","coordinates":[[8.858829,56.749999],[8.85883,56.75],[8.865,56.765067],[8.884286,56.775],[8.88,56.779615]]}},{"type":"Feature","properties":{"depth":10,"source":"DDM 2024 coarse contour","resolution":"0.005 degree sampled grid","scope":"denmark","tileSource":"contours-denmark-coarse.geojson"},"geometry":{"type":"LineString","coordinates":[[9.155,56.82],[9.153,56.815],[9.14,56.812222],[9.125,56.8],[9.12625,56.79],[9.119375,56.785],[9.12375,56.78],[9.121667,56.775],[9.143739,56.749999]]}},{"type":"Feature","properties":{"depth":10,"source":"DDM 2024 coarse contour","resolution":"0.005 degree sampled grid","scope":"denmark","tileSource":"contours-denmark-coarse.geojson"},"geometry":{"type":"LineString","coordinates":[[9.200004,56.749999],[9.2,56.75],[9.17,56.766711],[9.147662,56.77],[9.154286,56.79],[9.160227,56.795],[9.155816,56.805],[9.16,56.814375],[9.155,56.82]]}},{"type":"Feature","properties":{"depth":10,"source":"DDM 2024 coarse contour","resolution":"0.005 degree sampled grid","scope":"denmark","tileSource":"contours-denmark-coarse.geojson"},"geometry":{"type":"LineString","coordinates":[[8.895,56.787188],[8.880417,56.78],[8.89,56.776389],[8.898182,56.785],[8.895,56.787188]]}},{"type":"Feature","properties":{"depth":10,"source":"DDM 2024 coarse contour","resolution":"0.005 degree sampled grid","scope":"denmark","tileSource":"contours-denmark-coarse.geojson"},"geometry":{"type":"LineString","coordinates":[[9.17,56.785648],[9.163111,56.785],[9.165,56.779111],[9.17,56.785648]]}},{"type":"Feature","properties":{"depth":10,"source":"DDM 2024 coarse contour","resolution":"0.005 degree sampled grid","scope":"denmark","tileSource":"contours-denmark-coarse.geojson"},"geometry":{"type":"LineString","coordinates":[[9.16,56.845417],[9.142,56.84],[9.1625,56.83],[9.165,56.824],[9.175,56.83],[9.178,56.84],[9.16,56.845417]]}},{"type":"Feature","properties":{"depth":10,"source":"DDM 2024 coarse contour","resolution":"0.005 degree sampled grid","scope":"denmark","tileSource":"contours-denmark-coarse.geojson"},"geometry":{"type":"LineString","coordinates":[[9.09,56.855789],[9.084808,56.855],[9.09,56.833438],[9.11,56.835],[9.114286,56.84],[9.11375,56.85],[9.09,56.855789]]}},{"type":"Feature","properties":{"depth":10,"source":"DDM 2024 coarse contour","resolution":"0.005 degree sampled grid","scope":"denmark","tileSource":"contours-denmark-coarse.geojson"},"geometry":{"type":"LineString","coordinates":[[9.055,56.862857],[9.051,56.86],[9.05439,56.855],[9.065,56.851538],[9.065,56.8595],[9.055,56.862857]]}},{"type":"Feature","properties":{"depth":10,"source":"DDM 2024 coarse contour","resolution":"0.005 degree sampled grid","scope":"denmark","tileSource":"contours-denmark-coarse.geojson"},"geometry":{"type":"LineString","coordinates":[[9.045,56.861538],[9.033077,56.86],[9.049,56.86],[9.045,56.861538]]}},{"type":"Feature","properties":{"depth":15,"source":"DDM 2024 coarse contour","resolution":"0.005 degree sampled grid","scope":"denmark","tileSource":"contours-denmark-coarse.geojson"},"geometry":{"type":"LineString","coordinates":[[8.839999,57.198517],[8.865,57.197143],[8.882,57.19],[8.895,57.173],[8.91,57.170833],[8.94,57.187368],[8.9965,57.19],[9.0025,57.195],[8.99,57.21],[8.975,57.21],[8.995,57.21],[9.030627,57.225001]]}},{"type":"Feature","properties":{"depth":15,"source":"DDM 2024 coarse contour","resolution":"0.005 degree sampled grid","scope":"denmark","tileSource":"contours-denmark-coarse.geojson"},"geometry":{"type":"LineString","coordinates":[[8.86,56.769545],[8.85505,56.765],[8.855,56.756],[8.863311,56.765],[8.86,56.769545]]}},{"type":"Feature","properties":{"depth":15,"source":"DDM 2024 coarse contour","resolution":"0.005 degree sampled grid","scope":"denmark","tileSource":"contours-denmark-coarse.geojson"},"geometry":{"type":"LineString","coordinates":[[8.95,57.21],[8.9525,57.205],[8.93,57.196875],[8.914,57.2],[8.90125,57.21],[8.925,57.213462],[8.95,57.21]]}},{"type":"Feature","properties":{"depth":20,"source":"DDM 2024 coarse contour","resolution":"0.005 degree sampled grid","scope":"denmark","tileSource":"contours-denmark-coarse.geojson"},"geometry":{"type":"LineString","coordinates":[[8.839999,57.215417],[8.865,57.215],[8.878638,57.225001]]}}]}