{"type":"FeatureCollection","name":"DDM contour tile r06_c01","bbox":[7.88,57.23,8.355,57.705],"metadata":{"schema":"waternav-ddm-contour-tile-v1","version":"v45.4","tileId":"r06_c01","source":"Danmarks Dybdemodel 2024 ddm_50m.dybde.tiff via bundled DDM contour GeoJSON files"},"features":[{"type":"Feature","properties":{"depth":1,"source":"DDM 2024 coarse contour","resolution":"0.005 degree sampled grid","scope":"denmark","tileSource":"contours-denmark-coarse.geojson"},"geometry":{"type":"LineString","coordinates":[[8.355001,57.590674],[8.35,57.590677],[8.345,57.585665],[8.325,57.585677],[8.32,57.580665],[8.31,57.58067],[8.305,57.575656],[8.29,57.575663],[8.285,57.57065],[8.265,57.570656],[8.26,57.565644],[8.25,57.565648],[8.245,57.560638],[8.23,57.560647],[8.225,57.555638],[8.21,57.555647],[8.205,57.55064],[8.19,57.550647],[8.185,57.54564],[8.17,57.545648],[8.165,57.540639],[8.15,57.540648],[8.145,57.535638],[8.13,57.535648],[8.125,57.53064],[8.11,57.530652],[8.105,57.525643],[8.09,57.525651],[8.085,57.520643],[8.07,57.520646],[8.065,57.515637],[8.05,57.515637],[8.045,57.51063],[8.03,57.51063],[8.025,57.505622],[8.01,57.505623],[8.005,57.500607],[7.99,57.500583],[7.985,57.495588],[7.975,57.495584],[7.97,57.490585],[7.955,57.490582],[7.95,57.485583],[7.925,57.480578],[7.92,57.475576],[7.91,57.475574],[7.905,57.470567],[7.89,57.47057],[7.885,57.465557],[7.879999,57.46556]]}},{"type":"Feature","properties":{"depth":2,"source":"DDM 2024 coarse contour","resolution":"0.005 degree sampled grid","scope":"denmark","tileSource":"contours-denmark-coarse.geojson"},"geometry":{"type":"LineString","coordinates":[[8.355001,57.590669],[8.35,57.590672],[8.345,57.585661],[8.325,57.585672],[8.32,57.580661],[8.31,57.580666],[8.305,57.575652],[8.29,57.575658],[8.285,57.570645],[8.265,57.570652],[8.26,57.565639],[8.25,57.565644],[8.245,57.560633],[8.23,57.560643],[8.225,57.555634],[8.21,57.555643],[8.205,57.550636],[8.19,57.550643],[8.185,57.545635],[8.17,57.545643],[8.165,57.540634],[8.15,57.540643],[8.145,57.535633],[8.13,57.535643],[8.125,57.530636],[8.11,57.530648],[8.105,57.525639],[8.09,57.525647],[8.085,57.520639],[8.07,57.520641],[8.065,57.515633],[8.05,57.515633],[8.045,57.510625],[8.03,57.510626],[8.025,57.505618],[8.01,57.505618],[8.005,57.500602],[7.99,57.500579],[7.985,57.495584],[7.975,57.495579],[7.97,57.49058],[7.955,57.490578],[7.95,57.485578],[7.925,57.480574],[7.92,57.475572],[7.91,57.47557],[7.905,57.470562],[7.89,57.470565],[7.885,57.465552],[7.879999,57.465556]]}},{"type":"Feature","properties":{"depth":3,"source":"DDM 2024 coarse contour","resolution":"0.005 degree sampled grid","scope":"denmark","tileSource":"contours-denmark-coarse.geojson"},"geometry":{"type":"LineString","coordinates":[[8.355001,57.590665],[8.35,57.590668],[8.345,57.585656],[8.325,57.585668],[8.32,57.580657],[8.31,57.580662],[8.305,57.575648],[8.29,57.575654],[8.285,57.570641],[8.265,57.570648],[8.26,57.565635],[8.25,57.56564],[8.245,57.560629],[8.23,57.560639],[8.225,57.555629],[8.21,57.555638],[8.205,57.550632],[8.19,57.550638],[8.185,57.545631],[8.17,57.545639],[8.165,57.54063],[8.15,57.540639],[8.145,57.535629],[8.13,57.535639],[8.125,57.530632],[8.11,57.530643],[8.105,57.525635],[8.09,57.525643],[8.085,57.520634],[8.07,57.520637],[8.065,57.515628],[8.05,57.515629],[8.045,57.510621],[8.03,57.510621],[8.025,57.505614],[8.01,57.505614],[8.005,57.500598],[7.99,57.500575],[7.985,57.495579],[7.975,57.495575],[7.97,57.490576],[7.955,57.490573],[7.95,57.485574],[7.925,57.48057],[7.92,57.475567],[7.91,57.475566],[7.905,57.470558],[7.89,57.470561],[7.885,57.465548],[7.879999,57.465551]]}},{"type":"Feature","properties":{"depth":5,"source":"DDM 2024 coarse contour","resolution":"0.005 degree sampled grid","scope":"denmark","tileSource":"contours-denmark-coarse.geojson"},"geometry":{"type":"LineString","coordinates":[[8.355001,57.590656],[8.35,57.590659],[8.345,57.585648],[8.325,57.585659],[8.32,57.580648],[8.31,57.580653],[8.305,57.575639],[8.29,57.575645],[8.285,57.570632],[8.265,57.570639],[8.26,57.565626],[8.25,57.565631],[8.245,57.56062],[8.23,57.56063],[8.225,57.555621],[8.21,57.555629],[8.205,57.550623],[8.19,57.550629],[8.185,57.545622],[8.17,57.54563],[8.165,57.540621],[8.15,57.54063],[8.145,57.53562],[8.13,57.53563],[8.125,57.530623],[8.11,57.530635],[8.105,57.525626],[8.09,57.525634],[8.085,57.520626],[8.07,57.520628],[8.065,57.51562],[8.05,57.51562],[8.045,57.510612],[8.03,57.510613],[8.025,57.505605],[8.01,57.505605],[8.005,57.500589],[7.99,57.500566],[7.985,57.49557],[7.975,57.495566],[7.97,57.490567],[7.955,57.490565],[7.95,57.485565],[7.925,57.480561],[7.92,57.475558],[7.91,57.475557],[7.905,57.470549],[7.89,57.470552],[7.885,57.465539],[7.879999,57.465542]]}},{"type":"Feature","properties":{"depth":10,"source":"DDM 2024 coarse contour","resolution":"0.005 degree sampled grid","scope":"denmark","tileSource":"contours-denmark-coarse.geojson"},"geometry":{"type":"LineString","coordinates":[[8.355001,57.590635],[8.345,57.585626],[8.325,57.585638],[8.305,57.575617],[8.265,57.570617],[8.245,57.560598],[8.23,57.560608],[8.225,57.555599],[8.21,57.555608],[8.205,57.550601],[8.19,57.550608],[8.185,57.5456],[8.17,57.545608],[8.165,57.540599],[8.15,57.540608],[8.145,57.535598],[8.13,57.535608],[8.125,57.530601],[8.11,57.530613],[8.105,57.525604],[8.09,57.525612],[8.085,57.520604],[8.07,57.520607],[8.065,57.515598],[7.99,57.500544],[7.97,57.490545],[7.955,57.490542],[7.92,57.475536],[7.91,57.475535],[7.905,57.470527],[7.89,57.47053],[7.879999,57.466235]]}},{"type":"Feature","properties":{"depth":15,"source":"DDM 2024 coarse contour","resolution":"0.005 degree sampled grid","scope":"denmark","tileSource":"contours-denmark-coarse.geojson"},"geometry":{"type":"LineString","coordinates":[[8.355001,57.590613],[8.345,57.585604],[8.325,57.585616],[8.305,57.575596],[8.265,57.570596],[8.245,57.560577],[8.23,57.560586],[8.225,57.555577],[8.21,57.555586],[8.205,57.550579],[8.19,57.550586],[8.185,57.545579],[8.17,57.545587],[8.165,57.540577],[8.15,57.540587],[8.145,57.535577],[8.13,57.535587],[8.125,57.530579],[8.11,57.530591],[8.105,57.525582],[8.09,57.525591],[8.085,57.520582],[8.07,57.520585],[8.065,57.515576],[7.99,57.500522],[7.97,57.490523],[7.955,57.49052],[7.92,57.475514],[7.91,57.475512],[7.905,57.470505],[7.89,57.470508],[7.879999,57.466213]]}},{"type":"Feature","properties":{"depth":20,"source":"DDM 2024 coarse contour","resolution":"0.005 degree sampled grid","scope":"denmark","tileSource":"contours-denmark-coarse.geojson"},"geometry":{"type":"LineString","coordinates":[[8.355001,57.590592],[8.345,57.585583],[8.325,57.585594],[8.305,57.575574],[8.265,57.570574],[8.245,57.560555],[8.23,57.560565],[8.225,57.555555],[8.21,57.555564],[8.205,57.550558],[8.19,57.550564],[8.185,57.545557],[8.17,57.545565],[8.165,57.540556],[8.15,57.540565],[8.145,57.535555],[8.13,57.535565],[8.125,57.530558],[8.11,57.53057],[8.105,57.525561],[8.09,57.525569],[8.085,57.52056],[8.07,57.520563],[8.065,57.515554],[7.99,57.5005],[7.97,57.490501],[7.955,57.490498],[7.92,57.475492],[7.91,57.47549],[7.905,57.470482],[7.89,57.470486],[7.879999,57.46619]]}},{"type":"Feature","properties":{"depth":30,"source":"DDM 2024 coarse contour","resolution":"0.005 degree sampled grid","scope":"denmark","tileSource":"contours-denmark-coarse.geojson"},"geometry":{"type":"LineString","coordinates":[[8.322272,57.229999],[8.322273,57.23],[8.34,57.241538],[8.345,57.243611],[8.347241,57.24],[8.332794,57.23],[8.332794,57.229999]]}},{"type":"Feature","properties":{"depth":30,"source":"DDM 2024 coarse contour","resolution":"0.005 degree sampled grid","scope":"denmark","tileSource":"contours-denmark-coarse.geojson"},"geometry":{"type":"LineString","coordinates":[[8.346205,57.229999],[8.355001,57.233462]]}},{"type":"Feature","properties":{"depth":30,"source":"DDM 2024 coarse contour","resolution":"0.005 degree sampled grid","scope":"denmark","tileSource":"contours-denmark-coarse.geojson"},"geometry":{"type":"LineString","coordinates":[[8.355001,57.25901],[8.347692,57.26],[8.355001,57.26022]]}},{"type":"Feature","properties":{"depth":30,"source":"DDM 2024 coarse contour","resolution":"0.005 degree sampled grid","scope":"denmark","tileSource":"contours-denmark-coarse.geojson"},"geometry":{"type":"LineString","coordinates":[[8.316667,57.245],[8.31,57.24],[8.30375,57.245],[8.316667,57.245]]}},{"type":"Feature","properties":{"depth":30,"source":"DDM 2024 coarse contour","resolution":"0.005 degree sampled grid","scope":"denmark","tileSource":"contours-denmark-coarse.geojson"},"geometry":{"type":"LineString","coordinates":[[8.355001,57.590548],[8.345,57.585539],[8.325,57.585551],[8.305,57.57553],[8.265,57.57053],[8.245,57.560511],[8.23,57.560521],[8.225,57.555512],[8.21,57.555521],[8.205,57.550514],[8.19,57.550521],[8.185,57.545513],[8.17,57.545521],[8.165,57.540512],[8.15,57.540521],[8.145,57.535511],[8.13,57.535521],[8.125,57.530514],[8.11,57.530526],[8.105,57.525517],[8.09,57.525525],[8.085,57.520517],[8.07,57.520519],[8.065,57.51551],[7.99,57.500455],[7.97,57.490457],[7.955,57.490454],[7.92,57.475448],[7.91,57.475446],[7.905,57.470438],[7.89,57.470441],[7.879999,57.466146]]}},{"type":"Feature","properties":{"depth":50,"source":"DDM 2024 coarse contour","resolution":"0.005 degree sampled grid","scope":"denmark","tileSource":"contours-denmark-coarse.geojson"},"geometry":{"type":"LineString","coordinates":[[7.92757,57.229999],[7.92,57.246724],[7.91,57.24371],[7.895435,57.25],[7.9085,57.27],[7.907105,57.275],[7.92,57.281765],[7.935,57.280909],[7.94,57.275],[7.938421,57.265],[7.945,57.261447],[7.960312,57.275],[7.960625,57.29],[7.995,57.303846],[8.01,57.320417],[8.03,57.329643],[8.065,57.336765],[8.081667,57.33],[8.107778,57.34],[8.11,57.345625],[8.125,57.341406],[8.145,57.351667],[8.17,57.35],[8.19875,57.36],[8.196053,57.365],[8.204167,57.375],[8.315,57.393333],[8.321111,57.395],[8.320714,57.4],[8.345,57.4078],[8.355001,57.408533]]}},{"type":"Feature","properties":{"depth":50,"source":"DDM 2024 coarse contour","resolution":"0.005 degree sampled grid","scope":"denmark","tileSource":"contours-denmark-coarse.geojson"},"geometry":{"type":"LineString","coordinates":[[7.965,57.246635],[7.96075,57.245],[7.96375,57.24],[7.957222,57.23],[7.957223,57.229999]]}},{"type":"Feature","properties":{"depth":50,"source":"DDM 2024 coarse contour","resolution":"0.005 degree sampled grid","scope":"denmark","tileSource":"contours-denmark-coarse.geojson"},"geometry":{"type":"LineString","coordinates":[[7.967188,57.229999],[7.967187,57.23],[7.970595,57.235],[7.965,57.246635]]}},{"type":"Feature","properties":{"depth":50,"source":"DDM 2024 coarse contour","resolution":"0.005 degree sampled grid","scope":"denmark","tileSource":"contours-denmark-coarse.geojson"},"geometry":{"type":"LineString","coordinates":[[7.945,57.256765],[7.938824,57.245],[7.94,57.23375],[7.947143,57.235],[7.941667,57.24],[7.951429,57.25],[7.945,57.256765]]}},{"type":"Feature","properties":{"depth":50,"source":"DDM 2024 coarse contour","resolution":"0.005 degree sampled grid","scope":"denmark","tileSource":"contours-denmark-coarse.geojson"},"geometry":{"type":"LineString","coordinates":[[7.879999,57.279444],[7.88,57.279444],[7.892593,57.275],[7.882917,57.27],[7.886765,57.265],[7.879999,57.262241]]}},{"type":"Feature","properties":{"depth":50,"source":"DDM 2024 coarse contour","resolution":"0.005 degree sampled grid","scope":"denmark","tileSource":"contours-denmark-coarse.geojson"},"geometry":{"type":"LineString","coordinates":[[8.355001,57.590462],[8.345,57.585453],[8.325,57.585465],[8.305,57.575443],[8.265,57.570443],[8.245,57.560424],[8.23,57.560434],[8.225,57.555424],[8.21,57.555434],[8.205,57.550427],[8.19,57.550434],[8.185,57.545426],[8.17,57.545434],[8.165,57.540425],[8.15,57.540434],[8.145,57.535424],[8.13,57.535434],[8.125,57.530427],[8.11,57.530439],[8.105,57.52543],[8.09,57.525438],[8.085,57.52043],[8.07,57.520432],[8.065,57.515423],[7.99,57.500367],[7.97,57.490368],[7.955,57.490366],[7.92,57.475359],[7.91,57.475358],[7.905,57.470349],[7.89,57.470353],[7.879999,57.466057]]}},{"type":"Feature","properties":{"depth":100,"source":"DDM 2024 coarse contour","resolution":"0.005 degree sampled grid","scope":"denmark","tileSource":"contours-denmark-coarse.geojson"},"geometry":{"type":"LineString","coordinates":[[8.355001,57.590246],[8.345,57.585236],[8.325,57.585249],[8.305,57.575226],[8.265,57.570226],[8.245,57.560206],[8.23,57.560216],[8.225,57.555206],[8.21,57.555216],[8.205,57.550209],[8.19,57.550216],[8.185,57.545208],[8.17,57.545217],[8.165,57.540207],[8.15,57.540217],[8.145,57.535206],[8.13,57.535217],[8.125,57.530209],[8.11,57.530222],[8.105,57.525212],[8.09,57.525221],[8.085,57.520212],[8.07,57.520215],[8.065,57.515205],[7.99,57.500146],[7.97,57.490147],[7.955,57.490145],[7.905,57.470128],[7.89,57.470131],[7.885,57.465117],[7.879999,57.464117]]}},{"type":"Feature","properties":{"depth":100,"source":"DDM 2024 coarse contour","resolution":"0.005 degree sampled grid","scope":"denmark","tileSource":"contours-denmark-coarse.geojson"},"geometry":{"type":"LineString","coordinates":[[7.879999,57.431551],[7.915,57.426923],[7.97,57.436284],[8.035,57.430816],[8.105,57.43631],[8.1985,57.465],[8.28,57.497407],[8.355001,57.508414]]}}]}