{"type":"FeatureCollection","name":"DDM contour tile r00_c04","bbox":[9.32,54.35,9.795,54.825],"metadata":{"schema":"waternav-ddm-contour-tile-v1","version":"v45.3","tileId":"r00_c04","source":"Danmarks Dybdemodel 2024 ddm_50m.dybde.tiff via bundled DDM contour GeoJSON files"},"features":[{"type":"Feature","properties":{"depth":1,"source":"DDM 2024 coarse contour","resolution":"0.005 degree sampled grid","scope":"denmark","tileSource":"contours-denmark-coarse.geojson"},"geometry":{"type":"LineString","coordinates":[[9.73488,54.825001],[9.735,54.82488],[9.75,54.824894],[9.750107,54.825001]]}},{"type":"Feature","properties":{"depth":2,"source":"DDM 2024 coarse contour","resolution":"0.005 degree sampled grid","scope":"denmark","tileSource":"contours-denmark-coarse.geojson"},"geometry":{"type":"LineString","coordinates":[[9.734885,54.825001],[9.735,54.824885],[9.75,54.824899],[9.750102,54.825001]]}},{"type":"Feature","properties":{"depth":3,"source":"DDM 2024 coarse contour","resolution":"0.005 degree sampled grid","scope":"denmark","tileSource":"contours-denmark-coarse.geojson"},"geometry":{"type":"LineString","coordinates":[[9.73489,54.825001],[9.735,54.82489],[9.75,54.824904],[9.750097,54.825001]]}},{"type":"Feature","properties":{"depth":5,"source":"DDM 2024 coarse contour","resolution":"0.005 degree sampled grid","scope":"denmark","tileSource":"contours-denmark-coarse.geojson"},"geometry":{"type":"LineString","coordinates":[[9.7349,54.825001],[9.735,54.8249],[9.75,54.824913],[9.750088,54.825001]]}},{"type":"Feature","properties":{"depth":10,"source":"DDM 2024 coarse contour","resolution":"0.005 degree sampled grid","scope":"denmark","tileSource":"contours-denmark-coarse.geojson"},"geometry":{"type":"LineString","coordinates":[[9.734808,54.825001],[9.735,54.824924],[9.735617,54.825001]]}},{"type":"Feature","properties":{"depth":15,"source":"DDM 2024 coarse contour","resolution":"0.005 degree sampled grid","scope":"denmark","tileSource":"contours-denmark-coarse.geojson"},"geometry":{"type":"LineString","coordinates":[[9.735,54.825001],[9.735,54.824949],[9.735416,54.825001]]}},{"type":"Feature","properties":{"depth":20,"source":"DDM 2024 coarse contour","resolution":"0.005 degree sampled grid","scope":"denmark","tileSource":"contours-denmark-coarse.geojson"},"geometry":{"type":"LineString","coordinates":[[9.735065,54.825001],[9.735,54.824973],[9.735224,54.825001]]}}]}