{"type":"FeatureCollection","name":"DDM contour tile r01_c15","bbox":[14.6,54.83,15.075,55.305],"metadata":{"schema":"waternav-ddm-contour-tile-v1","version":"v45.3","tileId":"r01_c15","source":"Danmarks Dybdemodel 2024 ddm_50m.dybde.tiff via bundled DDM contour GeoJSON files"},"features":[{"type":"Feature","properties":{"depth":1,"source":"DDM 2024 coarse contour","resolution":"0.005 degree sampled grid","scope":"denmark","tileSource":"contours-denmark-coarse.geojson"},"geometry":{"type":"LineString","coordinates":[[14.779966,55.295],[14.780577,55.29],[14.79,55.28993],[14.795,55.284996],[14.8,55.28492],[14.81995,55.265],[14.819979,55.26],[14.825,55.254986],[14.85,55.249923],[14.855,55.244948],[14.865,55.244918],[14.885,55.229991],[14.895,55.229929],[14.9,55.224995],[14.915,55.224934],[14.930547,55.215],[14.94,55.214949],[14.945,55.21014],[14.95,55.214951],[14.96,55.214967],[14.965,55.219912],[14.979979,55.21],[14.989973,55.2],[14.99,55.194999],[14.995,55.194978],[15.03,55.175064],[15.04,55.174933],[15.055,55.165],[15.065,55.164919],[15.075001,55.158344]]}},{"type":"Feature","properties":{"depth":1,"source":"DDM 2024 coarse contour","resolution":"0.005 degree sampled grid","scope":"denmark","tileSource":"contours-denmark-coarse.geojson"},"geometry":{"type":"LineString","coordinates":[[15.075001,54.985018],[15.06,54.985024],[15.055,54.990012],[15.04,54.990019],[15.035,54.995007],[14.995,54.995022],[14.99,54.999663],[14.96,55.000018],[14.935,55.015001],[14.93,55.015005],[14.925,55.010048],[14.915,55.02],[14.9,55.02003],[14.895,55.025028],[14.89,55.025034],[14.885,55.030018],[14.875,55.030023],[14.87,55.03501],[14.855,55.035025],[14.85,55.04],[14.825,55.040024],[14.82,55.045],[14.81,55.045032],[14.805,55.050018],[14.775,55.050029],[14.77,55.055006],[14.745,55.060045],[14.72,55.080011],[14.705,55.080008],[14.7,55.085008],[14.695,55.085025],[14.680034,55.1],[14.685,55.104961],[14.695,55.104999],[14.7,55.1108],[14.700021,55.115],[14.695007,55.12],[14.705013,55.13],[14.705011,55.145],[14.699365,55.15],[14.704032,55.155],[14.700008,55.16],[14.704812,55.165],[14.704485,55.17],[14.695055,55.185],[14.700027,55.19],[14.705027,55.215],[14.720027,55.235],[14.720073,55.24],[14.740024,55.255],[14.740051,55.26],[14.750038,55.27],[14.750081,55.29],[14.765,55.299946],[14.775,55.299964],[14.779966,55.295]]}},{"type":"Feature","properties":{"depth":2,"source":"DDM 2024 coarse contour","resolution":"0.005 degree sampled grid","scope":"denmark","tileSource":"contours-denmark-coarse.geojson"},"geometry":{"type":"LineString","coordinates":[[14.779971,55.295],[14.781538,55.29],[14.79,55.289934],[14.795065,55.285],[14.8,55.284925],[14.819955,55.265],[14.819984,55.26],[14.825,55.254991],[14.85,55.249928],[14.855,55.244953],[14.865,55.244923],[14.885,55.229996],[14.895,55.229934],[14.9,55.225],[14.915,55.224939],[14.945,55.210607],[14.95,55.214956],[14.96,55.214972],[14.965,55.219917],[14.97,55.215],[14.975,55.214955],[14.989978,55.2],[14.990854,55.195],[15.03,55.175385],[15.04,55.174938],[15.055431,55.165],[15.065,55.164924],[15.075001,55.158535]]}},{"type":"Feature","properties":{"depth":2,"source":"DDM 2024 coarse contour","resolution":"0.005 degree sampled grid","scope":"denmark","tileSource":"contours-denmark-coarse.geojson"},"geometry":{"type":"LineString","coordinates":[[15.075001,54.985013],[15.06,54.985019],[15.055,54.990007],[15.04,54.990014],[15.035,54.995002],[14.995,54.995017],[14.99,54.999183],[14.96,55.000013],[14.935,55.014394],[14.93,55.015],[14.925,55.010043],[14.913649,55.02],[14.9,55.020025],[14.895,55.025023],[14.89,55.025029],[14.885,55.030013],[14.875,55.030018],[14.87,55.035005],[14.855,55.03502],[14.848902,55.04],[14.825,55.040019],[14.82,55.044231],[14.81,55.045027],[14.805,55.050013],[14.775,55.050024],[14.77,55.055001],[14.745,55.06004],[14.72,55.080006],[14.705,55.080003],[14.7,55.085003],[14.695,55.08502],[14.680029,55.1],[14.685,55.104966],[14.695,55.105897],[14.7,55.1118],[14.695002,55.12],[14.705008,55.13],[14.705006,55.145],[14.698571,55.15],[14.702419,55.155],[14.700003,55.16],[14.704187,55.165],[14.703969,55.17],[14.69505,55.185],[14.700022,55.19],[14.705022,55.215],[14.720022,55.235],[14.720068,55.24],[14.740019,55.255],[14.740046,55.26],[14.750033,55.27],[14.750076,55.29],[14.765,55.299951],[14.775,55.299969],[14.779971,55.295]]}},{"type":"Feature","properties":{"depth":3,"source":"DDM 2024 coarse contour","resolution":"0.005 degree sampled grid","scope":"denmark","tileSource":"contours-denmark-coarse.geojson"},"geometry":{"type":"LineString","coordinates":[[14.779976,55.295],[14.7825,55.29],[14.79,55.289939],[14.79539,55.285],[14.8,55.28493],[14.81996,55.265],[14.819989,55.26],[14.825,55.254996],[14.85,55.249933],[14.855,55.244958],[14.865,55.244928],[14.88505,55.23],[14.895,55.229939],[14.901136,55.225],[14.915,55.224944],[14.945,55.211075],[14.95,55.214961],[14.96,55.214977],[14.965,55.219922],[14.975,55.21496],[14.992073,55.195],[15.03,55.175705],[15.04,55.174943],[15.055862,55.165],[15.065,55.164929],[15.075001,55.158726]]}},{"type":"Feature","properties":{"depth":3,"source":"DDM 2024 coarse contour","resolution":"0.005 degree sampled grid","scope":"denmark","tileSource":"contours-denmark-coarse.geojson"},"geometry":{"type":"LineString","coordinates":[[15.075001,54.985008],[15.06,54.985014],[15.055,54.990002],[15.04,54.990009],[15.035,54.993913],[15.025,54.992551],[14.995,54.995012],[14.981,55],[14.96,55.000008],[14.935,55.013636],[14.93,55.014286],[14.925,55.010038],[14.92,55.015004],[14.91,55.015],[14.912297,55.02],[14.9,55.02002],[14.895,55.025018],[14.89,55.025024],[14.885,55.030008],[14.875,55.030013],[14.87,55.035],[14.855,55.035015],[14.847683,55.04],[14.825,55.040014],[14.81,55.045022],[14.805,55.050008],[14.775,55.050019],[14.768889,55.055],[14.76,55.055027],[14.754342,55.06],[14.745,55.060035],[14.72,55.080001],[14.702778,55.08],[14.699559,55.085],[14.695,55.085015],[14.680024,55.1],[14.685,55.104971],[14.695,55.107179],[14.7,55.1128],[14.695,55.119545],[14.686364,55.12],[14.6875,55.125],[14.695,55.121042],[14.705003,55.13],[14.705001,55.145],[14.697778,55.15],[14.703454,55.17],[14.695045,55.185],[14.700017,55.19],[14.705017,55.215],[14.720017,55.235],[14.720063,55.24],[14.740014,55.255],[14.740041,55.26],[14.750028,55.27],[14.750071,55.29],[14.765,55.299955],[14.775,55.299974],[14.779976,55.295]]}},{"type":"Feature","properties":{"depth":5,"source":"DDM 2024 coarse contour","resolution":"0.005 degree sampled grid","scope":"denmark","tileSource":"contours-denmark-coarse.geojson"},"geometry":{"type":"LineString","coordinates":[[14.779986,55.295],[14.784423,55.29],[14.8,55.28494],[14.826078,55.255],[14.85,55.249942],[14.855,55.244968],[14.865,55.244938],[14.88604,55.23],[14.915,55.224954],[14.945,55.212009],[14.96,55.214987],[14.965,55.219932],[14.986875,55.205],[14.994512,55.195],[15.02,55.179998],[15.04,55.174953],[15.045705,55.17],[15.056724,55.165],[15.065,55.164939],[15.075001,55.159108]]}},{"type":"Feature","properties":{"depth":5,"source":"DDM 2024 coarse contour","resolution":"0.005 degree sampled grid","scope":"denmark","tileSource":"contours-denmark-coarse.geojson"},"geometry":{"type":"LineString","coordinates":[[15.075001,54.984759],[15.06,54.985004],[14.975938,55],[14.96,54.999758],[14.935,55.012121],[14.925,55.010028],[14.92,55.013966],[14.905652,55.015],[14.905,55.02],[14.866,55.035],[14.85,55.035851],[14.845244,55.04],[14.83,55.035682],[14.826481,55.04],[14.81,55.045012],[14.804464,55.05],[14.795536,55.05],[14.795,55.039531],[14.77,55.053409],[14.745,55.060025],[14.715909,55.08],[14.698333,55.08],[14.696618,55.085],[14.680014,55.1],[14.7,55.1148],[14.683333,55.12],[14.681563,55.125],[14.7,55.126071],[14.703793,55.13],[14.7038,55.145],[14.69619,55.15],[14.702423,55.17],[14.695036,55.185],[14.700007,55.19],[14.698529,55.195],[14.705007,55.215],[14.720007,55.235],[14.720053,55.24],[14.740004,55.255],[14.740031,55.26],[14.750018,55.27],[14.750061,55.29],[14.765,55.299965],[14.775,55.299984],[14.779986,55.295]]}},{"type":"Feature","properties":{"depth":10,"source":"DDM 2024 coarse contour","resolution":"0.005 degree sampled grid","scope":"denmark","tileSource":"contours-denmark-coarse.geojson"},"geometry":{"type":"LineString","coordinates":[[14.775672,55.3],[14.8,55.284965],[14.831,55.255],[14.865,55.244963],[14.888515,55.23],[14.925,55.222482],[14.938511,55.215],[14.957143,55.215],[14.965,55.219956],[15.022123,55.18],[15.075001,55.160657]]}},{"type":"Feature","properties":{"depth":10,"source":"DDM 2024 coarse contour","resolution":"0.005 degree sampled grid","scope":"denmark","tileSource":"contours-denmark-coarse.geojson"},"geometry":{"type":"LineString","coordinates":[[15.075001,54.983058],[15.01,54.988226],[14.985,54.995984],[14.955,54.9952],[14.927059,55.01],[14.91,55.009231],[14.905,55.004872],[14.875,55.021154],[14.87,55.015],[14.855,55.019412],[14.845,55.015],[14.848636,55.02],[14.845,55.024],[14.83,55.018448],[14.805,55.0284],[14.77,55.050568],[14.73,55.063864],[14.725,55.070566],[14.695,55.078246],[14.688654,55.085],[14.690004,55.09],[14.677439,55.1],[14.689412,55.115],[14.68,55.117027],[14.675,55.113333],[14.6775,55.12],[14.673523,55.125],[14.68,55.132095],[14.695,55.128542],[14.701429,55.135],[14.700467,55.145],[14.6898,55.145],[14.699615,55.17],[14.695133,55.18],[14.696319,55.2],[14.707949,55.225],[14.749293,55.27],[14.750037,55.29],[14.765,55.29999],[14.775672,55.3]]}},{"type":"Feature","properties":{"depth":10,"source":"DDM 2024 coarse contour","resolution":"0.005 degree sampled grid","scope":"denmark","tileSource":"contours-denmark-coarse.geojson"},"geometry":{"type":"LineString","coordinates":[[14.815,55.040325],[14.80625,55.04],[14.81,55.035],[14.82,55.035],[14.817917,55.03],[14.825,55.027821],[14.825,55.032833],[14.815,55.040325]]}},{"type":"Feature","properties":{"depth":10,"source":"DDM 2024 coarse contour","resolution":"0.005 degree sampled grid","scope":"denmark","tileSource":"contours-denmark-coarse.geojson"},"geometry":{"type":"LineString","coordinates":[[14.71625,55.05],[14.705,55.038833],[14.687308,55.05],[14.69,55.052365],[14.705,55.041667],[14.71625,55.05]]}},{"type":"Feature","properties":{"depth":15,"source":"DDM 2024 coarse contour","resolution":"0.005 degree sampled grid","scope":"denmark","tileSource":"contours-denmark-coarse.geojson"},"geometry":{"type":"LineString","coordinates":[[14.6725,54.855],[14.675577,54.85],[14.67,54.836111],[14.663244,54.829999]]}},{"type":"Feature","properties":{"depth":15,"source":"DDM 2024 coarse contour","resolution":"0.005 degree sampled grid","scope":"denmark","tileSource":"contours-denmark-coarse.geojson"},"geometry":{"type":"LineString","coordinates":[[14.623181,54.829999],[14.625,54.835],[14.6175,54.845],[14.653333,54.84],[14.63375,54.855],[14.6725,54.855]]}},{"type":"Feature","properties":{"depth":15,"source":"DDM 2024 coarse contour","resolution":"0.005 degree sampled grid","scope":"denmark","tileSource":"contours-denmark-coarse.geojson"},"geometry":{"type":"LineString","coordinates":[[14.73,54.93],[14.765,54.918636],[14.78,54.926818],[14.795,54.919286],[14.795,54.91],[14.785,54.899814],[14.745,54.879672],[14.715,54.874593],[14.68,54.860952],[14.645833,54.875],[14.65,54.878333],[14.6725,54.875],[14.66,54.885],[14.66,54.89],[14.675,54.89],[14.68,54.89625],[14.695,54.9],[14.6925,54.91],[14.7,54.918],[14.73,54.93]]}},{"type":"Feature","properties":{"depth":15,"source":"DDM 2024 coarse contour","resolution":"0.005 degree sampled grid","scope":"denmark","tileSource":"contours-denmark-coarse.geojson"},"geometry":{"type":"LineString","coordinates":[[14.777537,55.3],[14.845,55.250722],[14.894167,55.23],[14.94,55.217022],[14.975,55.21697],[15.024481,55.18],[15.075001,55.161072]]}},{"type":"Feature","properties":{"depth":15,"source":"DDM 2024 coarse contour","resolution":"0.005 degree sampled grid","scope":"denmark","tileSource":"contours-denmark-coarse.geojson"},"geometry":{"type":"LineString","coordinates":[[15.075001,54.979192],[15.065,54.978788],[14.97,54.988333],[14.92,54.970588],[14.88,54.964185],[14.836875,54.94],[14.8,54.926875],[14.777778,54.935],[14.795,54.938889],[14.795714,54.945],[14.76375,54.96],[14.76,54.965714],[14.715,54.978721],[14.705,54.986719],[14.69,54.985],[14.6805,54.99],[14.69,55.001061],[14.69,54.991667],[14.705,54.9921],[14.725,54.983446],[14.73,54.988571],[14.75,54.98413],[14.79,54.958929],[14.817,54.95],[14.81,54.95],[14.81375,54.96],[14.81,54.965],[14.815,54.97],[14.79875,54.98],[14.804615,54.985],[14.795,54.986667],[14.785,54.98125],[14.77,54.984143],[14.76,54.999167],[14.755,54.992895],[14.75,55.002333],[14.74,54.998529],[14.735,55.01],[14.725,55.016667],[14.715,55.016273],[14.705,55.027195],[14.6998,55.025],[14.699286,55.015],[14.725,55.008947],[14.732,55],[14.692692,55.01],[14.687593,55.025],[14.699643,55.035],[14.680652,55.05],[14.68,55.055606],[14.665,55.051],[14.660484,55.055],[14.672059,55.06],[14.66,55.060658],[14.657155,55.065],[14.675556,55.07],[14.671316,55.075],[14.681765,55.08],[14.667556,55.09],[14.673902,55.095],[14.666935,55.1],[14.675435,55.105],[14.67,55.105217],[14.660909,55.12],[14.669107,55.135],[14.68,55.1375],[14.693409,55.17],[14.690873,55.195],[14.7,55.22],[14.745,55.265],[14.750012,55.29],[14.765,55.30092],[14.777537,55.3]]}},{"type":"Feature","properties":{"depth":15,"source":"DDM 2024 coarse contour","resolution":"0.005 degree sampled grid","scope":"denmark","tileSource":"contours-denmark-coarse.geojson"},"geometry":{"type":"LineString","coordinates":[[14.82,54.981875],[14.806667,54.98],[14.815,54.975455],[14.82,54.97625],[14.82,54.981875]]}},{"type":"Feature","properties":{"depth":15,"source":"DDM 2024 coarse contour","resolution":"0.005 degree sampled grid","scope":"denmark","tileSource":"contours-denmark-coarse.geojson"},"geometry":{"type":"LineString","coordinates":[[14.845,55.002419],[14.84,54.997273],[14.83,54.998125],[14.823333,54.99],[14.855,54.981],[14.88,54.99],[14.875,54.995],[14.85,54.996471],[14.845,55.002419]]}},{"type":"Feature","properties":{"depth":15,"source":"DDM 2024 coarse contour","resolution":"0.005 degree sampled grid","scope":"denmark","tileSource":"contours-denmark-coarse.geojson"},"geometry":{"type":"LineString","coordinates":[[14.915,54.99569],[14.893125,54.995],[14.91,54.991875],[14.915,54.99569]]}},{"type":"Feature","properties":{"depth":20,"source":"DDM 2024 coarse contour","resolution":"0.005 degree sampled grid","scope":"denmark","tileSource":"contours-denmark-coarse.geojson"},"geometry":{"type":"LineString","coordinates":[[14.599999,55.020379],[14.605,55.02],[14.63,55.006429],[14.635,55.010333],[14.64,55.005781],[14.655556,55.015],[14.65375,55.025],[14.627727,55.05],[14.635417,55.055],[14.632778,55.06],[14.6374,55.065],[14.655,55.071848],[14.66,55.0825],[14.66881,55.085],[14.662128,55.09],[14.667273,55.095],[14.655,55.113906],[14.651444,55.105],[14.657604,55.1],[14.644286,55.09],[14.65037,55.1],[14.643333,55.11],[14.653158,55.115],[14.665,55.135455],[14.676161,55.14],[14.696429,55.22],[14.734,55.26],[14.75,55.292778],[14.75775,55.3],[14.775,55.302634],[14.84186,55.255],[14.899894,55.23],[14.94,55.219831],[14.97,55.221786],[15.025,55.183305],[15.075001,55.163312]]}},{"type":"Feature","properties":{"depth":20,"source":"DDM 2024 coarse contour","resolution":"0.005 degree sampled grid","scope":"denmark","tileSource":"contours-denmark-coarse.geojson"},"geometry":{"type":"LineString","coordinates":[[15.075001,54.970661],[14.97,54.981522],[14.93,54.971795],[14.912,54.965],[14.91,54.959417],[14.9,54.96672],[14.88,54.962333],[14.84,54.93878],[14.805,54.926848],[14.796748,54.91],[14.775,54.892921],[14.745,54.878306],[14.685,54.861716],[14.672824,54.835],[14.667059,54.829999]]}},{"type":"Feature","properties":{"depth":20,"source":"DDM 2024 coarse contour","resolution":"0.005 degree sampled grid","scope":"denmark","tileSource":"contours-denmark-coarse.geojson"},"geometry":{"type":"LineString","coordinates":[[14.599999,54.947778],[14.6,54.947778],[14.599999,54.94778]]}},{"type":"Feature","properties":{"depth":20,"source":"DDM 2024 coarse contour","resolution":"0.005 degree sampled grid","scope":"denmark","tileSource":"contours-denmark-coarse.geojson"},"geometry":{"type":"LineString","coordinates":[[14.632647,55.04],[14.624138,55.035],[14.63,55.04225],[14.632647,55.04]]}},{"type":"Feature","properties":{"depth":20,"source":"DDM 2024 coarse contour","resolution":"0.005 degree sampled grid","scope":"denmark","tileSource":"contours-denmark-coarse.geojson"},"geometry":{"type":"LineString","coordinates":[[14.720625,55.29],[14.725,55.285],[14.713864,55.29],[14.720625,55.29]]}},{"type":"Feature","properties":{"depth":20,"source":"DDM 2024 coarse contour","resolution":"0.005 degree sampled grid","scope":"denmark","tileSource":"contours-denmark-coarse.geojson"},"geometry":{"type":"LineString","coordinates":[[14.740999,55.305001],[14.747,55.3],[14.73,55.293824],[14.726579,55.305],[14.72658,55.305001]]}},{"type":"Feature","properties":{"depth":30,"source":"DDM 2024 coarse contour","resolution":"0.005 degree sampled grid","scope":"denmark","tileSource":"contours-denmark-coarse.geojson"},"geometry":{"type":"LineString","coordinates":[[14.599999,55.06935],[14.6058,55.075],[14.64,55.13],[14.66425,55.155],[14.680641,55.205],[14.68,55.25],[14.668125,55.275],[14.670429,55.285],[14.658333,55.295],[14.656873,55.305001]]}},{"type":"Feature","properties":{"depth":30,"source":"DDM 2024 coarse contour","resolution":"0.005 degree sampled grid","scope":"denmark","tileSource":"contours-denmark-coarse.geojson"},"geometry":{"type":"LineString","coordinates":[[14.768542,55.305001],[14.768542,55.305],[14.795,55.296047],[14.865,55.249882],[14.91,55.230909],[14.975,55.228109],[15.055,55.177065],[15.075001,55.169822]]}},{"type":"Feature","properties":{"depth":30,"source":"DDM 2024 coarse contour","resolution":"0.005 degree sampled grid","scope":"denmark","tileSource":"contours-denmark-coarse.geojson"},"geometry":{"type":"LineString","coordinates":[[15.075001,54.963984],[15.02,54.965789],[14.92,54.955106],[14.89,54.956471],[14.864286,54.95],[14.84,54.935732],[14.82,54.930031],[14.7925,54.9],[14.737292,54.875],[14.705,54.84375],[14.682568,54.829999]]}},{"type":"Feature","properties":{"depth":50,"source":"DDM 2024 coarse contour","resolution":"0.005 degree sampled grid","scope":"denmark","tileSource":"contours-denmark-coarse.geojson"},"geometry":{"type":"LineString","coordinates":[[14.599999,55.287806],[14.61101,55.305001]]}},{"type":"Feature","properties":{"depth":50,"source":"DDM 2024 coarse contour","resolution":"0.005 degree sampled grid","scope":"denmark","tileSource":"contours-denmark-coarse.geojson"},"geometry":{"type":"LineString","coordinates":[[14.850425,55.305001],[14.86,55.295833],[14.87,55.297917],[14.87,55.293433],[14.842955,55.29],[14.865,55.27625],[14.876944,55.275],[14.870588,55.27],[14.89,55.256667],[14.925,55.253409],[14.975937,55.24],[15.075001,55.19727]]}},{"type":"Feature","properties":{"depth":50,"source":"DDM 2024 coarse contour","resolution":"0.005 degree sampled grid","scope":"denmark","tileSource":"contours-denmark-coarse.geojson"},"geometry":{"type":"LineString","coordinates":[[15.075001,54.913431],[15.07,54.913437],[14.985,54.898333],[14.93,54.8785],[14.926111,54.875],[14.9458,54.865],[14.9932,54.85],[15.003437,54.83],[15.003437,54.829999]]}},{"type":"Feature","properties":{"depth":50,"source":"DDM 2024 coarse contour","resolution":"0.005 degree sampled grid","scope":"denmark","tileSource":"contours-denmark-coarse.geojson"},"geometry":{"type":"LineString","coordinates":[[14.96,54.845567],[14.925,54.841667],[14.918,54.835],[14.96,54.838889],[14.963437,54.845],[14.96,54.845567]]}}]}