{"type":"FeatureCollection","name":"DDM contour tile r02_c04","bbox":[9.32,55.31,9.795,55.785],"metadata":{"schema":"waternav-ddm-contour-tile-v1","version":"v45.3","tileId":"r02_c04","source":"Danmarks Dybdemodel 2024 ddm_50m.dybde.tiff via bundled DDM contour GeoJSON files"},"features":[{"type":"Feature","properties":{"depth":1,"source":"DDM 2024 coarse contour","resolution":"0.005 degree sampled grid","scope":"denmark","tileSource":"contours-denmark-coarse.geojson"},"geometry":{"type":"LineString","coordinates":[[9.795001,55.675039],[9.795,55.675039],[9.79,55.680003],[9.745,55.679946],[9.73,55.690018],[9.725,55.690031],[9.714792,55.7],[9.7,55.700033],[9.695,55.705018],[9.685,55.705034],[9.68,55.710024],[9.655,55.710003],[9.65,55.705029],[9.585,55.705],[9.58,55.700011],[9.57,55.705],[9.565769,55.7],[9.571364,55.695],[9.67,55.69537],[9.68,55.689982],[9.7,55.669989],[9.715,55.66994],[9.72,55.665],[9.73,55.664947],[9.737692,55.66],[9.744987,55.65],[9.75,55.63],[9.755,55.625882],[9.785,55.625357],[9.79,55.629965],[9.795001,55.629966]]}},{"type":"Feature","properties":{"depth":1,"source":"DDM 2024 coarse contour","resolution":"0.005 degree sampled grid","scope":"denmark","tileSource":"contours-denmark-coarse.geojson"},"geometry":{"type":"LineString","coordinates":[[9.795001,55.595],[9.795,55.595],[9.794992,55.585],[9.785,55.575028],[9.78,55.575015],[9.765,55.555149],[9.755,55.55518],[9.75,55.560039],[9.745,55.555103],[9.735,55.555059],[9.729997,55.55],[9.730169,55.545],[9.73496,55.54],[9.734994,55.535],[9.74486,55.525],[9.744933,55.52],[9.74,55.515046],[9.715,55.515134],[9.71,55.520109],[9.7,55.520174],[9.695,55.525026],[9.67,55.525049],[9.64,55.505066],[9.635,55.510006],[9.62,55.510049],[9.601538,55.51],[9.595,55.505014],[9.59,55.512727],[9.585,55.512308],[9.585385,55.505],[9.589987,55.5],[9.585,55.495024],[9.52,55.495008],[9.515,55.498077],[9.501667,55.495],[9.515,55.486667],[9.52,55.489995],[9.54,55.489998],[9.545,55.494971],[9.57,55.494973],[9.575,55.489974],[9.593889,55.49],[9.6,55.499974],[9.625,55.499993],[9.63,55.495341],[9.64,55.49497],[9.655,55.484957],[9.66,55.48474],[9.670085,55.475],[9.685,55.469814],[9.695574,55.46],[9.686579,55.45],[9.67,55.442955],[9.66,55.435],[9.65,55.434143],[9.64,55.429063],[9.63,55.429437],[9.625,55.425031],[9.62,55.429683],[9.615,55.429375],[9.61,55.425025],[9.601053,55.425],[9.595556,55.42],[9.59625,55.415],[9.627857,55.385],[9.62619,55.375],[9.62,55.374273],[9.600556,55.36],[9.625,55.359981],[9.650312,55.345],[9.653636,55.34],[9.65,55.339167],[9.65,55.330652],[9.655238,55.33],[9.64625,55.32],[9.656084,55.309999]]}},{"type":"Feature","properties":{"depth":1,"source":"DDM 2024 coarse contour","resolution":"0.005 degree sampled grid","scope":"denmark","tileSource":"contours-denmark-coarse.geojson"},"geometry":{"type":"LineString","coordinates":[[9.795001,55.360014],[9.79,55.360022],[9.783846,55.365],[9.785007,55.375],[9.79,55.379981],[9.795001,55.380162]]}},{"type":"Feature","properties":{"depth":1,"source":"DDM 2024 coarse contour","resolution":"0.005 degree sampled grid","scope":"denmark","tileSource":"contours-denmark-coarse.geojson"},"geometry":{"type":"LineString","coordinates":[[9.795001,55.407291],[9.789048,55.41],[9.795,55.419955],[9.795001,55.419955]]}},{"type":"Feature","properties":{"depth":1,"source":"DDM 2024 coarse contour","resolution":"0.005 degree sampled grid","scope":"denmark","tileSource":"contours-denmark-coarse.geojson"},"geometry":{"type":"LineString","coordinates":[[9.795001,55.430002],[9.75,55.430012],[9.74,55.439444],[9.745001,55.445],[9.735,55.450004],[9.715063,55.47],[9.72,55.474917],[9.79,55.440741],[9.795001,55.440676]]}},{"type":"Feature","properties":{"depth":1,"source":"DDM 2024 coarse contour","resolution":"0.005 degree sampled grid","scope":"denmark","tileSource":"contours-denmark-coarse.geojson"},"geometry":{"type":"LineString","coordinates":[[9.795001,55.450009],[9.785,55.450028],[9.77434,55.46],[9.78,55.465006],[9.755,55.465038],[9.75,55.470007],[9.735,55.475056],[9.725,55.490052],[9.705,55.490106],[9.715,55.489914],[9.719954,55.485],[9.719911,55.48],[9.715,55.475062],[9.705,55.474969],[9.7,55.470157],[9.695,55.470154],[9.675055,55.49],[9.675003,55.495],[9.68,55.499936],[9.69,55.499911],[9.695,55.494982],[9.700113,55.495],[9.675064,55.51],[9.675034,55.515],[9.68,55.519932],[9.7,55.519826],[9.705015,55.515],[9.715,55.514866],[9.720181,55.51],[9.75,55.509969],[9.755029,55.515],[9.755052,55.52],[9.76,55.524942],[9.765,55.525292],[9.765038,55.535],[9.760041,55.54],[9.765,55.544985],[9.785,55.545043],[9.795001,55.551627]]}},{"type":"Feature","properties":{"depth":1,"source":"DDM 2024 coarse contour","resolution":"0.005 degree sampled grid","scope":"denmark","tileSource":"contours-denmark-coarse.geojson"},"geometry":{"type":"LineString","coordinates":[[9.792045,55.33],[9.795,55.326389],[9.795001,55.32639]]}},{"type":"Feature","properties":{"depth":1,"source":"DDM 2024 coarse contour","resolution":"0.005 degree sampled grid","scope":"denmark","tileSource":"contours-denmark-coarse.geojson"},"geometry":{"type":"LineString","coordinates":[[9.795,55.309999],[9.795,55.31],[9.789062,55.315],[9.79,55.325],[9.7838,55.33],[9.79,55.332368],[9.792045,55.33]]}},{"type":"Feature","properties":{"depth":1,"source":"DDM 2024 coarse contour","resolution":"0.005 degree sampled grid","scope":"denmark","tileSource":"contours-denmark-coarse.geojson"},"geometry":{"type":"LineString","coordinates":[[9.715336,55.37],[9.720252,55.365],[9.72,55.354328],[9.7,55.348833],[9.69,55.350027],[9.685014,55.355],[9.7,55.369983],[9.715336,55.37]]}},{"type":"Feature","properties":{"depth":1,"source":"DDM 2024 coarse contour","resolution":"0.005 degree sampled grid","scope":"denmark","tileSource":"contours-denmark-coarse.geojson"},"geometry":{"type":"LineString","coordinates":[[9.59,55.370001],[9.5775,55.37],[9.585,55.364999],[9.59,55.365],[9.59,55.370001]]}},{"type":"Feature","properties":{"depth":2,"source":"DDM 2024 coarse contour","resolution":"0.005 degree sampled grid","scope":"denmark","tileSource":"contours-denmark-coarse.geojson"},"geometry":{"type":"LineString","coordinates":[[9.795001,55.675034],[9.795,55.675034],[9.79,55.679733],[9.745,55.679409],[9.73,55.690013],[9.725,55.690026],[9.71375,55.7],[9.7,55.700028],[9.695,55.705013],[9.685,55.705029],[9.68,55.710019],[9.655333,55.71],[9.65,55.705024],[9.587812,55.705],[9.58,55.700006],[9.57,55.700455],[9.576111,55.695],[9.67,55.695988],[9.68,55.689987],[9.7,55.669994],[9.715,55.669945],[9.72,55.665405],[9.73,55.664952],[9.74037,55.66],[9.75,55.631786],[9.755,55.626863],[9.785,55.625867],[9.79,55.62997],[9.795001,55.630029]]}},{"type":"Feature","properties":{"depth":2,"source":"DDM 2024 coarse contour","resolution":"0.005 degree sampled grid","scope":"denmark","tileSource":"contours-denmark-coarse.geojson"},"geometry":{"type":"LineString","coordinates":[[9.795001,55.592728],[9.795,55.592727],[9.794997,55.585],[9.785,55.575023],[9.78,55.57501],[9.769999,55.565],[9.772419,55.56],[9.765,55.555145],[9.755,55.555175],[9.75,55.560034],[9.745,55.555098],[9.735,55.555054],[9.730137,55.55],[9.730452,55.545],[9.734965,55.54],[9.734999,55.535],[9.744865,55.525],[9.744938,55.52],[9.74,55.515041],[9.715,55.515129],[9.71,55.520104],[9.7,55.520169],[9.695,55.525021],[9.67,55.525044],[9.64,55.505061],[9.635,55.510001],[9.603462,55.51],[9.595,55.505009],[9.59,55.508889],[9.587308,55.505],[9.589992,55.5],[9.585,55.495019],[9.509,55.495],[9.515,55.488519],[9.536667,55.49],[9.545,55.494976],[9.57,55.494978],[9.575,55.489979],[9.5925,55.49],[9.6,55.499979],[9.625,55.499998],[9.66,55.484745],[9.670191,55.475],[9.685,55.469819],[9.696393,55.46],[9.689211,55.45],[9.66,55.433936],[9.64,55.428021],[9.63,55.428732],[9.625,55.425026],[9.62,55.428889],[9.615,55.428482],[9.61,55.42502],[9.602368,55.425],[9.596667,55.42],[9.597639,55.415],[9.630377,55.385],[9.627381,55.375],[9.607273,55.365],[9.6055,55.36],[9.625,55.359986],[9.655,55.341296],[9.662273,55.34],[9.65,55.338125],[9.65,55.331739],[9.656429,55.33],[9.648333,55.32],[9.659837,55.309999]]}},{"type":"Feature","properties":{"depth":2,"source":"DDM 2024 coarse contour","resolution":"0.005 degree sampled grid","scope":"denmark","tileSource":"contours-denmark-coarse.geojson"},"geometry":{"type":"LineString","coordinates":[[9.795001,55.360009],[9.79,55.360017],[9.782564,55.365],[9.785002,55.375],[9.79,55.379986],[9.795001,55.379988]]}},{"type":"Feature","properties":{"depth":2,"source":"DDM 2024 coarse contour","resolution":"0.005 degree sampled grid","scope":"denmark","tileSource":"contours-denmark-coarse.geojson"},"geometry":{"type":"LineString","coordinates":[[9.795001,55.406882],[9.786667,55.41],[9.795,55.41996],[9.795001,55.41996]]}},{"type":"Feature","properties":{"depth":2,"source":"DDM 2024 coarse contour","resolution":"0.005 degree sampled grid","scope":"denmark","tileSource":"contours-denmark-coarse.geojson"},"geometry":{"type":"LineString","coordinates":[[9.795001,55.43],[9.75,55.430007],[9.739792,55.435],[9.738281,55.44],[9.744024,55.445],[9.725,55.457143],[9.715058,55.47],[9.72,55.474922],[9.745,55.461234],[9.765,55.454987],[9.775,55.4475],[9.795,55.441579],[9.795001,55.441579]]}},{"type":"Feature","properties":{"depth":2,"source":"DDM 2024 coarse contour","resolution":"0.005 degree sampled grid","scope":"denmark","tileSource":"contours-denmark-coarse.geojson"},"geometry":{"type":"LineString","coordinates":[[9.795001,55.449294],[9.785,55.450023],[9.773396,55.46],[9.78,55.465001],[9.755,55.465033],[9.75,55.470002],[9.735,55.475051],[9.725,55.490047],[9.705,55.490101],[9.715,55.489919],[9.719959,55.485],[9.719916,55.48],[9.715,55.475057],[9.705,55.474654],[9.7,55.470153],[9.695,55.470149],[9.67505,55.49],[9.675,55.500112],[9.69,55.499916],[9.695,55.494987],[9.700108,55.495],[9.675059,55.51],[9.675029,55.515],[9.68,55.519937],[9.7,55.519831],[9.705166,55.515],[9.715,55.514871],[9.720382,55.51],[9.75,55.509974],[9.755024,55.515],[9.755047,55.52],[9.765,55.525657],[9.765033,55.535],[9.760036,55.54],[9.765,55.54499],[9.785,55.54547],[9.795001,55.551773]]}},{"type":"Feature","properties":{"depth":2,"source":"DDM 2024 coarse contour","resolution":"0.005 degree sampled grid","scope":"denmark","tileSource":"contours-denmark-coarse.geojson"},"geometry":{"type":"LineString","coordinates":[[9.793718,55.309999],[9.793718,55.31],[9.7875,55.315],[9.787619,55.325],[9.7818,55.33],[9.79,55.335],[9.795,55.329167],[9.795001,55.329167]]}},{"type":"Feature","properties":{"depth":2,"source":"DDM 2024 coarse contour","resolution":"0.005 degree sampled grid","scope":"denmark","tileSource":"contours-denmark-coarse.geojson"},"geometry":{"type":"LineString","coordinates":[[9.715709,55.37],[9.720612,55.365],[9.722262,55.355],[9.72,55.353582],[9.7,55.347167],[9.69,55.350022],[9.685009,55.355],[9.6866,55.36],[9.7,55.369988],[9.715709,55.37]]}},{"type":"Feature","properties":{"depth":3,"source":"DDM 2024 coarse contour","resolution":"0.005 degree sampled grid","scope":"denmark","tileSource":"contours-denmark-coarse.geojson"},"geometry":{"type":"LineString","coordinates":[[9.795001,55.675029],[9.795,55.675029],[9.79,55.679067],[9.745,55.678871],[9.712708,55.7],[9.7,55.700023],[9.695,55.705008],[9.685,55.705024],[9.68,55.710014],[9.656167,55.71],[9.65,55.705019],[9.609259,55.705],[9.605,55.702386],[9.595,55.705],[9.5775,55.7],[9.585,55.695],[9.67,55.696605],[9.7,55.669999],[9.715,55.66995],[9.72,55.665856],[9.741296,55.66],[9.7492,55.645],[9.75,55.633571],[9.755,55.627843],[9.785,55.626378],[9.79,55.629975],[9.795001,55.63012]]}},{"type":"Feature","properties":{"depth":3,"source":"DDM 2024 coarse contour","resolution":"0.005 degree sampled grid","scope":"denmark","tileSource":"contours-denmark-coarse.geojson"},"geometry":{"type":"LineString","coordinates":[[9.795001,55.590456],[9.795,55.590455],[9.795001,55.590449]]}},{"type":"Feature","properties":{"depth":3,"source":"DDM 2024 coarse contour","resolution":"0.005 degree sampled grid","scope":"denmark","tileSource":"contours-denmark-coarse.geojson"},"geometry":{"type":"LineString","coordinates":[[9.795001,55.584375],[9.775,55.57],[9.774032,55.56],[9.765,55.55514],[9.755,55.555171],[9.75,55.560029],[9.745,55.555094],[9.735,55.555049],[9.730479,55.55],[9.730734,55.545],[9.735101,55.535],[9.74487,55.525],[9.744943,55.52],[9.74,55.515036],[9.715,55.515124],[9.71,55.520099],[9.7,55.520165],[9.695,55.525016],[9.67,55.525039],[9.64,55.505056],[9.633871,55.51],[9.605,55.509615],[9.6,55.506111],[9.59,55.506111],[9.589997,55.5],[9.585,55.495014],[9.540568,55.495],[9.57,55.494983],[9.575,55.489984],[9.591111,55.49],[9.6,55.499984],[9.625,55.500303],[9.66,55.484749],[9.670297,55.475],[9.685,55.469823],[9.697213,55.46],[9.691,55.45],[9.66,55.432872],[9.635,55.425217],[9.63,55.428028],[9.625,55.425021],[9.615,55.427589],[9.603684,55.425],[9.597778,55.42],[9.599028,55.415],[9.631321,55.385],[9.628571,55.375],[9.608409,55.365],[9.608,55.36],[9.625,55.359991],[9.655,55.343148],[9.6675,55.34],[9.65,55.337083],[9.65,55.332826],[9.657619,55.33],[9.650294,55.32],[9.662452,55.309999]]}},{"type":"Feature","properties":{"depth":3,"source":"DDM 2024 coarse contour","resolution":"0.005 degree sampled grid","scope":"denmark","tileSource":"contours-denmark-coarse.geojson"},"geometry":{"type":"LineString","coordinates":[[9.795001,55.359842],[9.79,55.360012],[9.781282,55.365],[9.782917,55.375],[9.79,55.379991],[9.795001,55.379993]]}},{"type":"Feature","properties":{"depth":3,"source":"DDM 2024 coarse contour","resolution":"0.005 degree sampled grid","scope":"denmark","tileSource":"contours-denmark-coarse.geojson"},"geometry":{"type":"LineString","coordinates":[[9.795001,55.406171],[9.778571,55.41],[9.785,55.410577],[9.795,55.419965],[9.795001,55.419965]]}},{"type":"Feature","properties":{"depth":3,"source":"DDM 2024 coarse contour","resolution":"0.005 degree sampled grid","scope":"denmark","tileSource":"contours-denmark-coarse.geojson"},"geometry":{"type":"LineString","coordinates":[[9.795001,55.430038],[9.745,55.432041],[9.73875,55.435],[9.736719,55.44],[9.742805,55.445],[9.73,55.449867],[9.715053,55.47],[9.72,55.474927],[9.725,55.475031],[9.728,55.47],[9.775,55.44875],[9.795,55.442456],[9.795001,55.442456]]}},{"type":"Feature","properties":{"depth":3,"source":"DDM 2024 coarse contour","resolution":"0.005 degree sampled grid","scope":"denmark","tileSource":"contours-denmark-coarse.geojson"},"geometry":{"type":"LineString","coordinates":[[9.795001,55.449162],[9.793469,55.45],[9.785,55.450018],[9.772453,55.46],[9.778542,55.465],[9.755,55.465028],[9.735,55.475046],[9.725,55.490043],[9.705,55.490096],[9.715,55.489924],[9.719964,55.485],[9.71992,55.48],[9.715,55.475052],[9.705,55.47434],[9.7,55.470148],[9.695,55.470144],[9.675045,55.49],[9.675,55.500485],[9.69,55.499921],[9.695,55.494992],[9.700103,55.495],[9.675054,55.51],[9.675024,55.515],[9.68,55.519942],[9.7,55.519835],[9.705317,55.515],[9.715,55.514876],[9.720582,55.51],[9.75,55.509979],[9.755019,55.515],[9.755043,55.52],[9.765,55.526022],[9.765028,55.535],[9.760031,55.54],[9.765,55.544995],[9.785,55.545897],[9.795001,55.551918]]}},{"type":"Feature","properties":{"depth":3,"source":"DDM 2024 coarse contour","resolution":"0.005 degree sampled grid","scope":"denmark","tileSource":"contours-denmark-coarse.geojson"},"geometry":{"type":"LineString","coordinates":[[9.791515,55.335],[9.795,55.331167],[9.795001,55.331167]]}},{"type":"Feature","properties":{"depth":3,"source":"DDM 2024 coarse contour","resolution":"0.005 degree sampled grid","scope":"denmark","tileSource":"contours-denmark-coarse.geojson"},"geometry":{"type":"LineString","coordinates":[[9.792436,55.309999],[9.792436,55.31],[9.785937,55.315],[9.787949,55.32],[9.785,55.325185],[9.778889,55.325],[9.781429,55.335],[9.791515,55.335]]}},{"type":"Feature","properties":{"depth":3,"source":"DDM 2024 coarse contour","resolution":"0.005 degree sampled grid","scope":"denmark","tileSource":"contours-denmark-coarse.geojson"},"geometry":{"type":"LineString","coordinates":[[9.716082,55.37],[9.7229,55.36],[9.723452,55.355],[9.72,55.352836],[9.7,55.3455],[9.685004,55.355],[9.684655,55.36],[9.7,55.369993],[9.716082,55.37]]}},{"type":"Feature","properties":{"depth":5,"source":"DDM 2024 coarse contour","resolution":"0.005 degree sampled grid","scope":"denmark","tileSource":"contours-denmark-coarse.geojson"},"geometry":{"type":"LineString","coordinates":[[9.795001,55.675019],[9.795,55.675019],[9.78,55.679091],[9.745,55.677796],[9.710625,55.7],[9.7,55.700013],[9.694483,55.705],[9.685,55.705014],[9.68,55.710004],[9.657833,55.71],[9.65,55.705009],[9.62075,55.705],[9.6025,55.7],[9.635,55.695312],[9.64,55.697843],[9.655,55.694999],[9.67,55.69784],[9.7,55.671049],[9.715,55.66996],[9.750323,55.655],[9.750156,55.65],[9.755814,55.645],[9.754762,55.63],[9.765,55.627169],[9.795001,55.629815]]}},{"type":"Feature","properties":{"depth":5,"source":"DDM 2024 coarse contour","resolution":"0.005 degree sampled grid","scope":"denmark","tileSource":"contours-denmark-coarse.geojson"},"geometry":{"type":"LineString","coordinates":[[9.795001,55.582179],[9.7818,55.575],[9.779643,55.565],[9.775,55.559536],[9.765,55.55513],[9.755,55.555161],[9.75,55.560019],[9.745,55.555084],[9.735,55.555039],[9.731299,55.545],[9.735352,55.535],[9.744879,55.525],[9.744953,55.52],[9.74,55.515026],[9.715,55.515114],[9.71,55.520089],[9.7,55.520155],[9.695,55.525006],[9.67,55.525029],[9.64,55.505046],[9.630645,55.51],[9.613889,55.51],[9.6,55.5026],[9.595,55.50431],[9.590739,55.5],[9.595,55.49537],[9.6,55.499994],[9.625,55.501313],[9.66,55.484759],[9.670508,55.475],[9.685,55.469833],[9.698852,55.46],[9.7,55.454151],[9.66,55.430745],[9.635,55.423137],[9.63,55.42662],[9.6075,55.425],[9.6,55.42],[9.633208,55.385],[9.63,55.373824],[9.611667,55.365],[9.614286,55.36],[9.62,55.363191],[9.671143,55.34],[9.67,55.33619],[9.65,55.335],[9.66,55.33],[9.653235,55.32],[9.665695,55.309999]]}},{"type":"Feature","properties":{"depth":5,"source":"DDM 2024 coarse contour","resolution":"0.005 degree sampled grid","scope":"denmark","tileSource":"contours-denmark-coarse.geojson"},"geometry":{"type":"LineString","coordinates":[[9.795001,55.359625],[9.785,55.361172],[9.775,55.369],[9.775,55.375],[9.783,55.38],[9.795001,55.38]]}},{"type":"Feature","properties":{"depth":5,"source":"DDM 2024 coarse contour","resolution":"0.005 degree sampled grid","scope":"denmark","tileSource":"contours-denmark-coarse.geojson"},"geometry":{"type":"LineString","coordinates":[[9.795001,55.404814],[9.77,55.410385],[9.795,55.419975],[9.795001,55.419975]]}},{"type":"Feature","properties":{"depth":5,"source":"DDM 2024 coarse contour","resolution":"0.005 degree sampled grid","scope":"denmark","tileSource":"contours-denmark-coarse.geojson"},"geometry":{"type":"LineString","coordinates":[[9.795001,55.428696],[9.790789,55.43],[9.745,55.43],[9.734062,55.44],[9.740366,55.445],[9.73,55.448533],[9.716667,55.465],[9.715043,55.47],[9.72,55.474937],[9.725,55.47566],[9.7399,55.465],[9.778846,55.45],[9.79,55.447742],[9.791429,55.45],[9.785,55.450008],[9.77,55.461579],[9.755,55.465018],[9.735,55.475036],[9.725,55.490033],[9.705,55.490087],[9.715,55.489934],[9.719974,55.485],[9.71993,55.48],[9.715,55.475042],[9.695,55.470135],[9.675036,55.49],[9.675,55.501231],[9.69,55.499931],[9.695,55.495081],[9.695,55.500089],[9.69,55.500069],[9.675044,55.51],[9.675014,55.515],[9.68,55.519952],[9.7,55.519845],[9.720984,55.51],[9.75,55.509989],[9.755009,55.515],[9.755033,55.52],[9.765,55.526752],[9.765018,55.535],[9.760021,55.54],[9.763977,55.545],[9.785,55.546752],[9.795001,55.55221]]}},{"type":"Feature","properties":{"depth":5,"source":"DDM 2024 coarse contour","resolution":"0.005 degree sampled grid","scope":"denmark","tileSource":"contours-denmark-coarse.geojson"},"geometry":{"type":"LineString","coordinates":[[9.79,55.34],[9.795,55.3345],[9.795001,55.3345]]}},{"type":"Feature","properties":{"depth":5,"source":"DDM 2024 coarse contour","resolution":"0.005 degree sampled grid","scope":"denmark","tileSource":"contours-denmark-coarse.geojson"},"geometry":{"type":"LineString","coordinates":[[9.789844,55.309999],[9.789844,55.31],[9.782879,55.315],[9.785,55.320682],[9.772857,55.325],[9.77625,55.33],[9.774875,55.335],[9.78,55.34],[9.79,55.34]]}},{"type":"Feature","properties":{"depth":5,"source":"DDM 2024 coarse contour","resolution":"0.005 degree sampled grid","scope":"denmark","tileSource":"contours-denmark-coarse.geojson"},"geometry":{"type":"LineString","coordinates":[[9.716828,55.37],[9.7249,55.36],[9.725297,55.355],[9.705833,55.345],[9.695,55.346364],[9.681207,55.36],[9.7,55.371071],[9.716828,55.37]]}},{"type":"Feature","properties":{"depth":5,"source":"DDM 2024 coarse contour","resolution":"0.005 degree sampled grid","scope":"denmark","tileSource":"contours-denmark-coarse.geojson"},"geometry":{"type":"LineString","coordinates":[[9.585,55.495004],[9.5675,55.495],[9.575,55.495],[9.574994,55.49],[9.58,55.489987],[9.588214,55.495],[9.585,55.495004]]}},{"type":"Feature","properties":{"depth":10,"source":"DDM 2024 coarse contour","resolution":"0.005 degree sampled grid","scope":"denmark","tileSource":"contours-denmark-coarse.geojson"},"geometry":{"type":"LineString","coordinates":[[9.795001,55.669511],[9.77,55.674],[9.715,55.676667],[9.695,55.689],[9.694426,55.68],[9.7,55.674136],[9.745,55.662206],[9.765,55.650769],[9.766667,55.63],[9.795001,55.632211]]}},{"type":"Feature","properties":{"depth":10,"source":"DDM 2024 coarse contour","resolution":"0.005 degree sampled grid","scope":"denmark","tileSource":"contours-denmark-coarse.geojson"},"geometry":{"type":"LineString","coordinates":[[9.795001,55.564938],[9.795,55.564937],[9.765,55.555106],[9.75,55.55962],[9.735,55.555014],[9.73598,55.535],[9.744904,55.525],[9.74,55.515001],[9.715,55.51509],[9.691724,55.525],[9.67,55.525004],[9.64,55.505021],[9.62,55.510004],[9.607706,55.505],[9.625,55.503838],[9.63,55.49875],[9.64,55.500612],[9.655032,55.485],[9.700616,55.46],[9.700286,55.45],[9.708446,55.44],[9.705,55.425294],[9.693598,55.43],[9.695,55.432727],[9.7,55.427],[9.699209,55.44],[9.704767,55.445],[9.7,55.449362],[9.690979,55.445],[9.675238,55.425],[9.680714,55.385],[9.6775,55.375],[9.685,55.371667],[9.71,55.375842],[9.723489,55.365],[9.727415,55.355],[9.71622,55.345],[9.7,55.343149],[9.665,55.36425],[9.6616,55.36],[9.663704,55.35],[9.675,55.339444],[9.697414,55.335],[9.7,55.329286],[9.71,55.33],[9.701667,55.32],[9.705,55.313125],[9.72,55.322083],[9.73076,55.309999]]}},{"type":"Feature","properties":{"depth":10,"source":"DDM 2024 coarse contour","resolution":"0.005 degree sampled grid","scope":"denmark","tileSource":"contours-denmark-coarse.geojson"},"geometry":{"type":"LineString","coordinates":[[9.739999,55.309999],[9.74,55.31],[9.740003,55.309999]]}},{"type":"Feature","properties":{"depth":10,"source":"DDM 2024 coarse contour","resolution":"0.005 degree sampled grid","scope":"denmark","tileSource":"contours-denmark-coarse.geojson"},"geometry":{"type":"LineString","coordinates":[[9.776679,55.309999],[9.775,55.316],[9.75,55.32375],[9.74,55.318889],[9.736477,55.325],[9.755,55.325714],[9.774839,55.34],[9.785,55.341952],[9.795001,55.339485]]}},{"type":"Feature","properties":{"depth":10,"source":"DDM 2024 coarse contour","resolution":"0.005 degree sampled grid","scope":"denmark","tileSource":"contours-denmark-coarse.geojson"},"geometry":{"type":"LineString","coordinates":[[9.795001,55.35848],[9.775,55.363533],[9.770536,55.375],[9.775,55.381795],[9.7875,55.385],[9.795001,55.392684]]}},{"type":"Feature","properties":{"depth":10,"source":"DDM 2024 coarse contour","resolution":"0.005 degree sampled grid","scope":"denmark","tileSource":"contours-denmark-coarse.geojson"},"geometry":{"type":"LineString","coordinates":[[9.795001,55.400638],[9.775,55.402424],[9.764091,55.41],[9.77,55.418095],[9.795001,55.419827]]}},{"type":"Feature","properties":{"depth":10,"source":"DDM 2024 coarse contour","resolution":"0.005 degree sampled grid","scope":"denmark","tileSource":"contours-denmark-coarse.geojson"},"geometry":{"type":"LineString","coordinates":[[9.795001,55.425253],[9.75,55.427124],[9.735,55.432733],[9.714375,55.465],[9.725,55.477233],[9.735,55.471892],[9.725,55.490008],[9.705,55.490062],[9.715,55.489958],[9.719955,55.48],[9.71,55.472727],[9.695,55.47011],[9.67227,55.495],[9.675,55.503097],[9.682635,55.5],[9.683744,55.505],[9.670962,55.515],[9.68,55.519977],[9.7,55.519869],[9.721988,55.51],[9.748739,55.51],[9.765,55.528577],[9.757414,55.545],[9.785,55.548889],[9.795001,55.5525]]}},{"type":"Feature","properties":{"depth":10,"source":"DDM 2024 coarse contour","resolution":"0.005 degree sampled grid","scope":"denmark","tileSource":"contours-denmark-coarse.geojson"},"geometry":{"type":"LineString","coordinates":[[9.667321,55.5],[9.66,55.493125],[9.661061,55.5],[9.667321,55.5]]}},{"type":"Feature","properties":{"depth":15,"source":"DDM 2024 coarse contour","resolution":"0.005 degree sampled grid","scope":"denmark","tileSource":"contours-denmark-coarse.geojson"},"geometry":{"type":"LineString","coordinates":[[9.795001,55.561531],[9.792157,55.56],[9.737187,55.555],[9.736608,55.535],[9.744928,55.525],[9.74,55.513222],[9.715,55.515066],[9.695,55.523295],[9.689722,55.52],[9.722992,55.51],[9.75,55.511266],[9.764747,55.53],[9.755,55.546682],[9.795,55.552674],[9.795001,55.552674]]}},{"type":"Feature","properties":{"depth":15,"source":"DDM 2024 coarse contour","resolution":"0.005 degree sampled grid","scope":"denmark","tileSource":"contours-denmark-coarse.geojson"},"geometry":{"type":"LineString","coordinates":[[9.67,55.501282],[9.668855,55.495],[9.655574,55.485],[9.7,55.462028],[9.702667,55.45],[9.72081,55.43],[9.715,55.421212],[9.695714,55.42],[9.705,55.40375],[9.705714,55.39],[9.688846,55.38],[9.71,55.378474],[9.729626,55.36],[9.728367,55.35],[9.72,55.342979],[9.69,55.344865],[9.685385,55.34],[9.715,55.335102],[9.745,55.345333],[9.795001,55.340349]]}},{"type":"Feature","properties":{"depth":15,"source":"DDM 2024 coarse contour","resolution":"0.005 degree sampled grid","scope":"denmark","tileSource":"contours-denmark-coarse.geojson"},"geometry":{"type":"LineString","coordinates":[[9.795001,55.35204],[9.775,55.3602],[9.767642,55.37],[9.770192,55.385],[9.762812,55.405],[9.749667,55.425],[9.74,55.430823],[9.735,55.428448],[9.713235,55.47],[9.695,55.470086],[9.675,55.48825],[9.67,55.501282]]}},{"type":"Feature","properties":{"depth":15,"source":"DDM 2024 coarse contour","resolution":"0.005 degree sampled grid","scope":"denmark","tileSource":"contours-denmark-coarse.geojson"},"geometry":{"type":"LineString","coordinates":[[9.685,55.346127],[9.674783,55.345],[9.685,55.340789],[9.689706,55.345],[9.685,55.346127]]}},{"type":"Feature","properties":{"depth":15,"source":"DDM 2024 coarse contour","resolution":"0.005 degree sampled grid","scope":"denmark","tileSource":"contours-denmark-coarse.geojson"},"geometry":{"type":"LineString","coordinates":[[9.752143,55.395],[9.750641,55.38],[9.745,55.378333],[9.738333,55.395],[9.745,55.399286],[9.752143,55.395]]}},{"type":"Feature","properties":{"depth":15,"source":"DDM 2024 coarse contour","resolution":"0.005 degree sampled grid","scope":"denmark","tileSource":"contours-denmark-coarse.geojson"},"geometry":{"type":"LineString","coordinates":[[9.720368,55.41],[9.72,55.406875],[9.707857,55.41],[9.720368,55.41]]}},{"type":"Feature","properties":{"depth":15,"source":"DDM 2024 coarse contour","resolution":"0.005 degree sampled grid","scope":"denmark","tileSource":"contours-denmark-coarse.geojson"},"geometry":{"type":"LineString","coordinates":[[9.695,55.446167],[9.683488,55.425],[9.69,55.4206],[9.698784,55.445],[9.695,55.446167]]}},{"type":"Feature","properties":{"depth":15,"source":"DDM 2024 coarse contour","resolution":"0.005 degree sampled grid","scope":"denmark","tileSource":"contours-denmark-coarse.geojson"},"geometry":{"type":"LineString","coordinates":[[9.725,55.486667],[9.716744,55.475],[9.72975,55.48],[9.725,55.486667]]}},{"type":"Feature","properties":{"depth":15,"source":"DDM 2024 coarse contour","resolution":"0.005 degree sampled grid","scope":"denmark","tileSource":"contours-denmark-coarse.geojson"},"geometry":{"type":"LineString","coordinates":[[9.675,55.524437],[9.644998,55.51],[9.643657,55.495],[9.655,55.485697],[9.659781,55.49],[9.656682,55.495],[9.661119,55.51],[9.679891,55.52],[9.675,55.524437]]}},{"type":"Feature","properties":{"depth":20,"source":"DDM 2024 coarse contour","resolution":"0.005 degree sampled grid","scope":"denmark","tileSource":"contours-denmark-coarse.geojson"},"geometry":{"type":"LineString","coordinates":[[9.67,55.49254],[9.656115,55.485],[9.7,55.463208],[9.722207,55.43],[9.724044,55.41],[9.73,55.407941],[9.736452,55.42],[9.71631,55.46],[9.71,55.468803],[9.69,55.472544],[9.67,55.49254]]}},{"type":"Feature","properties":{"depth":20,"source":"DDM 2024 coarse contour","resolution":"0.005 degree sampled grid","scope":"denmark","tileSource":"contours-denmark-coarse.geojson"},"geometry":{"type":"LineString","coordinates":[[9.655,55.513311],[9.646058,55.505],[9.65,55.492429],[9.658295,55.505],[9.655,55.513311]]}},{"type":"Feature","properties":{"depth":20,"source":"DDM 2024 coarse contour","resolution":"0.005 degree sampled grid","scope":"denmark","tileSource":"contours-denmark-coarse.geojson"},"geometry":{"type":"LineString","coordinates":[[9.71,55.520016],[9.691407,55.52],[9.723996,55.51],[9.743426,55.51],[9.732439,55.515],[9.715,55.515041],[9.71,55.520016]]}},{"type":"Feature","properties":{"depth":20,"source":"DDM 2024 coarse contour","resolution":"0.005 degree sampled grid","scope":"denmark","tileSource":"contours-denmark-coarse.geojson"},"geometry":{"type":"LineString","coordinates":[[9.765,55.555057],[9.742614,55.555],[9.735519,55.545],[9.746517,55.52],[9.742042,55.515],[9.745,55.510535],[9.763594,55.53],[9.755,55.5375],[9.749925,55.535],[9.751195,55.545],[9.769126,55.555],[9.765,55.555057]]}},{"type":"Feature","properties":{"depth":20,"source":"DDM 2024 coarse contour","resolution":"0.005 degree sampled grid","scope":"denmark","tileSource":"contours-denmark-coarse.geojson"},"geometry":{"type":"LineString","coordinates":[[9.795,55.558846],[9.77697,55.555],[9.79,55.551899],[9.795001,55.553669]]}},{"type":"Feature","properties":{"depth":20,"source":"DDM 2024 coarse contour","resolution":"0.005 degree sampled grid","scope":"denmark","tileSource":"contours-denmark-coarse.geojson"},"geometry":{"type":"LineString","coordinates":[[9.795001,55.558845],[9.795,55.558846]]}},{"type":"Feature","properties":{"depth":30,"source":"DDM 2024 coarse contour","resolution":"0.005 degree sampled grid","scope":"denmark","tileSource":"contours-denmark-coarse.geojson"},"geometry":{"type":"LineString","coordinates":[[9.705,55.465286],[9.704041,55.46],[9.715,55.44578],[9.7176,55.455],[9.705,55.465286]]}},{"type":"Feature","properties":{"depth":30,"source":"DDM 2024 coarse contour","resolution":"0.005 degree sampled grid","scope":"denmark","tileSource":"contours-denmark-coarse.geojson"},"geometry":{"type":"LineString","coordinates":[[9.7,55.470017],[9.691585,55.47],[9.695,55.46479],[9.7,55.470017]]}},{"type":"Feature","properties":{"depth":30,"source":"DDM 2024 coarse contour","resolution":"0.005 degree sampled grid","scope":"denmark","tileSource":"contours-denmark-coarse.geojson"},"geometry":{"type":"LineString","coordinates":[[9.675,55.482633],[9.666755,55.48],[9.689409,55.47],[9.675,55.482633]]}},{"type":"Feature","properties":{"depth":30,"source":"DDM 2024 coarse contour","resolution":"0.005 degree sampled grid","scope":"denmark","tileSource":"contours-denmark-coarse.geojson"},"geometry":{"type":"LineString","coordinates":[[9.655,55.511118],[9.647981,55.505],[9.65,55.501875],[9.655991,55.505],[9.655,55.511118]]}},{"type":"Feature","properties":{"depth":30,"source":"DDM 2024 coarse contour","resolution":"0.005 degree sampled grid","scope":"denmark","tileSource":"contours-denmark-coarse.geojson"},"geometry":{"type":"LineString","coordinates":[[9.75,55.521379],[9.745,55.513679],[9.751286,55.515],[9.75,55.521379]]}},{"type":"Feature","properties":{"depth":30,"source":"DDM 2024 coarse contour","resolution":"0.005 degree sampled grid","scope":"denmark","tileSource":"contours-denmark-coarse.geojson"},"geometry":{"type":"LineString","coordinates":[[9.74,55.547222],[9.738492,55.535],[9.745,55.525238],[9.746194,55.535],[9.74,55.547222]]}},{"type":"Feature","properties":{"depth":30,"source":"DDM 2024 coarse contour","resolution":"0.005 degree sampled grid","scope":"denmark","tileSource":"contours-denmark-coarse.geojson"},"geometry":{"type":"LineString","coordinates":[[9.765,55.555009],[9.751957,55.555],[9.76,55.551823],[9.765,55.555009]]}}]}