{"type":"FeatureCollection","name":"DDM contour tile r03_c07","bbox":[10.76,55.79,11.235,56.265],"metadata":{"schema":"waternav-ddm-contour-tile-v1","version":"v45.3","tileId":"r03_c07","source":"Danmarks Dybdemodel 2024 ddm_50m.dybde.tiff via bundled DDM contour GeoJSON files"},"features":[{"type":"Feature","properties":{"depth":1,"source":"DDM 2024 coarse contour","resolution":"0.005 degree sampled grid","scope":"denmark","tileSource":"contours-denmark-coarse.geojson"},"geometry":{"type":"LineString","coordinates":[[10.818102,56.265001],[10.805,56.250033],[10.8,56.250007],[10.79,56.240032],[10.77,56.240016],[10.765,56.235014],[10.759999,56.233343]]}},{"type":"Feature","properties":{"depth":1,"source":"DDM 2024 coarse contour","resolution":"0.005 degree sampled grid","scope":"denmark","tileSource":"contours-denmark-coarse.geojson"},"geometry":{"type":"LineString","coordinates":[[11.080333,55.92],[11.1,55.919976],[11.105,55.914992],[11.115,55.91498],[11.125,55.904994],[11.13,55.90498],[11.136,55.9],[11.145,55.9],[11.16,55.889993],[11.165,55.889987],[11.175,55.879993],[11.185,55.879976],[11.195968,55.87],[11.205,55.869978],[11.214998,55.86],[11.21,55.855015],[11.205,55.860015],[11.195,55.860023],[11.19,55.865001],[11.16,55.865015],[11.135,55.880011],[11.13,55.88002],[11.115,55.895007],[11.1,55.895021],[11.095,55.900015],[11.085,55.900024],[11.075016,55.915],[11.080333,55.92]]}},{"type":"Feature","properties":{"depth":1,"source":"DDM 2024 coarse contour","resolution":"0.005 degree sampled grid","scope":"denmark","tileSource":"contours-denmark-coarse.geojson"},"geometry":{"type":"LineString","coordinates":[[10.77,55.945],[10.765,55.94002],[10.76,55.940012],[10.759999,55.940012]]}},{"type":"Feature","properties":{"depth":1,"source":"DDM 2024 coarse contour","resolution":"0.005 degree sampled grid","scope":"denmark","tileSource":"contours-denmark-coarse.geojson"},"geometry":{"type":"LineString","coordinates":[[10.759999,55.949989],[10.76,55.949989],[10.765,55.949988],[10.77,55.945]]}},{"type":"Feature","properties":{"depth":1,"source":"DDM 2024 coarse contour","resolution":"0.005 degree sampled grid","scope":"denmark","tileSource":"contours-denmark-coarse.geojson"},"geometry":{"type":"LineString","coordinates":[[10.814987,56.135],[10.81,56.130011],[10.8,56.130009],[10.795021,56.135],[10.8,56.139977],[10.81,56.13999],[10.814987,56.135]]}},{"type":"Feature","properties":{"depth":2,"source":"DDM 2024 coarse contour","resolution":"0.005 degree sampled grid","scope":"denmark","tileSource":"contours-denmark-coarse.geojson"},"geometry":{"type":"LineString","coordinates":[[10.820953,56.265001],[10.82,56.262759],[10.805,56.250028],[10.8,56.250002],[10.79,56.240027],[10.77,56.240011],[10.759999,56.23372]]}},{"type":"Feature","properties":{"depth":2,"source":"DDM 2024 coarse contour","resolution":"0.005 degree sampled grid","scope":"denmark","tileSource":"contours-denmark-coarse.geojson"},"geometry":{"type":"LineString","coordinates":[[11.081444,55.92],[11.1,55.919981],[11.105,55.914997],[11.115,55.914985],[11.125,55.904999],[11.145,55.900794],[11.16,55.889998],[11.17,55.886711],[11.175,55.879998],[11.185,55.879981],[11.197581,55.87],[11.205,55.869983],[11.212024,55.865],[11.215,55.857],[11.21,55.85501],[11.205,55.86001],[11.195,55.860018],[11.182714,55.865],[11.16,55.86501],[11.135,55.880006],[11.13,55.880015],[11.115,55.895002],[11.1,55.895016],[11.095,55.90001],[11.085,55.900019],[11.075011,55.915],[11.08,55.921585],[11.081444,55.92]]}},{"type":"Feature","properties":{"depth":2,"source":"DDM 2024 coarse contour","resolution":"0.005 degree sampled grid","scope":"denmark","tileSource":"contours-denmark-coarse.geojson"},"geometry":{"type":"LineString","coordinates":[[10.770254,55.945],[10.765,55.940015],[10.76,55.940007],[10.759999,55.940007]]}},{"type":"Feature","properties":{"depth":2,"source":"DDM 2024 coarse contour","resolution":"0.005 degree sampled grid","scope":"denmark","tileSource":"contours-denmark-coarse.geojson"},"geometry":{"type":"LineString","coordinates":[[10.759999,55.949994],[10.76,55.949994],[10.765,55.949993],[10.770254,55.945]]}},{"type":"Feature","properties":{"depth":2,"source":"DDM 2024 coarse contour","resolution":"0.005 degree sampled grid","scope":"denmark","tileSource":"contours-denmark-coarse.geojson"},"geometry":{"type":"LineString","coordinates":[[10.814992,56.135],[10.81,56.130006],[10.8,56.130004],[10.795016,56.135],[10.8,56.139982],[10.81,56.139995],[10.814992,56.135]]}},{"type":"Feature","properties":{"depth":3,"source":"DDM 2024 coarse contour","resolution":"0.005 degree sampled grid","scope":"denmark","tileSource":"contours-denmark-coarse.geojson"},"geometry":{"type":"LineString","coordinates":[[10.82106,56.265001],[10.815,56.257],[10.800481,56.25],[10.79,56.240022],[10.77,56.240006],[10.759999,56.233403]]}},{"type":"Feature","properties":{"depth":3,"source":"DDM 2024 coarse contour","resolution":"0.005 degree sampled grid","scope":"denmark","tileSource":"contours-denmark-coarse.geojson"},"geometry":{"type":"LineString","coordinates":[[11.235001,55.849989],[11.235,55.85],[11.23,55.8475],[11.223871,55.85],[11.235001,55.85]]}},{"type":"Feature","properties":{"depth":3,"source":"DDM 2024 coarse contour","resolution":"0.005 degree sampled grid","scope":"denmark","tileSource":"contours-denmark-coarse.geojson"},"geometry":{"type":"LineString","coordinates":[[11.082556,55.92],[11.1,55.919986],[11.106176,55.915],[11.115,55.91499],[11.126296,55.905],[11.145,55.901587],[11.15,55.897558],[11.155,55.9],[11.153437,55.895],[11.17,55.888026],[11.175,55.881071],[11.185,55.879986],[11.199194,55.87],[11.21,55.866957],[11.219286,55.855],[11.21,55.855005],[11.205,55.860005],[11.195,55.860013],[11.181286,55.865],[11.16,55.865005],[11.135,55.880001],[11.13,55.88001],[11.113611,55.895],[11.1,55.895011],[11.095,55.900005],[11.085,55.900014],[11.075006,55.915],[11.08,55.922805],[11.082556,55.92]]}},{"type":"Feature","properties":{"depth":3,"source":"DDM 2024 coarse contour","resolution":"0.005 degree sampled grid","scope":"denmark","tileSource":"contours-denmark-coarse.geojson"},"geometry":{"type":"LineString","coordinates":[[10.770537,55.945],[10.765,55.94001],[10.76,55.940002],[10.759999,55.940002]]}},{"type":"Feature","properties":{"depth":3,"source":"DDM 2024 coarse contour","resolution":"0.005 degree sampled grid","scope":"denmark","tileSource":"contours-denmark-coarse.geojson"},"geometry":{"type":"LineString","coordinates":[[10.759999,55.949999],[10.76,55.949999],[10.765,55.949998],[10.770537,55.945]]}},{"type":"Feature","properties":{"depth":3,"source":"DDM 2024 coarse contour","resolution":"0.005 degree sampled grid","scope":"denmark","tileSource":"contours-denmark-coarse.geojson"},"geometry":{"type":"LineString","coordinates":[[11.220946,56.075],[11.230312,56.065],[11.2195,56.07],[11.21825,56.075],[11.220946,56.075]]}},{"type":"Feature","properties":{"depth":3,"source":"DDM 2024 coarse contour","resolution":"0.005 degree sampled grid","scope":"denmark","tileSource":"contours-denmark-coarse.geojson"},"geometry":{"type":"LineString","coordinates":[[10.814997,56.135],[10.81,56.130001],[10.795,56.13],[10.795011,56.135],[10.8,56.139987],[10.81,56.14],[10.814997,56.135]]}},{"type":"Feature","properties":{"depth":5,"source":"DDM 2024 coarse contour","resolution":"0.005 degree sampled grid","scope":"denmark","tileSource":"contours-denmark-coarse.geojson"},"geometry":{"type":"LineString","coordinates":[[10.825641,56.265001],[10.820897,56.255],[10.81,56.255001],[10.79,56.240012],[10.771944,56.24],[10.759999,56.233242]]}},{"type":"Feature","properties":{"depth":5,"source":"DDM 2024 coarse contour","resolution":"0.005 degree sampled grid","scope":"denmark","tileSource":"contours-denmark-coarse.geojson"},"geometry":{"type":"LineString","coordinates":[[11.080833,55.925],[11.084778,55.92],[11.105,55.919286],[11.12,55.909996],[11.125714,55.91],[11.13,55.905],[11.15,55.899884],[11.155,55.901493],[11.158846,55.895],[11.17,55.890714],[11.175,55.884643],[11.21619,55.865],[11.225,55.854655],[11.235001,55.852531]]}},{"type":"Feature","properties":{"depth":5,"source":"DDM 2024 coarse contour","resolution":"0.005 degree sampled grid","scope":"denmark","tileSource":"contours-denmark-coarse.geojson"},"geometry":{"type":"LineString","coordinates":[[11.235001,55.842423],[11.225312,55.845],[11.203636,55.86],[11.19,55.858958],[11.165,55.865],[11.155,55.864324],[11.145,55.86875],[11.125,55.883846],[11.106176,55.89],[11.105625,55.895],[11.085,55.900004],[11.071364,55.915],[11.07,55.925],[11.080833,55.925]]}},{"type":"Feature","properties":{"depth":5,"source":"DDM 2024 coarse contour","resolution":"0.005 degree sampled grid","scope":"denmark","tileSource":"contours-denmark-coarse.geojson"},"geometry":{"type":"LineString","coordinates":[[10.806,55.945],[10.80875,55.935],[10.79,55.925],[10.777429,55.935],[10.785,55.945141],[10.8,55.948462],[10.806,55.945]]}},{"type":"Feature","properties":{"depth":5,"source":"DDM 2024 coarse contour","resolution":"0.005 degree sampled grid","scope":"denmark","tileSource":"contours-denmark-coarse.geojson"},"geometry":{"type":"LineString","coordinates":[[10.759999,55.952023],[10.768636,55.95],[10.771102,55.945],[10.765,55.94],[10.759999,55.940009]]}},{"type":"Feature","properties":{"depth":5,"source":"DDM 2024 coarse contour","resolution":"0.005 degree sampled grid","scope":"denmark","tileSource":"contours-denmark-coarse.geojson"},"geometry":{"type":"LineString","coordinates":[[10.781667,55.98],[10.76,55.975],[10.765,55.981875],[10.781667,55.98]]}},{"type":"Feature","properties":{"depth":5,"source":"DDM 2024 coarse contour","resolution":"0.005 degree sampled grid","scope":"denmark","tileSource":"contours-denmark-coarse.geojson"},"geometry":{"type":"LineString","coordinates":[[11.210333,56.085],[11.235001,56.066065]]}},{"type":"Feature","properties":{"depth":5,"source":"DDM 2024 coarse contour","resolution":"0.005 degree sampled grid","scope":"denmark","tileSource":"contours-denmark-coarse.geojson"},"geometry":{"type":"LineString","coordinates":[[11.235001,56.058711],[11.235,56.05871],[11.217,56.07],[11.209545,56.08],[11.210333,56.085]]}},{"type":"Feature","properties":{"depth":5,"source":"DDM 2024 coarse contour","resolution":"0.005 degree sampled grid","scope":"denmark","tileSource":"contours-denmark-coarse.geojson"},"geometry":{"type":"LineString","coordinates":[[10.826481,56.14],[10.828462,56.135],[10.82,56.125833],[10.81,56.123333],[10.793462,56.13],[10.795001,56.135],[10.805,56.143421],[10.826481,56.14]]}},{"type":"Feature","properties":{"depth":10,"source":"DDM 2024 coarse contour","resolution":"0.005 degree sampled grid","scope":"denmark","tileSource":"contours-denmark-coarse.geojson"},"geometry":{"type":"LineString","coordinates":[[10.833216,56.265001],[10.833214,56.265],[10.84,56.258077],[10.845135,56.26],[10.84,56.254208],[10.814167,56.25],[10.804565,56.245],[10.805,56.24],[10.759999,56.225731]]}},{"type":"Feature","properties":{"depth":10,"source":"DDM 2024 coarse contour","resolution":"0.005 degree sampled grid","scope":"denmark","tileSource":"contours-denmark-coarse.geojson"},"geometry":{"type":"LineString","coordinates":[[11.108891,55.789999],[11.108889,55.79],[11.12,55.8],[11.135,55.7918],[11.145,55.792368],[11.16375,55.805],[11.141667,55.81],[11.155,55.817414],[11.166429,55.815],[11.161705,55.81],[11.176,55.8],[11.165,55.793023],[11.15,55.793421],[11.146286,55.79],[11.146287,55.789999]]}},{"type":"Feature","properties":{"depth":10,"source":"DDM 2024 coarse contour","resolution":"0.005 degree sampled grid","scope":"denmark","tileSource":"contours-denmark-coarse.geojson"},"geometry":{"type":"LineString","coordinates":[[11.235001,56.038109],[11.224375,56.06],[11.203507,56.08],[11.205,56.088065],[11.22,56.086574],[11.2237,56.09],[11.219167,56.095],[11.225,56.095155],[11.235001,56.079793]]}},{"type":"Feature","properties":{"depth":10,"source":"DDM 2024 coarse contour","resolution":"0.005 degree sampled grid","scope":"denmark","tileSource":"contours-denmark-coarse.geojson"},"geometry":{"type":"LineString","coordinates":[[11.069444,55.935],[11.13,55.916667],[11.195,55.879896],[11.215,55.876071],[11.225784,55.87],[11.235001,55.855648]]}},{"type":"Feature","properties":{"depth":10,"source":"DDM 2024 coarse contour","resolution":"0.005 degree sampled grid","scope":"denmark","tileSource":"contours-denmark-coarse.geojson"},"geometry":{"type":"LineString","coordinates":[[11.235001,55.841136],[11.235,55.841136],[11.2,55.840132],[11.185,55.844737],[11.18125,55.84],[11.185,55.836087],[11.22,55.84],[11.218571,55.835],[11.198333,55.83],[11.181875,55.835],[11.1785,55.84],[11.184375,55.845],[11.13,55.866923],[11.115833,55.88],[11.060455,55.9],[11.049928,55.915],[11.051,55.935],[11.069444,55.935]]}},{"type":"Feature","properties":{"depth":10,"source":"DDM 2024 coarse contour","resolution":"0.005 degree sampled grid","scope":"denmark","tileSource":"contours-denmark-coarse.geojson"},"geometry":{"type":"LineString","coordinates":[[11.076475,55.85],[11.097857,55.835],[11.09,55.831591],[11.075,55.834846],[11.059375,55.85],[11.065,55.854474],[11.076475,55.85]]}},{"type":"Feature","properties":{"depth":10,"source":"DDM 2024 coarse contour","resolution":"0.005 degree sampled grid","scope":"denmark","tileSource":"contours-denmark-coarse.geojson"},"geometry":{"type":"LineString","coordinates":[[11.2,55.856486],[11.189054,55.855],[11.202895,55.855],[11.2,55.856486]]}},{"type":"Feature","properties":{"depth":10,"source":"DDM 2024 coarse contour","resolution":"0.005 degree sampled grid","scope":"denmark","tileSource":"contours-denmark-coarse.geojson"},"geometry":{"type":"LineString","coordinates":[[10.866045,55.885],[10.86,55.873111],[10.836333,55.885],[10.866045,55.885]]}},{"type":"Feature","properties":{"depth":10,"source":"DDM 2024 coarse contour","resolution":"0.005 degree sampled grid","scope":"denmark","tileSource":"contours-denmark-coarse.geojson"},"geometry":{"type":"LineString","coordinates":[[10.822222,55.955],[10.831818,55.94],[10.852125,55.935],[10.84,55.93375],[10.839286,55.915],[10.856809,55.91],[10.858214,55.905],[10.81,55.898333],[10.769048,55.91],[10.766379,55.915],[10.776349,55.93],[10.773907,55.935],[10.79,55.953448],[10.8,55.958333],[10.822222,55.955]]}},{"type":"Feature","properties":{"depth":10,"source":"DDM 2024 coarse contour","resolution":"0.005 degree sampled grid","scope":"denmark","tileSource":"contours-denmark-coarse.geojson"},"geometry":{"type":"LineString","coordinates":[[10.82,55.928788],[10.805,55.928277],[10.788723,55.92],[10.788167,55.915],[10.805,55.915472],[10.82,55.921711],[10.823472,55.925],[10.82,55.928788]]}},{"type":"Feature","properties":{"depth":10,"source":"DDM 2024 coarse contour","resolution":"0.005 degree sampled grid","scope":"denmark","tileSource":"contours-denmark-coarse.geojson"},"geometry":{"type":"LineString","coordinates":[[10.92175,55.945],[10.915,55.929113],[10.885,55.929167],[10.873214,55.935],[10.875,55.941579],[10.92175,55.945]]}},{"type":"Feature","properties":{"depth":10,"source":"DDM 2024 coarse contour","resolution":"0.005 degree sampled grid","scope":"denmark","tileSource":"contours-denmark-coarse.geojson"},"geometry":{"type":"LineString","coordinates":[[10.785161,55.995],[10.796915,55.975],[10.765,55.938356],[10.759999,55.939901]]}},{"type":"Feature","properties":{"depth":10,"source":"DDM 2024 coarse contour","resolution":"0.005 degree sampled grid","scope":"denmark","tileSource":"contours-denmark-coarse.geojson"},"geometry":{"type":"LineString","coordinates":[[10.759999,55.957136],[10.766618,55.955],[10.7661,55.965],[10.759999,55.969503]]}},{"type":"Feature","properties":{"depth":10,"source":"DDM 2024 coarse contour","resolution":"0.005 degree sampled grid","scope":"denmark","tileSource":"contours-denmark-coarse.geojson"},"geometry":{"type":"LineString","coordinates":[[10.759999,55.995167],[10.785161,55.995]]}},{"type":"Feature","properties":{"depth":10,"source":"DDM 2024 coarse contour","resolution":"0.005 degree sampled grid","scope":"denmark","tileSource":"contours-denmark-coarse.geojson"},"geometry":{"type":"LineString","coordinates":[[10.863056,56.02],[10.8575,56.015],[10.864,56.01],[10.860263,56.005],[10.85,56.003774],[10.841111,56.01],[10.84,56.015],[10.85,56.022381],[10.863056,56.02]]}},{"type":"Feature","properties":{"depth":10,"source":"DDM 2024 coarse contour","resolution":"0.005 degree sampled grid","scope":"denmark","tileSource":"contours-denmark-coarse.geojson"},"geometry":{"type":"LineString","coordinates":[[10.860833,56.11],[10.868333,56.105],[10.86625,56.1],[10.890714,56.095],[10.86,56.07381],[10.85,56.05962],[10.825556,56.06],[10.818587,56.065],[10.825,56.082167],[10.859687,56.095],[10.851818,56.105],[10.855,56.111818],[10.860833,56.11]]}},{"type":"Feature","properties":{"depth":10,"source":"DDM 2024 coarse contour","resolution":"0.005 degree sampled grid","scope":"denmark","tileSource":"contours-denmark-coarse.geojson"},"geometry":{"type":"LineString","coordinates":[[11.021429,56.07],[11.015,56.0615],[11.01,56.065],[11.021429,56.07]]}},{"type":"Feature","properties":{"depth":10,"source":"DDM 2024 coarse contour","resolution":"0.005 degree sampled grid","scope":"denmark","tileSource":"contours-denmark-coarse.geojson"},"geometry":{"type":"LineString","coordinates":[[10.770937,56.105],[10.780909,56.095],[10.77,56.092609],[10.759999,56.09904]]}},{"type":"Feature","properties":{"depth":10,"source":"DDM 2024 coarse contour","resolution":"0.005 degree sampled grid","scope":"denmark","tileSource":"contours-denmark-coarse.geojson"},"geometry":{"type":"LineString","coordinates":[[10.759999,56.100601],[10.770937,56.105]]}},{"type":"Feature","properties":{"depth":10,"source":"DDM 2024 coarse contour","resolution":"0.005 degree sampled grid","scope":"denmark","tileSource":"contours-denmark-coarse.geojson"},"geometry":{"type":"LineString","coordinates":[[10.82375,56.15],[10.83,56.14925],[10.835,56.13725],[10.84037,56.135],[10.835405,56.105],[10.824167,56.1],[10.825,56.095],[10.81,56.098378],[10.79694,56.115],[10.797744,56.125],[10.789783,56.13],[10.793636,56.145],[10.82375,56.15]]}},{"type":"Feature","properties":{"depth":10,"source":"DDM 2024 coarse contour","resolution":"0.005 degree sampled grid","scope":"denmark","tileSource":"contours-denmark-coarse.geojson"},"geometry":{"type":"LineString","coordinates":[[11.209091,56.175],[11.205,56.167639],[11.19,56.159403],[11.18,56.163],[11.149786,56.15],[11.17,56.166818],[11.209091,56.175]]}},{"type":"Feature","properties":{"depth":10,"source":"DDM 2024 coarse contour","resolution":"0.005 degree sampled grid","scope":"denmark","tileSource":"contours-denmark-coarse.geojson"},"geometry":{"type":"LineString","coordinates":[[11.215536,56.24],[11.1985,56.215],[11.197667,56.205],[11.202353,56.2],[11.195,56.197222],[11.188056,56.23],[11.205,56.243065],[11.215536,56.24]]}},{"type":"Feature","properties":{"depth":15,"source":"DDM 2024 coarse contour","resolution":"0.005 degree sampled grid","scope":"denmark","tileSource":"contours-denmark-coarse.geojson"},"geometry":{"type":"LineString","coordinates":[[10.850456,56.265001],[10.850455,56.265],[10.851842,56.26],[10.84,56.251733],[10.762692,56.22],[10.759999,56.21615]]}},{"type":"Feature","properties":{"depth":15,"source":"DDM 2024 coarse contour","resolution":"0.005 degree sampled grid","scope":"denmark","tileSource":"contours-denmark-coarse.geojson"},"geometry":{"type":"LineString","coordinates":[[11.007334,55.789999],[11.006,55.795],[11.015,55.800926],[11.06,55.805],[11.085,55.816071],[11.1,55.813594],[11.128235,55.83],[11.095,55.857222],[11.016087,55.9],[11.005455,55.92],[11.015833,55.925],[11.02,55.933333],[11.041842,55.925],[11.043636,55.93],[11.036591,55.935],[11.04037,55.94],[11.036,55.945],[11.047,55.945],[11.05,55.95],[11.075,55.938922],[11.085,55.939643],[11.145,55.920714],[11.157857,55.91],[11.21,55.895],[11.235001,55.882547]]}},{"type":"Feature","properties":{"depth":15,"source":"DDM 2024 coarse contour","resolution":"0.005 degree sampled grid","scope":"denmark","tileSource":"contours-denmark-coarse.geojson"},"geometry":{"type":"LineString","coordinates":[[11.235001,55.894398],[11.234,55.895],[11.228333,55.905],[11.228333,55.91],[11.235001,55.914546]]}},{"type":"Feature","properties":{"depth":15,"source":"DDM 2024 coarse contour","resolution":"0.005 degree sampled grid","scope":"denmark","tileSource":"contours-denmark-coarse.geojson"},"geometry":{"type":"LineString","coordinates":[[11.235001,55.996021],[11.23,56.025833],[11.215,56.045833],[11.203462,56.05],[11.205,56.054],[11.216042,56.055],[11.197045,56.085],[11.198698,56.1],[11.203916,56.105],[11.225,56.097732],[11.235001,56.086066]]}},{"type":"Feature","properties":{"depth":15,"source":"DDM 2024 coarse contour","resolution":"0.005 degree sampled grid","scope":"denmark","tileSource":"contours-denmark-coarse.geojson"},"geometry":{"type":"LineString","coordinates":[[10.759999,55.999847],[10.785,55.999474],[10.80525,55.98],[10.789121,55.965],[10.79,55.957105],[10.8,55.963305],[10.825,55.965556],[10.835,55.958939],[10.84,55.966875],[10.845,55.966786],[10.853111,55.96],[10.845,55.955714],[10.84,55.95881],[10.838095,55.955],[10.845,55.954839],[10.86,55.939239],[10.865208,55.945],[10.86,55.963889],[10.95,55.965872],[10.969808,55.96],[10.953571,55.95],[10.955,55.9345],[10.95,55.937179],[10.939333,55.93],[10.905,55.923708],[10.875,55.925],[10.865,55.935196],[10.860167,55.925],[10.8485,55.92],[10.847222,55.915],[10.86,55.911149],[10.863947,55.905],[10.81,55.89438],[10.795833,55.895],[10.78,55.904375],[10.76,55.905],[10.759999,55.905001]]}},{"type":"Feature","properties":{"depth":15,"source":"DDM 2024 coarse contour","resolution":"0.005 degree sampled grid","scope":"denmark","tileSource":"contours-denmark-coarse.geojson"},"geometry":{"type":"LineString","coordinates":[[10.759999,55.913954],[10.765,55.916076],[10.771803,55.925],[10.772252,55.935],[10.788025,55.955],[10.782083,55.955],[10.765,55.936678],[10.759999,55.935817]]}},{"type":"Feature","properties":{"depth":15,"source":"DDM 2024 coarse contour","resolution":"0.005 degree sampled grid","scope":"denmark","tileSource":"contours-denmark-coarse.geojson"},"geometry":{"type":"LineString","coordinates":[[11.155,55.830943],[11.146136,55.825],[11.19,55.815556],[11.225,55.82],[11.215,55.827581],[11.185,55.823061],[11.155,55.830943]]}},{"type":"Feature","properties":{"depth":15,"source":"DDM 2024 coarse contour","resolution":"0.005 degree sampled grid","scope":"denmark","tileSource":"contours-denmark-coarse.geojson"},"geometry":{"type":"LineString","coordinates":[[10.874,55.84],[10.88,55.84],[10.880435,55.835],[10.870833,55.83],[10.875,55.823333],[10.865,55.832083],[10.85,55.824773],[10.845,55.83],[10.85,55.826],[10.865,55.84],[10.874,55.84]]}},{"type":"Feature","properties":{"depth":15,"source":"DDM 2024 coarse contour","resolution":"0.005 degree sampled grid","scope":"denmark","tileSource":"contours-denmark-coarse.geojson"},"geometry":{"type":"LineString","coordinates":[[10.975395,55.895],[11.07,55.856495],[11.095,55.841719],[11.101831,55.835],[11.101,55.83],[11.09,55.826949],[11.075,55.831],[11.025,55.861765],[11.011,55.865],[11.01,55.87],[10.985,55.885],[10.975,55.8855],[10.969167,55.895],[10.975395,55.895]]}},{"type":"Feature","properties":{"depth":15,"source":"DDM 2024 coarse contour","resolution":"0.005 degree sampled grid","scope":"denmark","tileSource":"contours-denmark-coarse.geojson"},"geometry":{"type":"LineString","coordinates":[[11.0584,55.835],[11.055,55.83],[11.040455,55.835],[11.05,55.839318],[11.0584,55.835]]}},{"type":"Feature","properties":{"depth":15,"source":"DDM 2024 coarse contour","resolution":"0.005 degree sampled grid","scope":"denmark","tileSource":"contours-denmark-coarse.geojson"},"geometry":{"type":"LineString","coordinates":[[10.9075,55.85],[10.915556,55.845],[10.897308,55.845],[10.9075,55.85]]}},{"type":"Feature","properties":{"depth":15,"source":"DDM 2024 coarse contour","resolution":"0.005 degree sampled grid","scope":"denmark","tileSource":"contours-denmark-coarse.geojson"},"geometry":{"type":"LineString","coordinates":[[10.850648,55.89],[10.865,55.889923],[10.869776,55.885],[10.868617,55.875],[10.86,55.870333],[10.84,55.874524],[10.83,55.871071],[10.832,55.885],[10.850648,55.89]]}},{"type":"Feature","properties":{"depth":15,"source":"DDM 2024 coarse contour","resolution":"0.005 degree sampled grid","scope":"denmark","tileSource":"contours-denmark-coarse.geojson"},"geometry":{"type":"LineString","coordinates":[[10.976538,55.88],[10.97,55.875],[10.953333,55.88],[10.975,55.884],[10.976538,55.88]]}},{"type":"Feature","properties":{"depth":15,"source":"DDM 2024 coarse contour","resolution":"0.005 degree sampled grid","scope":"denmark","tileSource":"contours-denmark-coarse.geojson"},"geometry":{"type":"LineString","coordinates":[[10.963684,55.895],[10.95,55.891607],[10.937619,55.895],[10.945,55.899028],[10.963684,55.895]]}},{"type":"Feature","properties":{"depth":15,"source":"DDM 2024 coarse contour","resolution":"0.005 degree sampled grid","scope":"denmark","tileSource":"contours-denmark-coarse.geojson"},"geometry":{"type":"LineString","coordinates":[[11.045,55.923909],[11.039375,55.905],[11.045,55.902973],[11.048906,55.91],[11.045,55.923909]]}},{"type":"Feature","properties":{"depth":15,"source":"DDM 2024 coarse contour","resolution":"0.005 degree sampled grid","scope":"denmark","tileSource":"contours-denmark-coarse.geojson"},"geometry":{"type":"LineString","coordinates":[[10.815,55.92609],[10.805,55.926176],[10.805,55.920333],[10.815,55.92609]]}},{"type":"Feature","properties":{"depth":15,"source":"DDM 2024 coarse contour","resolution":"0.005 degree sampled grid","scope":"denmark","tileSource":"contours-denmark-coarse.geojson"},"geometry":{"type":"LineString","coordinates":[[10.825556,55.98],[10.828333,55.975],[10.825,55.972857],[10.814667,55.975],[10.82,55.980882],[10.825556,55.98]]}},{"type":"Feature","properties":{"depth":15,"source":"DDM 2024 coarse contour","resolution":"0.005 degree sampled grid","scope":"denmark","tileSource":"contours-denmark-coarse.geojson"},"geometry":{"type":"LineString","coordinates":[[10.8698,56.045],[10.88,56.038125],[10.885,56.042969],[10.888065,56.04],[10.875,56.032286],[10.856375,56.03],[10.885,56.020161],[10.88,56.009337],[10.85,55.999242],[10.823889,56.015],[10.841071,56.03],[10.855,56.035],[10.850278,56.04],[10.857396,56.045],[10.8698,56.045]]}},{"type":"Feature","properties":{"depth":15,"source":"DDM 2024 coarse contour","resolution":"0.005 degree sampled grid","scope":"denmark","tileSource":"contours-denmark-coarse.geojson"},"geometry":{"type":"LineString","coordinates":[[10.97,56.01],[10.965769,56],[10.958488,56],[10.965,56.009737],[10.97,56.01]]}},{"type":"Feature","properties":{"depth":15,"source":"DDM 2024 coarse contour","resolution":"0.005 degree sampled grid","scope":"denmark","tileSource":"contours-denmark-coarse.geojson"},"geometry":{"type":"LineString","coordinates":[[10.910952,56.025],[10.905,56.017157],[10.898177,56.02],[10.9,56.025068],[10.910952,56.025]]}},{"type":"Feature","properties":{"depth":15,"source":"DDM 2024 coarse contour","resolution":"0.005 degree sampled grid","scope":"denmark","tileSource":"contours-denmark-coarse.geojson"},"geometry":{"type":"LineString","coordinates":[[11.045909,56.085],[11.046429,56.07],[11.015,56.04734],[10.995,56.049063],[10.975,56.062917],[10.995,56.080875],[11.03,56.087115],[11.045909,56.085]]}},{"type":"Feature","properties":{"depth":15,"source":"DDM 2024 coarse contour","resolution":"0.005 degree sampled grid","scope":"denmark","tileSource":"contours-denmark-coarse.geojson"},"geometry":{"type":"LineString","coordinates":[[10.837059,56.18],[10.847065,56.175],[10.84,56.16],[10.845,56.138378],[10.855,56.128],[10.895147,56.105],[10.901667,56.095],[10.901354,56.085],[10.85,56.058158],[10.825,56.057419],[10.805952,56.07],[10.815957,56.08],[10.805,56.089524],[10.795,56.09371],[10.79,56.087308],[10.775,56.085946],[10.759999,56.096626]]}},{"type":"Feature","properties":{"depth":15,"source":"DDM 2024 coarse contour","resolution":"0.005 degree sampled grid","scope":"denmark","tileSource":"contours-denmark-coarse.geojson"},"geometry":{"type":"LineString","coordinates":[[10.759999,56.102567],[10.77,56.107983],[10.79,56.0925],[10.793182,56.095],[10.78875,56.115],[10.796044,56.12],[10.787609,56.13],[10.792351,56.135],[10.788591,56.145],[10.819615,56.165],[10.82,56.183182],[10.837059,56.18]]}},{"type":"Feature","properties":{"depth":15,"source":"DDM 2024 coarse contour","resolution":"0.005 degree sampled grid","scope":"denmark","tileSource":"contours-denmark-coarse.geojson"},"geometry":{"type":"LineString","coordinates":[[10.835,56.101],[10.83,56.09275],[10.838333,56.095],[10.839375,56.1],[10.835,56.101]]}},{"type":"Feature","properties":{"depth":15,"source":"DDM 2024 coarse contour","resolution":"0.005 degree sampled grid","scope":"denmark","tileSource":"contours-denmark-coarse.geojson"},"geometry":{"type":"LineString","coordinates":[[10.845,56.109468],[10.838784,56.105],[10.845,56.094359],[10.850982,56.1],[10.845,56.109468]]}},{"type":"Feature","properties":{"depth":15,"source":"DDM 2024 coarse contour","resolution":"0.005 degree sampled grid","scope":"denmark","tileSource":"contours-denmark-coarse.geojson"},"geometry":{"type":"LineString","coordinates":[[10.795,56.110385],[10.790667,56.105],[10.8,56.095682],[10.80226,56.105],[10.795,56.110385]]}},{"type":"Feature","properties":{"depth":15,"source":"DDM 2024 coarse contour","resolution":"0.005 degree sampled grid","scope":"denmark","tileSource":"contours-denmark-coarse.geojson"},"geometry":{"type":"LineString","coordinates":[[10.885385,56.15],[10.89,56.145],[10.875,56.141429],[10.862407,56.145],[10.865,56.150278],[10.885385,56.15]]}},{"type":"Feature","properties":{"depth":15,"source":"DDM 2024 coarse contour","resolution":"0.005 degree sampled grid","scope":"denmark","tileSource":"contours-denmark-coarse.geojson"},"geometry":{"type":"LineString","coordinates":[[11.231001,56.265001],[11.231,56.265],[11.232222,56.24],[11.224091,56.215],[11.233333,56.185],[11.208875,56.165],[11.145,56.143564],[11.142667,56.16],[11.155833,56.17],[11.157273,56.18],[11.176667,56.205],[11.176875,56.22],[11.185536,56.24],[11.215,56.26125],[11.216775,56.265001]]}},{"type":"Feature","properties":{"depth":15,"source":"DDM 2024 coarse contour","resolution":"0.005 degree sampled grid","scope":"denmark","tileSource":"contours-denmark-coarse.geojson"},"geometry":{"type":"LineString","coordinates":[[10.785216,56.175],[10.78875,56.17],[10.78561,56.165],[10.775,56.161667],[10.775,56.177719],[10.785216,56.175]]}},{"type":"Feature","properties":{"depth":15,"source":"DDM 2024 coarse contour","resolution":"0.005 degree sampled grid","scope":"denmark","tileSource":"contours-denmark-coarse.geojson"},"geometry":{"type":"LineString","coordinates":[[10.851667,56.21],[10.845,56.193333],[10.818092,56.2],[10.82,56.206406],[10.83,56.202],[10.851667,56.21]]}},{"type":"Feature","properties":{"depth":20,"source":"DDM 2024 coarse contour","resolution":"0.005 degree sampled grid","scope":"denmark","tileSource":"contours-denmark-coarse.geojson"},"geometry":{"type":"LineString","coordinates":[[10.967779,56.265001],[10.94,56.24],[10.92,56.24],[10.915,56.245],[10.92125,56.26],[10.916249,56.265001]]}},{"type":"Feature","properties":{"depth":20,"source":"DDM 2024 coarse contour","resolution":"0.005 degree sampled grid","scope":"denmark","tileSource":"contours-denmark-coarse.geojson"},"geometry":{"type":"LineString","coordinates":[[10.86474,56.265001],[10.845,56.249758],[10.789286,56.23],[10.765,56.209444],[10.759999,56.20185]]}},{"type":"Feature","properties":{"depth":20,"source":"DDM 2024 coarse contour","resolution":"0.005 degree sampled grid","scope":"denmark","tileSource":"contours-denmark-coarse.geojson"},"geometry":{"type":"LineString","coordinates":[[10.759999,56.004483],[10.78,56.003068],[10.8,55.993462],[10.85,55.985804],[10.88,55.985294],[10.915,55.99125],[10.9225,55.975],[10.981458,55.96],[10.975,55.948306],[10.965,55.949848],[10.960676,55.945],[10.963125,55.935],[10.955,55.928615],[10.89,55.921774],[10.88,55.91619],[10.865,55.919125],[10.856136,55.915],[10.867969,55.905],[10.805,55.892514],[10.759999,55.893006]]}},{"type":"Feature","properties":{"depth":20,"source":"DDM 2024 coarse contour","resolution":"0.005 degree sampled grid","scope":"denmark","tileSource":"contours-denmark-coarse.geojson"},"geometry":{"type":"LineString","coordinates":[[10.98,55.789999],[10.98,55.796],[10.97,55.8],[10.96375,55.81],[10.96625,55.825],[10.981923,55.855],[10.98,55.866111],[10.97,55.858333],[10.96,55.856667],[10.95,55.86125],[10.945,55.855],[10.935,55.856111],[10.94,55.8525],[10.945,55.855],[10.944,55.845],[10.935,55.8415],[10.92875,55.85],[10.909,55.83],[10.9,55.8125],[10.875,55.805],[10.845,55.810263],[10.841094,55.83],[10.8475,55.835],[10.840714,55.84],[10.843333,55.845],[10.88,55.845],[10.879167,55.85],[10.885,55.854875],[10.9065,55.865],[10.9,55.866604],[10.895,55.879167],[10.931296,55.89],[10.92,55.899483],[10.915,55.893333],[10.902368,55.9],[10.916,55.905],[10.925,55.895333],[10.935,55.901136],[10.965,55.901475],[11.035,55.876383],[11.039146,55.88],[11.02,55.888906],[11.01,55.885],[11.014583,55.89],[10.984348,55.905],[11,55.914583],[10.99725,55.92],[11.01,55.935508],[11.020682,55.94],[11.015,55.955847],[11.045,55.966905],[11.075,55.959],[11.085,55.964444],[11.11,55.96],[11.105,55.975],[11.083,55.985],[11.09,55.986875],[11.105,55.98],[11.105,55.99],[11.12,55.995],[11.135,56.01],[11.17,56.02],[11.19,56.02],[11.1975,56.03],[11.193889,56.045],[11.17,56.068462],[11.181111,56.08],[11.1815,56.09],[11.21,56.108081],[11.2216,56.105],[11.235001,56.090597]]}},{"type":"Feature","properties":{"depth":20,"source":"DDM 2024 coarse contour","resolution":"0.005 degree sampled grid","scope":"denmark","tileSource":"contours-denmark-coarse.geojson"},"geometry":{"type":"LineString","coordinates":[[10.759999,55.797277],[10.778929,55.79],[10.778929,55.789999]]}},{"type":"Feature","properties":{"depth":20,"source":"DDM 2024 coarse contour","resolution":"0.005 degree sampled grid","scope":"denmark","tileSource":"contours-denmark-coarse.geojson"},"geometry":{"type":"LineString","coordinates":[[11.11,55.836471],[11.10625,55.835],[11.11,55.824535],[11.115385,55.83],[11.11,55.836471]]}},{"type":"Feature","properties":{"depth":20,"source":"DDM 2024 coarse contour","resolution":"0.005 degree sampled grid","scope":"denmark","tileSource":"contours-denmark-coarse.geojson"},"geometry":{"type":"LineString","coordinates":[[10.786739,55.84],[10.774762,55.835],[10.785,55.842857],[10.786739,55.84]]}},{"type":"Feature","properties":{"depth":20,"source":"DDM 2024 coarse contour","resolution":"0.005 degree sampled grid","scope":"denmark","tileSource":"contours-denmark-coarse.geojson"},"geometry":{"type":"LineString","coordinates":[[10.782917,55.87],[10.79,55.858333],[10.759999,55.850193]]}},{"type":"Feature","properties":{"depth":20,"source":"DDM 2024 coarse contour","resolution":"0.005 degree sampled grid","scope":"denmark","tileSource":"contours-denmark-coarse.geojson"},"geometry":{"type":"LineString","coordinates":[[10.759999,55.851193],[10.77,55.867931],[10.782917,55.87]]}},{"type":"Feature","properties":{"depth":20,"source":"DDM 2024 coarse contour","resolution":"0.005 degree sampled grid","scope":"denmark","tileSource":"contours-denmark-coarse.geojson"},"geometry":{"type":"LineString","coordinates":[[10.868311,55.89],[10.873357,55.885],[10.873077,55.87],[10.855,55.853],[10.83,55.867317],[10.83,55.885387],[10.845,55.89022],[10.868311,55.89]]}},{"type":"Feature","properties":{"depth":20,"source":"DDM 2024 coarse contour","resolution":"0.005 degree sampled grid","scope":"denmark","tileSource":"contours-denmark-coarse.geojson"},"geometry":{"type":"LineString","coordinates":[[11.06,55.8708],[11.051098,55.87],[11.075,55.85437],[11.084651,55.855],[11.06,55.8708]]}},{"type":"Feature","properties":{"depth":20,"source":"DDM 2024 coarse contour","resolution":"0.005 degree sampled grid","scope":"denmark","tileSource":"contours-denmark-coarse.geojson"},"geometry":{"type":"LineString","coordinates":[[11.05,55.876615],[11.04,55.8793],[11.036161,55.875],[11.045,55.870633],[11.05,55.8715],[11.05,55.876615]]}},{"type":"Feature","properties":{"depth":20,"source":"DDM 2024 coarse contour","resolution":"0.005 degree sampled grid","scope":"denmark","tileSource":"contours-denmark-coarse.geojson"},"geometry":{"type":"LineString","coordinates":[[10.775,55.944429],[10.759999,55.929073]]}},{"type":"Feature","properties":{"depth":20,"source":"DDM 2024 coarse contour","resolution":"0.005 degree sampled grid","scope":"denmark","tileSource":"contours-denmark-coarse.geojson"},"geometry":{"type":"LineString","coordinates":[[10.759999,55.915424],[10.765,55.917658],[10.770596,55.935],[10.776775,55.94],[10.775,55.944429]]}},{"type":"Feature","properties":{"depth":20,"source":"DDM 2024 coarse contour","resolution":"0.005 degree sampled grid","scope":"denmark","tileSource":"contours-denmark-coarse.geojson"},"geometry":{"type":"LineString","coordinates":[[10.985,55.985],[10.975,55.979286],[10.969,55.985],[10.98,55.988125],[10.985,55.985]]}},{"type":"Feature","properties":{"depth":20,"source":"DDM 2024 coarse contour","resolution":"0.005 degree sampled grid","scope":"denmark","tileSource":"contours-denmark-coarse.geojson"},"geometry":{"type":"LineString","coordinates":[[11.052273,56.095],[11.066667,56.085],[11.055926,56.07],[11.025,56.047164],[10.9975,56.04],[11.038125,56.04],[11.030833,56.03],[11.035,56.02881],[11.035,56.022576],[11.025,56.033636],[11.003571,56.015],[11.006071,56.005],[10.985,55.993],[10.955,55.997619],[10.95,56.006579],[10.94,56.003333],[10.935,56.00697],[10.9348,56.015],[10.94375,56.015],[10.954167,56.035],[10.98,56.038889],[10.989667,56.045],[10.970612,56.06],[10.970455,56.075],[10.985,56.090476],[11,56.095333],[10.996071,56.09],[11,56.086333],[11.035,56.098],[11.052273,56.095]]}},{"type":"Feature","properties":{"depth":20,"source":"DDM 2024 coarse contour","resolution":"0.005 degree sampled grid","scope":"denmark","tileSource":"contours-denmark-coarse.geojson"},"geometry":{"type":"LineString","coordinates":[[10.907778,56.045],[10.91283,56.04],[10.910385,56.035],[10.92,56.029412],[10.92,56.023125],[10.9,56.008889],[10.8966,56.025],[10.9055,56.03],[10.893333,56.03],[10.892963,56.02],[10.884632,56.01],[10.875,56.002538],[10.85,55.995455],[10.825,55.998714],[10.759999,56.023123]]}},{"type":"Feature","properties":{"depth":20,"source":"DDM 2024 coarse contour","resolution":"0.005 degree sampled grid","scope":"denmark","tileSource":"contours-denmark-coarse.geojson"},"geometry":{"type":"LineString","coordinates":[[10.759999,56.033748],[10.76,56.03375],[10.77,56.035952],[10.83,56.035583],[10.855,56.045682],[10.9,56.049706],[10.907778,56.045]]}},{"type":"Feature","properties":{"depth":20,"source":"DDM 2024 coarse contour","resolution":"0.005 degree sampled grid","scope":"denmark","tileSource":"contours-denmark-coarse.geojson"},"geometry":{"type":"LineString","coordinates":[[11.062,56.04],[11.055,56.024194],[11.041957,56.035],[11.045,56.038043],[11.05,56.033],[11.055,56.04],[11.062,56.04]]}},{"type":"Feature","properties":{"depth":20,"source":"DDM 2024 coarse contour","resolution":"0.005 degree sampled grid","scope":"denmark","tileSource":"contours-denmark-coarse.geojson"},"geometry":{"type":"LineString","coordinates":[[10.938636,56.19],[10.93,56.1775],[10.91,56.175],[10.91,56.1825],[10.9075,56.17],[10.934,56.16],[10.9145,56.155],[10.92,56.15],[10.935,56.15],[10.937,56.145],[10.9,56.135],[10.878929,56.12],[10.910439,56.095],[10.901569,56.08],[10.85,56.056696],[10.81,56.054744],[10.759999,56.05844]]}},{"type":"Feature","properties":{"depth":20,"source":"DDM 2024 coarse contour","resolution":"0.005 degree sampled grid","scope":"denmark","tileSource":"contours-denmark-coarse.geojson"},"geometry":{"type":"LineString","coordinates":[[10.759999,56.077705],[10.77,56.0725],[10.785,56.075],[10.785,56.06619],[10.795,56.063485],[10.8,56.068182],[10.798,56.08],[10.77,56.083056],[10.759999,56.089066]]}},{"type":"Feature","properties":{"depth":20,"source":"DDM 2024 coarse contour","resolution":"0.005 degree sampled grid","scope":"denmark","tileSource":"contours-denmark-coarse.geojson"},"geometry":{"type":"LineString","coordinates":[[10.759999,56.104051],[10.769787,56.11],[10.774242,56.12],[10.79,56.133697],[10.786913,56.145],[10.811545,56.165],[10.82,56.186139],[10.855,56.183846],[10.885,56.187917],[10.885,56.195],[10.938636,56.19]]}},{"type":"Feature","properties":{"depth":20,"source":"DDM 2024 coarse contour","resolution":"0.005 degree sampled grid","scope":"denmark","tileSource":"contours-denmark-coarse.geojson"},"geometry":{"type":"LineString","coordinates":[[11.075455,56.115],[11.081875,56.11],[11.08,56.1],[11.07,56.100385],[11.058929,56.11],[11.06,56.117222],[11.065,56.119167],[11.075455,56.115]]}},{"type":"Feature","properties":{"depth":20,"source":"DDM 2024 coarse contour","resolution":"0.005 degree sampled grid","scope":"denmark","tileSource":"contours-denmark-coarse.geojson"},"geometry":{"type":"LineString","coordinates":[[10.925,56.135],[10.933026,56.11],[10.925,56.106458],[10.904454,56.115],[10.92,56.135],[10.925,56.135]]}},{"type":"Feature","properties":{"depth":20,"source":"DDM 2024 coarse contour","resolution":"0.005 degree sampled grid","scope":"denmark","tileSource":"contours-denmark-coarse.geojson"},"geometry":{"type":"LineString","coordinates":[[11.235001,56.174828],[11.22975,56.17],[11.16,56.147848],[11.142703,56.14],[11.133239,56.125],[11.128425,56.125],[11.13,56.133776],[11.138734,56.14],[11.119444,56.15],[11.12625,56.17],[11.11,56.171],[11.097895,56.185],[11.105,56.191071],[11.124167,56.19],[11.145,56.205],[11.1385,56.235],[11.15,56.25],[11.16,56.25],[11.160625,56.245],[11.155,56.255],[11.16,56.25],[11.172273,56.26],[11.166135,56.265001]]}},{"type":"Feature","properties":{"depth":20,"source":"DDM 2024 coarse contour","resolution":"0.005 degree sampled grid","scope":"denmark","tileSource":"contours-denmark-coarse.geojson"},"geometry":{"type":"LineString","coordinates":[[11.179996,56.265001],[11.18,56.265],[11.180001,56.265001]]}},{"type":"Feature","properties":{"depth":20,"source":"DDM 2024 coarse contour","resolution":"0.005 degree sampled grid","scope":"denmark","tileSource":"contours-denmark-coarse.geojson"},"geometry":{"type":"LineString","coordinates":[[10.943,56.16],[10.935,56.15],[10.939231,56.155],[10.93625,56.16],[10.943,56.16]]}},{"type":"Feature","properties":{"depth":20,"source":"DDM 2024 coarse contour","resolution":"0.005 degree sampled grid","scope":"denmark","tileSource":"contours-denmark-coarse.geojson"},"geometry":{"type":"LineString","coordinates":[[10.781296,56.185],[10.791161,56.17],[10.775,56.157951],[10.770299,56.17],[10.775,56.181846],[10.781296,56.185]]}},{"type":"Feature","properties":{"depth":20,"source":"DDM 2024 coarse contour","resolution":"0.005 degree sampled grid","scope":"denmark","tileSource":"contours-denmark-coarse.geojson"},"geometry":{"type":"LineString","coordinates":[[10.905,56.186923],[10.891818,56.185],[10.905,56.181875],[10.909167,56.185],[10.905,56.186923]]}},{"type":"Feature","properties":{"depth":20,"source":"DDM 2024 coarse contour","resolution":"0.005 degree sampled grid","scope":"denmark","tileSource":"contours-denmark-coarse.geojson"},"geometry":{"type":"LineString","coordinates":[[10.866667,56.225],[10.873333,56.22],[10.872143,56.215],[10.85,56.193551],[10.83,56.192083],[10.81483,56.2],[10.819412,56.21],[10.833333,56.215],[10.835,56.220776],[10.845,56.219],[10.855,56.225109],[10.866667,56.225]]}},{"type":"Feature","properties":{"depth":20,"source":"DDM 2024 coarse contour","resolution":"0.005 degree sampled grid","scope":"denmark","tileSource":"contours-denmark-coarse.geojson"},"geometry":{"type":"LineString","coordinates":[[10.933462,56.21],[10.946429,56.205],[10.94,56.198095],[10.9,56.202453],[10.895,56.21],[10.91,56.213387],[10.933462,56.21]]}},{"type":"Feature","properties":{"depth":20,"source":"DDM 2024 coarse contour","resolution":"0.005 degree sampled grid","scope":"denmark","tileSource":"contours-denmark-coarse.geojson"},"geometry":{"type":"LineString","coordinates":[[10.948,56.22],[10.945,56.213929],[10.920556,56.22],[10.935,56.224615],[10.948,56.22]]}},{"type":"Feature","properties":{"depth":30,"source":"DDM 2024 coarse contour","resolution":"0.005 degree sampled grid","scope":"denmark","tileSource":"contours-denmark-coarse.geojson"},"geometry":{"type":"LineString","coordinates":[[11.09,56.035769],[11.04,56.012258],[11.009362,55.99],[10.991176,55.95],[10.975,55.932157],[10.945,55.922206],[10.9,55.918388],[10.865,55.901102],[10.82,55.895788],[10.796103,55.88],[10.810315,55.85],[10.810556,55.79],[10.810556,55.789999]]}},{"type":"Feature","properties":{"depth":30,"source":"DDM 2024 coarse contour","resolution":"0.005 degree sampled grid","scope":"denmark","tileSource":"contours-denmark-coarse.geojson"},"geometry":{"type":"LineString","coordinates":[[10.830559,55.789999],[10.837447,55.8],[10.835917,55.84],[10.82443,55.875],[10.827136,55.885],[10.845,55.891686],[10.88,55.892292],[10.92,55.910517],[10.955,55.908255],[10.975895,55.92],[10.99,55.919844],[11.00736,55.94],[11.015,55.965605],[11.036875,55.99],[11.083099,56.02],[11.092045,56.03],[11.09,56.035769]]}},{"type":"Feature","properties":{"depth":30,"source":"DDM 2024 coarse contour","resolution":"0.005 degree sampled grid","scope":"denmark","tileSource":"contours-denmark-coarse.geojson"},"geometry":{"type":"LineString","coordinates":[[10.865,56.051474],[10.847949,56.05],[10.869516,56.05],[10.865,56.051474]]}},{"type":"Feature","properties":{"depth":30,"source":"DDM 2024 coarse contour","resolution":"0.005 degree sampled grid","scope":"denmark","tileSource":"contours-denmark-coarse.geojson"},"geometry":{"type":"LineString","coordinates":[[10.955,56.077],[10.947727,56.075],[10.947596,56.07],[10.96,56.057697],[10.963646,56.06],[10.955,56.077]]}},{"type":"Feature","properties":{"depth":30,"source":"DDM 2024 coarse contour","resolution":"0.005 degree sampled grid","scope":"denmark","tileSource":"contours-denmark-coarse.geojson"},"geometry":{"type":"LineString","coordinates":[[11.235001,56.167114],[11.195,56.151771],[11.18,56.138579],[11.155,56.134032],[11.151269,56.13],[11.156433,56.125],[11.15,56.119],[11.13,56.122008],[11.12,56.118883],[11.1,56.132083],[11.094483,56.125],[11.110385,56.11],[11.118,56.085],[11.135,56.078214],[11.145,56.060968],[11.16,56.055658],[11.164342,56.06],[11.156744,56.075],[11.16,56.089286],[11.18193,56.105],[11.163,56.105],[11.1634,56.11],[11.17,56.110551],[11.175,56.125862],[11.195,56.141132],[11.21,56.143559],[11.22,56.152368],[11.231765,56.155],[11.230926,56.16],[11.235001,56.160578]]}},{"type":"Feature","properties":{"depth":30,"source":"DDM 2024 coarse contour","resolution":"0.005 degree sampled grid","scope":"denmark","tileSource":"contours-denmark-coarse.geojson"},"geometry":{"type":"LineString","coordinates":[[10.765,56.198113],[10.759999,56.181097]]}},{"type":"Feature","properties":{"depth":30,"source":"DDM 2024 coarse contour","resolution":"0.005 degree sampled grid","scope":"denmark","tileSource":"contours-denmark-coarse.geojson"},"geometry":{"type":"LineString","coordinates":[[10.759999,56.17146],[10.763269,56.165],[10.759999,56.162247]]}},{"type":"Feature","properties":{"depth":30,"source":"DDM 2024 coarse contour","resolution":"0.005 degree sampled grid","scope":"denmark","tileSource":"contours-denmark-coarse.geojson"},"geometry":{"type":"LineString","coordinates":[[10.759999,56.114064],[10.789091,56.155],[10.785,56.158],[10.765,56.144839],[10.763434,56.155],[10.768608,56.16],[10.770407,56.18],[10.769583,56.195],[10.765,56.198113]]}},{"type":"Feature","properties":{"depth":30,"source":"DDM 2024 coarse contour","resolution":"0.005 degree sampled grid","scope":"denmark","tileSource":"contours-denmark-coarse.geojson"},"geometry":{"type":"LineString","coordinates":[[10.9,56.11538],[10.893294,56.115],[10.905,56.104054],[10.914392,56.105],[10.9,56.11538]]}},{"type":"Feature","properties":{"depth":30,"source":"DDM 2024 coarse contour","resolution":"0.005 degree sampled grid","scope":"denmark","tileSource":"contours-denmark-coarse.geojson"},"geometry":{"type":"LineString","coordinates":[[11.2,56.11625],[11.17628,56.115],[11.185,56.107365],[11.195,56.106538],[11.201429,56.11],[11.2,56.11625]]}},{"type":"Feature","properties":{"depth":30,"source":"DDM 2024 coarse contour","resolution":"0.005 degree sampled grid","scope":"denmark","tileSource":"contours-denmark-coarse.geojson"},"geometry":{"type":"LineString","coordinates":[[11.06,56.155364],[11.056667,56.15],[11.065,56.143889],[11.072941,56.145],[11.06,56.155364]]}},{"type":"Feature","properties":{"depth":30,"source":"DDM 2024 coarse contour","resolution":"0.005 degree sampled grid","scope":"denmark","tileSource":"contours-denmark-coarse.geojson"},"geometry":{"type":"LineString","coordinates":[[10.8,56.172586],[10.795,56.174318],[10.795,56.16037],[10.802679,56.17],[10.8,56.172586]]}},{"type":"Feature","properties":{"depth":30,"source":"DDM 2024 coarse contour","resolution":"0.005 degree sampled grid","scope":"denmark","tileSource":"contours-denmark-coarse.geojson"},"geometry":{"type":"LineString","coordinates":[[10.81,56.188878],[10.805,56.174643],[10.812021,56.185],[10.81,56.188878]]}},{"type":"Feature","properties":{"depth":30,"source":"DDM 2024 coarse contour","resolution":"0.005 degree sampled grid","scope":"denmark","tileSource":"contours-denmark-coarse.geojson"},"geometry":{"type":"LineString","coordinates":[[10.83,56.235556],[10.778475,56.21],[10.79,56.209245],[10.81,56.217029],[10.815,56.223276],[10.838226,56.23],[10.83,56.235556]]}},{"type":"Feature","properties":{"depth":30,"source":"DDM 2024 coarse contour","resolution":"0.005 degree sampled grid","scope":"denmark","tileSource":"contours-denmark-coarse.geojson"},"geometry":{"type":"LineString","coordinates":[[11.078336,56.265001],[11.073169,56.255],[11.075,56.249667],[11.084754,56.265],[11.084753,56.265001]]}},{"type":"Feature","properties":{"depth":50,"source":"DDM 2024 coarse contour","resolution":"0.005 degree sampled grid","scope":"denmark","tileSource":"contours-denmark-coarse.geojson"},"geometry":{"type":"LineString","coordinates":[[10.855,55.895243],[10.829318,55.895],[10.859583,55.895],[10.855,55.895243]]}},{"type":"Feature","properties":{"depth":50,"source":"DDM 2024 coarse contour","resolution":"0.005 degree sampled grid","scope":"denmark","tileSource":"contours-denmark-coarse.geojson"},"geometry":{"type":"LineString","coordinates":[[10.97,55.922208],[10.959375,55.92],[10.97,55.918824],[10.97,55.922208]]}},{"type":"Feature","properties":{"depth":50,"source":"DDM 2024 coarse contour","resolution":"0.005 degree sampled grid","scope":"denmark","tileSource":"contours-denmark-coarse.geojson"},"geometry":{"type":"LineString","coordinates":[[11.005,55.952561],[10.99991,55.95],[11,55.939412],[11.005,55.952561]]}}]}