{"type":"FeatureCollection","name":"DDM contour tile r07_c05","bbox":[9.8,57.71,10.275,58],"metadata":{"schema":"waternav-ddm-contour-tile-v1","version":"v45.3","tileId":"r07_c05","source":"Danmarks Dybdemodel 2024 ddm_50m.dybde.tiff via bundled DDM contour GeoJSON files"},"features":[{"type":"Feature","properties":{"depth":20,"source":"DDM 2024 coarse contour","resolution":"0.005 degree sampled grid","scope":"denmark","tileSource":"contours-denmark-coarse.geojson"},"geometry":{"type":"LineString","coordinates":[[10.097604,57.709999],[10.105909,57.715],[10.130625,57.72],[10.265,57.72125],[10.265,57.71],[10.265004,57.709999]]}},{"type":"Feature","properties":{"depth":30,"source":"DDM 2024 coarse contour","resolution":"0.005 degree sampled grid","scope":"denmark","tileSource":"contours-denmark-coarse.geojson"},"geometry":{"type":"LineString","coordinates":[[10.037053,57.709999],[10.106154,57.72],[10.215,57.726787],[10.275001,57.728179]]}},{"type":"Feature","properties":{"depth":50,"source":"DDM 2024 coarse contour","resolution":"0.005 degree sampled grid","scope":"denmark","tileSource":"contours-denmark-coarse.geojson"},"geometry":{"type":"LineString","coordinates":[[9.799999,57.8396],[9.885,57.82625],[9.922,57.815],[9.9475,57.8],[9.925,57.789286],[9.865,57.744194],[9.825,57.736724],[9.799999,57.725659]]}},{"type":"Feature","properties":{"depth":50,"source":"DDM 2024 coarse contour","resolution":"0.005 degree sampled grid","scope":"denmark","tileSource":"contours-denmark-coarse.geojson"},"geometry":{"type":"LineString","coordinates":[[9.999164,57.709999],[10.095,57.723139],[10.275001,57.734434]]}},{"type":"Feature","properties":{"depth":100,"source":"DDM 2024 coarse contour","resolution":"0.005 degree sampled grid","scope":"denmark","tileSource":"contours-denmark-coarse.geojson"},"geometry":{"type":"LineString","coordinates":[[9.799999,57.95685],[9.93,57.982745],[9.980294,58]]}}]}