{"type":"FeatureCollection","name":"DDM contour tile r01_c18","bbox":[16.04,54.83,16.2,55.305],"metadata":{"schema":"waternav-ddm-contour-tile-v1","version":"v45.7","tileId":"r01_c18","source":"Danmarks Dybdemodel 2024 ddm_50m.dybde.tiff via bundled DDM contour GeoJSON files"},"features":[{"type":"Feature","properties":{"depth":1,"source":"DDM 2024 coarse contour","resolution":"0.005 degree sampled grid","scope":"denmark","tileSource":"contours-denmark-coarse.geojson"},"geometry":{"type":"LineString","coordinates":[[16.039999,55.259596],[16.04,55.259597],[16.06,55.259602],[16.065,55.264609],[16.085,55.26461],[16.09,55.269619],[16.11,55.269619],[16.115,55.274627],[16.13,55.274627],[16.135,55.279636],[16.155,55.279635],[16.16,55.284643],[16.18,55.284642],[16.185,55.289649],[16.2,55.289649]]}},{"type":"Feature","properties":{"depth":2,"source":"DDM 2024 coarse contour","resolution":"0.005 degree sampled grid","scope":"denmark","tileSource":"contours-denmark-coarse.geojson"},"geometry":{"type":"LineString","coordinates":[[16.039999,55.2596],[16.04,55.259601],[16.06,55.259607],[16.065,55.264614],[16.085,55.264615],[16.09,55.269624],[16.11,55.269624],[16.115,55.274632],[16.13,55.274631],[16.135,55.279641],[16.155,55.279639],[16.16,55.284648],[16.18,55.284646],[16.185,55.289654],[16.2,55.289654]]}},{"type":"Feature","properties":{"depth":3,"source":"DDM 2024 coarse contour","resolution":"0.005 degree sampled grid","scope":"denmark","tileSource":"contours-denmark-coarse.geojson"},"geometry":{"type":"LineString","coordinates":[[16.039999,55.259605],[16.04,55.259606],[16.06,55.259612],[16.065,55.264618],[16.085,55.264619],[16.09,55.269628],[16.11,55.269628],[16.115,55.274637],[16.13,55.274636],[16.135,55.279645],[16.155,55.279644],[16.16,55.284652],[16.18,55.284651],[16.185,55.289659],[16.2,55.289659]]}},{"type":"Feature","properties":{"depth":5,"source":"DDM 2024 coarse contour","resolution":"0.005 degree sampled grid","scope":"denmark","tileSource":"contours-denmark-coarse.geojson"},"geometry":{"type":"LineString","coordinates":[[16.039999,55.259614],[16.04,55.259615],[16.06,55.259621],[16.065,55.264628],[16.085,55.264628],[16.09,55.269637],[16.11,55.269637],[16.115,55.274646],[16.13,55.274645],[16.135,55.279655],[16.155,55.279653],[16.16,55.284662],[16.18,55.28466],[16.185,55.289668],[16.2,55.289668]]}},{"type":"Feature","properties":{"depth":10,"source":"DDM 2024 coarse contour","resolution":"0.005 degree sampled grid","scope":"denmark","tileSource":"contours-denmark-coarse.geojson"},"geometry":{"type":"LineString","coordinates":[[16.039999,55.259638],[16.04,55.259638],[16.06,55.259644],[16.065,55.264651],[16.085,55.264651],[16.09,55.269661],[16.13,55.274668],[16.135,55.279678],[16.155,55.279676],[16.16,55.284685],[16.2,55.289691]]}},{"type":"Feature","properties":{"depth":15,"source":"DDM 2024 coarse contour","resolution":"0.005 degree sampled grid","scope":"denmark","tileSource":"contours-denmark-coarse.geojson"},"geometry":{"type":"LineString","coordinates":[[16.039999,55.259661],[16.04,55.259661],[16.06,55.259667],[16.065,55.264674],[16.085,55.264675],[16.09,55.269684],[16.13,55.274691],[16.135,55.279701],[16.155,55.2797],[16.16,55.284708],[16.2,55.289715]]}},{"type":"Feature","properties":{"depth":20,"source":"DDM 2024 coarse contour","resolution":"0.005 degree sampled grid","scope":"denmark","tileSource":"contours-denmark-coarse.geojson"},"geometry":{"type":"LineString","coordinates":[[16.039999,55.259684],[16.04,55.259684],[16.06,55.25969],[16.065,55.264697],[16.085,55.264698],[16.09,55.269707],[16.13,55.274715],[16.135,55.279724],[16.155,55.279723],[16.16,55.284731],[16.2,55.289738]]}},{"type":"Feature","properties":{"depth":30,"source":"DDM 2024 coarse contour","resolution":"0.005 degree sampled grid","scope":"denmark","tileSource":"contours-denmark-coarse.geojson"},"geometry":{"type":"LineString","coordinates":[[16.039999,55.25973],[16.04,55.25973],[16.06,55.259736],[16.065,55.264743],[16.085,55.264744],[16.09,55.269753],[16.13,55.274761],[16.135,55.279771],[16.155,55.279769],[16.16,55.284778],[16.2,55.289784]]}},{"type":"Feature","properties":{"depth":50,"source":"DDM 2024 coarse contour","resolution":"0.005 degree sampled grid","scope":"denmark","tileSource":"contours-denmark-coarse.geojson"},"geometry":{"type":"LineString","coordinates":[[16.039999,55.259822],[16.04,55.259822],[16.06,55.259828],[16.065,55.264835],[16.085,55.264836],[16.09,55.269845],[16.13,55.274853],[16.135,55.279863],[16.155,55.279862],[16.16,55.28487],[16.2,55.289877]]}}]}