{"type":"FeatureCollection","name":"DDM contour tile r02_c08","bbox":[11.24,55.31,11.715,55.785],"metadata":{"schema":"waternav-ddm-contour-tile-v1","version":"v45.7","tileId":"r02_c08","source":"Danmarks Dybdemodel 2024 ddm_50m.dybde.tiff via bundled DDM contour GeoJSON files"},"features":[{"type":"Feature","properties":{"depth":1,"source":"DDM 2024 coarse contour","resolution":"0.005 degree sampled grid","scope":"denmark","tileSource":"contours-denmark-coarse.geojson"},"geometry":{"type":"LineString","coordinates":[[11.239999,55.740995],[11.25,55.734998],[11.274881,55.735],[11.28,55.739976],[11.285,55.739999],[11.29,55.746739],[11.29,55.750007],[11.285,55.750014],[11.280018,55.755],[11.285,55.759985],[11.295,55.757857],[11.301429,55.76],[11.298929,55.765],[11.290017,55.77],[11.29,55.775017],[11.285,55.77502],[11.280022,55.78],[11.280009,55.785],[11.280008,55.785001]]}},{"type":"Feature","properties":{"depth":1,"source":"DDM 2024 coarse contour","resolution":"0.005 degree sampled grid","scope":"denmark","tileSource":"contours-denmark-coarse.geojson"},"geometry":{"type":"LineString","coordinates":[[11.295674,55.785001],[11.295673,55.785],[11.32,55.755833],[11.335,55.755588],[11.34,55.759973],[11.35,55.75999],[11.358788,55.765],[11.378571,55.785],[11.378571,55.785001]]}},{"type":"Feature","properties":{"depth":1,"source":"DDM 2024 coarse contour","resolution":"0.005 degree sampled grid","scope":"denmark","tileSource":"contours-denmark-coarse.geojson"},"geometry":{"type":"LineString","coordinates":[[11.617477,55.785001],[11.616818,55.785],[11.615732,55.78],[11.62,55.779983],[11.625,55.77498],[11.656,55.775],[11.665,55.779986],[11.675,55.78],[11.680017,55.785001]]}},{"type":"Feature","properties":{"depth":1,"source":"DDM 2024 coarse contour","resolution":"0.005 degree sampled grid","scope":"denmark","tileSource":"contours-denmark-coarse.geojson"},"geometry":{"type":"LineString","coordinates":[[11.715001,55.731523],[11.71,55.733387],[11.705,55.730013],[11.695,55.7342],[11.68,55.733077],[11.6665,55.73],[11.667222,55.725],[11.671,55.72],[11.69,55.72],[11.705,55.721389],[11.71,55.724983],[11.715001,55.725212]]}},{"type":"Feature","properties":{"depth":2,"source":"DDM 2024 coarse contour","resolution":"0.005 degree sampled grid","scope":"denmark","tileSource":"contours-denmark-coarse.geojson"},"geometry":{"type":"LineString","coordinates":[[11.239999,55.741276],[11.25,55.735463],[11.27369,55.735],[11.284222,55.74],[11.29,55.748913],[11.280013,55.755],[11.285,55.75999],[11.293333,55.76],[11.295357,55.765],[11.290012,55.77],[11.29,55.775012],[11.285,55.775015],[11.280017,55.78],[11.280004,55.785],[11.280003,55.785001]]}},{"type":"Feature","properties":{"depth":2,"source":"DDM 2024 coarse contour","resolution":"0.005 degree sampled grid","scope":"denmark","tileSource":"contours-denmark-coarse.geojson"},"geometry":{"type":"LineString","coordinates":[[11.296636,55.785001],[11.296635,55.785],[11.32,55.757222],[11.33,55.755763],[11.34,55.759978],[11.35,55.759995],[11.361923,55.77],[11.365,55.777353],[11.37619,55.785],[11.37619,55.785001]]}},{"type":"Feature","properties":{"depth":2,"source":"DDM 2024 coarse contour","resolution":"0.005 degree sampled grid","scope":"denmark","tileSource":"contours-denmark-coarse.geojson"},"geometry":{"type":"LineString","coordinates":[[11.622417,55.785001],[11.62,55.784464],[11.616951,55.78],[11.625,55.774985],[11.655,55.775851],[11.675,55.781184],[11.679343,55.785001]]}},{"type":"Feature","properties":{"depth":2,"source":"DDM 2024 coarse contour","resolution":"0.005 degree sampled grid","scope":"denmark","tileSource":"contours-denmark-coarse.geojson"},"geometry":{"type":"LineString","coordinates":[[11.715001,55.730148],[11.71,55.731774],[11.6725,55.73],[11.680667,55.72],[11.685,55.723095],[11.715001,55.724193]]}},{"type":"Feature","properties":{"depth":3,"source":"DDM 2024 coarse contour","resolution":"0.005 degree sampled grid","scope":"denmark","tileSource":"contours-denmark-coarse.geojson"},"geometry":{"type":"LineString","coordinates":[[11.239999,55.741482],[11.25,55.736389],[11.2725,55.735],[11.283111,55.74],[11.288077,55.75],[11.280008,55.755],[11.289167,55.76],[11.29125,55.765],[11.290007,55.775],[11.285,55.77501],[11.280012,55.78],[11.28,55.7848],[11.279807,55.785001]]}},{"type":"Feature","properties":{"depth":3,"source":"DDM 2024 coarse contour","resolution":"0.005 degree sampled grid","scope":"denmark","tileSource":"contours-denmark-coarse.geojson"},"geometry":{"type":"LineString","coordinates":[[11.297596,55.785001],[11.297596,55.785],[11.305,55.778611],[11.308023,55.77],[11.325,55.757358],[11.35,55.76],[11.36,55.77],[11.365,55.781],[11.373333,55.785],[11.373333,55.785001]]}},{"type":"Feature","properties":{"depth":3,"source":"DDM 2024 coarse contour","resolution":"0.005 degree sampled grid","scope":"denmark","tileSource":"contours-denmark-coarse.geojson"},"geometry":{"type":"LineString","coordinates":[[11.629382,55.785001],[11.618171,55.78],[11.625,55.77499],[11.655,55.776915],[11.675,55.7825],[11.678344,55.785001]]}},{"type":"Feature","properties":{"depth":3,"source":"DDM 2024 coarse contour","resolution":"0.005 degree sampled grid","scope":"denmark","tileSource":"contours-denmark-coarse.geojson"},"geometry":{"type":"LineString","coordinates":[[11.715001,55.727861],[11.6925,55.73],[11.695,55.725],[11.715001,55.725]]}},{"type":"Feature","properties":{"depth":5,"source":"DDM 2024 coarse contour","resolution":"0.005 degree sampled grid","scope":"denmark","tileSource":"contours-denmark-coarse.geojson"},"geometry":{"type":"LineString","coordinates":[[11.239999,55.742601],[11.24449,55.74],[11.257768,55.735],[11.270119,55.735],[11.280889,55.74],[11.28314,55.745],[11.278077,55.77],[11.285,55.775],[11.285,55.764167],[11.286667,55.77],[11.277919,55.785001]]}},{"type":"Feature","properties":{"depth":5,"source":"DDM 2024 coarse contour","resolution":"0.005 degree sampled grid","scope":"denmark","tileSource":"contours-denmark-coarse.geojson"},"geometry":{"type":"LineString","coordinates":[[11.3,55.785001],[11.3,55.784265],[11.306471,55.78],[11.314651,55.765],[11.322778,55.76],[11.3462,55.76],[11.356552,55.77],[11.355,55.78],[11.360001,55.785001]]}},{"type":"Feature","properties":{"depth":5,"source":"DDM 2024 coarse contour","resolution":"0.005 degree sampled grid","scope":"denmark","tileSource":"contours-denmark-coarse.geojson"},"geometry":{"type":"LineString","coordinates":[[11.649375,55.785001],[11.649375,55.785],[11.63,55.785],[11.626,55.78],[11.655,55.779043],[11.672772,55.785001]]}},{"type":"Feature","properties":{"depth":10,"source":"DDM 2024 coarse contour","resolution":"0.005 degree sampled grid","scope":"denmark","tileSource":"contours-denmark-coarse.geojson"},"geometry":{"type":"LineString","coordinates":[[11.239999,55.755],[11.24,55.755],[11.245,55.7475],[11.26,55.757917],[11.27,55.757222],[11.2635,55.765],[11.267609,55.775],[11.265578,55.785001]]}}]}