{"type":"FeatureCollection","name":"DDM contour tile r02_c06","bbox":[10.28,55.31,10.755,55.785],"metadata":{"schema":"waternav-ddm-contour-tile-v1","version":"v45.7","tileId":"r02_c06","source":"Danmarks Dybdemodel 2024 ddm_50m.dybde.tiff via bundled DDM contour GeoJSON files"},"features":[{"type":"Feature","properties":{"depth":1,"source":"DDM 2024 coarse contour","resolution":"0.005 degree sampled grid","scope":"denmark","tileSource":"contours-denmark-coarse.geojson"},"geometry":{"type":"LineString","coordinates":[[10.279999,55.627538],[10.32,55.624988],[10.325,55.620976],[10.335,55.619982],[10.350172,55.61],[10.36,55.609985],[10.38,55.600441],[10.395,55.599986],[10.402059,55.595],[10.41,55.594991],[10.435,55.579997],[10.44,55.579986],[10.461061,55.565],[10.47,55.564983],[10.475,55.56],[10.486458,55.555],[10.495,55.554984],[10.52,55.540568],[10.53,55.539984],[10.535,55.534999],[10.54,55.534984],[10.559927,55.52],[10.559983,55.515],[10.555,55.510029],[10.535,55.522955],[10.53,55.523056],[10.515,55.513056],[10.5,55.518871],[10.490435,55.515],[10.515,55.500313],[10.52,55.487917],[10.53,55.491591],[10.54593,55.485],[10.53,55.47942],[10.52558,55.475],[10.535,55.474954],[10.54,55.479985],[10.55,55.479951],[10.555,55.484993],[10.56,55.48],[10.566667,55.48],[10.575,55.486296],[10.591667,55.485],[10.615,55.48725],[10.618667,55.49],[10.6186,55.495],[10.61,55.505],[10.5965,55.51],[10.58,55.510016],[10.565009,55.52],[10.565017,55.525],[10.58,55.53495],[10.595,55.534954],[10.61,55.520385],[10.625002,55.52],[10.625002,55.525],[10.62,55.525027],[10.615019,55.53],[10.618043,55.545],[10.600016,55.565],[10.60001,55.57],[10.595018,55.575],[10.595017,55.59],[10.61,55.6],[10.585022,55.615],[10.59,55.620545],[10.62,55.619999],[10.64,55.6],[10.65,55.594997],[10.654994,55.59],[10.655227,55.585],[10.69,55.54999],[10.695,55.549975],[10.705614,55.54],[10.705,55.527353],[10.717857,55.51],[10.73,55.500385],[10.735,55.499994],[10.749995,55.485],[10.749993,55.48],[10.745,55.475011],[10.74,55.475002],[10.735,55.470028],[10.71,55.475],[10.705,55.470022],[10.695,55.470001],[10.69,55.46502],[10.675,55.46459],[10.669994,55.46],[10.67,55.446522],[10.68,55.444991],[10.710588,55.42],[10.725,55.419983],[10.735,55.405],[10.74,55.404987],[10.75,55.394997],[10.755001,55.393329]]}},{"type":"Feature","properties":{"depth":1,"source":"DDM 2024 coarse contour","resolution":"0.005 degree sampled grid","scope":"denmark","tileSource":"contours-denmark-coarse.geojson"},"geometry":{"type":"LineString","coordinates":[[10.445,55.479275],[10.444971,55.475],[10.439974,55.47],[10.44,55.465351],[10.445,55.462222],[10.451154,55.47],[10.445,55.479275]]}},{"type":"Feature","properties":{"depth":1,"source":"DDM 2024 coarse contour","resolution":"0.005 degree sampled grid","scope":"denmark","tileSource":"contours-denmark-coarse.geojson"},"geometry":{"type":"LineString","coordinates":[[10.47,55.484211],[10.455,55.478889],[10.465,55.479985],[10.47,55.47619],[10.473902,55.48],[10.47,55.484211]]}},{"type":"Feature","properties":{"depth":1,"source":"DDM 2024 coarse contour","resolution":"0.005 degree sampled grid","scope":"denmark","tileSource":"contours-denmark-coarse.geojson"},"geometry":{"type":"LineString","coordinates":[[10.52,55.483971],[10.495,55.483676],[10.486818,55.48],[10.49,55.476957],[10.52,55.475781],[10.523857,55.48],[10.52,55.483971]]}},{"type":"Feature","properties":{"depth":1,"source":"DDM 2024 coarse contour","resolution":"0.005 degree sampled grid","scope":"denmark","tileSource":"contours-denmark-coarse.geojson"},"geometry":{"type":"LineString","coordinates":[[10.32175,55.785001],[10.329988,55.775],[10.329993,55.76],[10.322222,55.745],[10.315,55.740007],[10.3,55.740016],[10.293269,55.745],[10.279999,55.745002]]}},{"type":"Feature","properties":{"depth":1,"source":"DDM 2024 coarse contour","resolution":"0.005 degree sampled grid","scope":"denmark","tileSource":"contours-denmark-coarse.geojson"},"geometry":{"type":"LineString","coordinates":[[10.279999,55.771111],[10.285,55.772222],[10.295649,55.785001]]}},{"type":"Feature","properties":{"depth":1,"source":"DDM 2024 coarse contour","resolution":"0.005 degree sampled grid","scope":"denmark","tileSource":"contours-denmark-coarse.geojson"},"geometry":{"type":"LineString","coordinates":[[10.639984,55.785001],[10.639984,55.785],[10.626,55.775],[10.624992,55.765],[10.62,55.760025],[10.615,55.760033],[10.61,55.765001],[10.585,55.76503],[10.58,55.76971],[10.56,55.769149],[10.55,55.765022],[10.530019,55.785],[10.530019,55.785001]]}},{"type":"Feature","properties":{"depth":2,"source":"DDM 2024 coarse contour","resolution":"0.005 degree sampled grid","scope":"denmark","tileSource":"contours-denmark-coarse.geojson"},"geometry":{"type":"LineString","coordinates":[[10.283125,55.63],[10.303846,55.625],[10.32,55.624993],[10.351897,55.61],[10.36,55.60999],[10.367571,55.605],[10.41,55.594996],[10.462576,55.565],[10.47,55.564988],[10.54,55.534989],[10.559932,55.52],[10.559988,55.515],[10.555,55.510024],[10.55,55.515006],[10.54,55.5164],[10.535,55.520682],[10.53,55.520278],[10.525,55.515],[10.539444,55.51],[10.515,55.510278],[10.51,55.513409],[10.501111,55.51],[10.515,55.503438],[10.52,55.493125],[10.525,55.495],[10.535,55.4926],[10.547093,55.485],[10.5365,55.48],[10.55,55.479956],[10.555,55.484998],[10.56,55.485],[10.548125,55.495],[10.55,55.497609],[10.56,55.485],[10.565,55.485385],[10.57,55.491739],[10.575,55.488148],[10.59,55.486765],[10.615333,55.49],[10.6166,55.495],[10.608276,55.505],[10.593542,55.51],[10.58,55.510011],[10.565004,55.52],[10.565012,55.525],[10.58,55.534955],[10.595,55.534959],[10.61,55.521154],[10.624194,55.52],[10.6245,55.525],[10.62,55.525022],[10.615014,55.53],[10.61587,55.545],[10.602917,55.56],[10.600005,55.57],[10.595013,55.575],[10.595012,55.59],[10.608718,55.6],[10.585017,55.615],[10.59,55.621455],[10.62,55.622105],[10.64,55.60122],[10.650536,55.595],[10.66,55.580556],[10.675,55.568333],[10.69,55.549995],[10.695,55.54998],[10.706491,55.54],[10.705238,55.53],[10.707903,55.525],[10.72,55.510541],[10.75,55.485],[10.749998,55.48],[10.745,55.475006],[10.735,55.470023],[10.71,55.47418],[10.69,55.465015],[10.675,55.46377],[10.669999,55.46],[10.67,55.448696],[10.68,55.444996],[10.713529,55.42],[10.725,55.419988],[10.736923,55.405],[10.755001,55.395341]]}},{"type":"Feature","properties":{"depth":2,"source":"DDM 2024 coarse contour","resolution":"0.005 degree sampled grid","scope":"denmark","tileSource":"contours-denmark-coarse.geojson"},"geometry":{"type":"LineString","coordinates":[[10.279999,55.629724],[10.283125,55.63]]}},{"type":"Feature","properties":{"depth":2,"source":"DDM 2024 coarse contour","resolution":"0.005 degree sampled grid","scope":"denmark","tileSource":"contours-denmark-coarse.geojson"},"geometry":{"type":"LineString","coordinates":[[10.445,55.478551],[10.44,55.466228],[10.447308,55.47],[10.448657,55.475],[10.445,55.478551]]}},{"type":"Feature","properties":{"depth":2,"source":"DDM 2024 coarse contour","resolution":"0.005 degree sampled grid","scope":"denmark","tileSource":"contours-denmark-coarse.geojson"},"geometry":{"type":"LineString","coordinates":[[10.52,55.4825],[10.505,55.483768],[10.489091,55.48],[10.515,55.476702],[10.522429,55.48],[10.52,55.4825]]}},{"type":"Feature","properties":{"depth":2,"source":"DDM 2024 coarse contour","resolution":"0.005 degree sampled grid","scope":"denmark","tileSource":"contours-denmark-coarse.geojson"},"geometry":{"type":"LineString","coordinates":[[10.323886,55.785001],[10.331957,55.77],[10.325,55.745],[10.315,55.740002],[10.3,55.740011],[10.291346,55.745],[10.279999,55.745]]}},{"type":"Feature","properties":{"depth":2,"source":"DDM 2024 coarse contour","resolution":"0.005 degree sampled grid","scope":"denmark","tileSource":"contours-denmark-coarse.geojson"},"geometry":{"type":"LineString","coordinates":[[10.279999,55.773235],[10.285,55.775],[10.287353,55.78],[10.279999,55.784124]]}},{"type":"Feature","properties":{"depth":2,"source":"DDM 2024 coarse contour","resolution":"0.005 degree sampled grid","scope":"denmark","tileSource":"contours-denmark-coarse.geojson"},"geometry":{"type":"LineString","coordinates":[[10.639989,55.785001],[10.639989,55.785],[10.62725,55.775],[10.624997,55.765],[10.62,55.76002],[10.6065,55.765],[10.585,55.765025],[10.58,55.768986],[10.55,55.765017],[10.530014,55.785],[10.530014,55.785001]]}},{"type":"Feature","properties":{"depth":3,"source":"DDM 2024 coarse contour","resolution":"0.005 degree sampled grid","scope":"denmark","tileSource":"contours-denmark-coarse.geojson"},"geometry":{"type":"LineString","coordinates":[[10.279999,55.630888],[10.29,55.63061],[10.32,55.624998],[10.369,55.605],[10.42,55.593158],[10.464091,55.565],[10.47,55.564993],[10.535,55.538036],[10.555,55.524986],[10.559937,55.52],[10.559993,55.515],[10.555,55.510019],[10.535,55.5075],[10.53,55.503],[10.525,55.508077],[10.516786,55.505],[10.548256,55.485],[10.538167,55.48],[10.55,55.479961],[10.55375,55.485],[10.546563,55.495],[10.55,55.499783],[10.56,55.488571],[10.57,55.493913],[10.58,55.489091],[10.6,55.488625],[10.614286,55.495],[10.607187,55.5],[10.606552,55.505],[10.591458,55.51],[10.58,55.510006],[10.57,55.515015],[10.565,55.519875],[10.565007,55.525],[10.58,55.53496],[10.595,55.534964],[10.61,55.521923],[10.622581,55.52],[10.6235,55.525],[10.615009,55.53],[10.6115,55.55],[10.601528,55.56],[10.6,55.57],[10.595008,55.575],[10.595007,55.59],[10.607436,55.6],[10.585012,55.615],[10.59,55.622364],[10.602857,55.62],[10.62,55.624737],[10.637162,55.605],[10.652321,55.595],[10.66,55.581944],[10.675,55.570455],[10.69,55.55],[10.695,55.549985],[10.707368,55.54],[10.709516,55.525],[10.72,55.511892],[10.735,55.502917],[10.75,55.487368],[10.750612,55.48],[10.735,55.470018],[10.71,55.473361],[10.69,55.46501],[10.675,55.462951],[10.67,55.458],[10.670357,55.45],[10.715,55.420893],[10.725,55.419993],[10.745,55.40125],[10.755001,55.396875]]}},{"type":"Feature","properties":{"depth":3,"source":"DDM 2024 coarse contour","resolution":"0.005 degree sampled grid","scope":"denmark","tileSource":"contours-denmark-coarse.geojson"},"geometry":{"type":"LineString","coordinates":[[10.52,55.481029],[10.505,55.483043],[10.492727,55.48],[10.505,55.477042],[10.52,55.478906],[10.52,55.481029]]}},{"type":"Feature","properties":{"depth":3,"source":"DDM 2024 coarse contour","resolution":"0.005 degree sampled grid","scope":"denmark","tileSource":"contours-denmark-coarse.geojson"},"geometry":{"type":"LineString","coordinates":[[10.325734,55.785001],[10.33413,55.77],[10.328529,55.755],[10.328846,55.745],[10.325,55.740833],[10.315,55.73875],[10.3,55.740006],[10.2875,55.745],[10.279999,55.745]]}},{"type":"Feature","properties":{"depth":3,"source":"DDM 2024 coarse contour","resolution":"0.005 degree sampled grid","scope":"denmark","tileSource":"contours-denmark-coarse.geojson"},"geometry":{"type":"LineString","coordinates":[[10.279999,55.776388],[10.284333,55.78],[10.279999,55.782402]]}},{"type":"Feature","properties":{"depth":3,"source":"DDM 2024 coarse contour","resolution":"0.005 degree sampled grid","scope":"denmark","tileSource":"contours-denmark-coarse.geojson"},"geometry":{"type":"LineString","coordinates":[[10.637851,55.785001],[10.62,55.760015],[10.602308,55.765],[10.585,55.76502],[10.58,55.768261],[10.55,55.765012],[10.530009,55.785],[10.530009,55.785001]]}},{"type":"Feature","properties":{"depth":5,"source":"DDM 2024 coarse contour","resolution":"0.005 degree sampled grid","scope":"denmark","tileSource":"contours-denmark-coarse.geojson"},"geometry":{"type":"LineString","coordinates":[[10.335,55.785001],[10.335,55.785],[10.348929,55.77],[10.346923,55.76],[10.341,55.755],[10.334286,55.74],[10.327917,55.735],[10.295,55.738529],[10.29,55.734632],[10.279999,55.735421]]}},{"type":"Feature","properties":{"depth":5,"source":"DDM 2024 coarse contour","resolution":"0.005 degree sampled grid","scope":"denmark","tileSource":"contours-denmark-coarse.geojson"},"geometry":{"type":"LineString","coordinates":[[10.279999,55.632692],[10.28,55.632692],[10.325,55.6275],[10.343333,55.62],[10.344474,55.615],[10.37,55.60825],[10.42,55.605],[10.434,55.6],[10.438333,55.595],[10.438889,55.585],[10.46,55.571471],[10.4975,55.555],[10.51,55.553],[10.52,55.545714],[10.525,55.546765],[10.540357,55.54],[10.559947,55.52],[10.56,55.515263],[10.565,55.525532],[10.58,55.53497],[10.595,55.534974],[10.61,55.523462],[10.62,55.521053],[10.6215,55.525],[10.615,55.529737],[10.60869,55.55],[10.598548,55.56],[10.591885,55.585],[10.595676,55.595],[10.594444,55.6],[10.584242,55.61],[10.59,55.624182],[10.62,55.627879],[10.625,55.633],[10.63,55.628333],[10.635,55.62875],[10.63275,55.615],[10.635455,55.61],[10.656923,55.595],[10.66,55.584722],[10.675,55.575],[10.685,55.555],[10.709123,55.54],[10.712297,55.525],[10.72,55.514595],[10.735,55.507143],[10.75,55.494545],[10.752653,55.48],[10.745,55.474012],[10.735,55.470008],[10.71,55.471721],[10.675,55.461311],[10.671212,55.455],[10.672143,55.45],[10.7,55.431667],[10.725962,55.42],[10.745,55.404028],[10.755001,55.401062]]}},{"type":"Feature","properties":{"depth":5,"source":"DDM 2024 coarse contour","resolution":"0.005 degree sampled grid","scope":"denmark","tileSource":"contours-denmark-coarse.geojson"},"geometry":{"type":"LineString","coordinates":[[10.56,55.514231],[10.55,55.507963],[10.53625,55.505],[10.536154,55.495],[10.54,55.491552],[10.544286,55.495],[10.545,55.502031],[10.56,55.504],[10.564853,55.51],[10.56,55.514231]]}},{"type":"Feature","properties":{"depth":5,"source":"DDM 2024 coarse contour","resolution":"0.005 degree sampled grid","scope":"denmark","tileSource":"contours-denmark-coarse.geojson"},"geometry":{"type":"LineString","coordinates":[[10.57,55.515005],[10.565,55.517375],[10.5612,55.515],[10.5725,55.505],[10.579,55.505],[10.57,55.515005]]}},{"type":"Feature","properties":{"depth":5,"source":"DDM 2024 coarse contour","resolution":"0.005 degree sampled grid","scope":"denmark","tileSource":"contours-denmark-coarse.geojson"},"geometry":{"type":"LineString","coordinates":[[10.755001,55.509941],[10.754674,55.51],[10.755001,55.510142]]}},{"type":"Feature","properties":{"depth":5,"source":"DDM 2024 coarse contour","resolution":"0.005 degree sampled grid","scope":"denmark","tileSource":"contours-denmark-coarse.geojson"},"geometry":{"type":"LineString","coordinates":[[10.640855,55.785001],[10.640854,55.785],[10.63129,55.775],[10.628077,55.765],[10.62,55.760005],[10.58,55.766812],[10.555,55.7625],[10.545,55.766765],[10.530323,55.785001]]}},{"type":"Feature","properties":{"depth":10,"source":"DDM 2024 coarse contour","resolution":"0.005 degree sampled grid","scope":"denmark","tileSource":"contours-denmark-coarse.geojson"},"geometry":{"type":"LineString","coordinates":[[10.36738,55.785001],[10.37,55.78],[10.365,55.783478],[10.363,55.78],[10.37,55.78],[10.375,55.772059],[10.380278,55.775],[10.376786,55.765],[10.381875,55.76],[10.375,55.753],[10.362391,55.75],[10.37,55.74],[10.3625,55.74],[10.37025,55.73],[10.36,55.727297],[10.335,55.730625],[10.279999,55.729538]]}},{"type":"Feature","properties":{"depth":10,"source":"DDM 2024 coarse contour","resolution":"0.005 degree sampled grid","scope":"denmark","tileSource":"contours-denmark-coarse.geojson"},"geometry":{"type":"LineString","coordinates":[[10.279999,55.642457],[10.289091,55.635],[10.35,55.635283],[10.424,55.615],[10.4385,55.61],[10.43575,55.605],[10.44,55.603534],[10.445,55.607667],[10.455,55.599333],[10.46,55.603333],[10.466667,55.595],[10.463333,55.59],[10.48,55.577619],[10.525,55.560217],[10.575,55.533704],[10.585,55.538148],[10.605,55.534375],[10.606538,55.54],[10.6,55.55],[10.595,55.548333],[10.585,55.556667],[10.569545,55.56],[10.591316,55.57],[10.578649,55.615],[10.586429,55.63],[10.580833,55.635],[10.59,55.637381],[10.6,55.629474],[10.624245,55.655],[10.63,55.655165],[10.635882,55.65],[10.630417,55.64],[10.641962,55.63],[10.642609,55.62],[10.669643,55.595],[10.685,55.565694],[10.713448,55.54],[10.72,55.528684],[10.735,55.53],[10.73,55.538333],[10.755001,55.525682]]}},{"type":"Feature","properties":{"depth":10,"source":"DDM 2024 coarse contour","resolution":"0.005 degree sampled grid","scope":"denmark","tileSource":"contours-denmark-coarse.geojson"},"geometry":{"type":"LineString","coordinates":[[10.755001,55.461442],[10.75,55.474107],[10.74,55.468171],[10.682222,55.46],[10.678103,55.45],[10.755001,55.409067]]}},{"type":"Feature","properties":{"depth":10,"source":"DDM 2024 coarse contour","resolution":"0.005 degree sampled grid","scope":"denmark","tileSource":"contours-denmark-coarse.geojson"},"geometry":{"type":"LineString","coordinates":[[10.74,55.516029],[10.734,55.515],[10.75,55.50127],[10.753561,55.505],[10.74,55.516029]]}},{"type":"Feature","properties":{"depth":10,"source":"DDM 2024 coarse contour","resolution":"0.005 degree sampled grid","scope":"denmark","tileSource":"contours-denmark-coarse.geojson"},"geometry":{"type":"LineString","coordinates":[[10.718529,55.72],[10.719394,55.715],[10.709451,55.715],[10.715,55.72169],[10.718529,55.72]]}},{"type":"Feature","properties":{"depth":10,"source":"DDM 2024 coarse contour","resolution":"0.005 degree sampled grid","scope":"denmark","tileSource":"contours-denmark-coarse.geojson"},"geometry":{"type":"LineString","coordinates":[[10.567703,55.74],[10.575357,55.735],[10.57,55.71725],[10.555294,55.725],[10.553429,55.735],[10.555,55.740233],[10.567703,55.74]]}},{"type":"Feature","properties":{"depth":10,"source":"DDM 2024 coarse contour","resolution":"0.005 degree sampled grid","scope":"denmark","tileSource":"contours-denmark-coarse.geojson"},"geometry":{"type":"LineString","coordinates":[[10.648062,55.785001],[10.636122,55.765],[10.625,55.755526],[10.61,55.756957],[10.6,55.75],[10.58,55.762727],[10.555,55.75713],[10.54,55.760345],[10.524185,55.785001]]}},{"type":"Feature","properties":{"depth":15,"source":"DDM 2024 coarse contour","resolution":"0.005 degree sampled grid","scope":"denmark","tileSource":"contours-denmark-coarse.geojson"},"geometry":{"type":"LineString","coordinates":[[10.454199,55.785001],[10.4542,55.785],[10.44,55.775],[10.435,55.783],[10.43,55.779286],[10.43,55.761667],[10.435,55.763036],[10.44,55.775],[10.448468,55.765],[10.445789,55.745],[10.436538,55.735],[10.44,55.73],[10.43,55.734524],[10.4175,55.73],[10.405,55.737222],[10.405,55.729375],[10.385,55.734286],[10.38,55.724118],[10.35,55.716222],[10.325,55.718469],[10.319091,55.725],[10.305,55.727],[10.279999,55.72638]]}},{"type":"Feature","properties":{"depth":15,"source":"DDM 2024 coarse contour","resolution":"0.005 degree sampled grid","scope":"denmark","tileSource":"contours-denmark-coarse.geojson"},"geometry":{"type":"LineString","coordinates":[[10.279999,55.657143],[10.28,55.657143],[10.295,55.643929],[10.32,55.637841],[10.33,55.641827],[10.355,55.639362],[10.36,55.644444],[10.37,55.636474],[10.385,55.64],[10.41,55.625],[10.48,55.607734],[10.501429,55.59],[10.5,55.584792],[10.515,55.587586],[10.525,55.579286],[10.5425,55.575],[10.5385,55.565],[10.55,55.556333],[10.55375,55.575],[10.57,55.58],[10.575455,55.59],[10.57725,55.605],[10.568036,55.635],[10.57,55.640862],[10.575,55.645758],[10.58,55.64135],[10.595,55.641667],[10.625,55.658258],[10.64,55.655972],[10.646389,55.65],[10.645,55.631111],[10.67,55.6065],[10.675,55.586889],[10.68,55.600556],[10.6866,55.595],[10.685,55.585556],[10.678036,55.585],[10.68,55.580417],[10.695,55.579286],[10.705,55.567],[10.715,55.5708],[10.755,55.549167],[10.755001,55.549168]]}},{"type":"Feature","properties":{"depth":15,"source":"DDM 2024 coarse contour","resolution":"0.005 degree sampled grid","scope":"denmark","tileSource":"contours-denmark-coarse.geojson"},"geometry":{"type":"LineString","coordinates":[[10.7183,55.595],[10.723333,55.585],[10.72,55.582143],[10.713448,55.585],[10.718261,55.59],[10.711489,55.595],[10.715,55.599583],[10.7183,55.595]]}},{"type":"Feature","properties":{"depth":15,"source":"DDM 2024 coarse contour","resolution":"0.005 degree sampled grid","scope":"denmark","tileSource":"contours-denmark-coarse.geojson"},"geometry":{"type":"LineString","coordinates":[[10.7475,55.63],[10.745,55.617821],[10.735,55.615109],[10.730313,55.62],[10.72925,55.63],[10.7475,55.63]]}},{"type":"Feature","properties":{"depth":15,"source":"DDM 2024 coarse contour","resolution":"0.005 degree sampled grid","scope":"denmark","tileSource":"contours-denmark-coarse.geojson"},"geometry":{"type":"LineString","coordinates":[[10.573,55.69],[10.588889,55.675],[10.565,55.664219],[10.555658,55.685],[10.565,55.694125],[10.573,55.69]]}},{"type":"Feature","properties":{"depth":15,"source":"DDM 2024 coarse contour","resolution":"0.005 degree sampled grid","scope":"denmark","tileSource":"contours-denmark-coarse.geojson"},"geometry":{"type":"LineString","coordinates":[[10.619792,55.69],[10.624902,55.685],[10.615,55.679886],[10.601071,55.685],[10.599342,55.69],[10.615,55.69434],[10.619792,55.69]]}},{"type":"Feature","properties":{"depth":15,"source":"DDM 2024 coarse contour","resolution":"0.005 degree sampled grid","scope":"denmark","tileSource":"contours-denmark-coarse.geojson"},"geometry":{"type":"LineString","coordinates":[[10.609815,55.705],[10.62,55.698519],[10.605,55.6954],[10.601061,55.705],[10.609815,55.705]]}},{"type":"Feature","properties":{"depth":15,"source":"DDM 2024 coarse contour","resolution":"0.005 degree sampled grid","scope":"denmark","tileSource":"contours-denmark-coarse.geojson"},"geometry":{"type":"LineString","coordinates":[[10.698421,55.705],[10.695,55.699505],[10.675,55.69545],[10.652705,55.7],[10.665,55.7086],[10.698421,55.705]]}},{"type":"Feature","properties":{"depth":15,"source":"DDM 2024 coarse contour","resolution":"0.005 degree sampled grid","scope":"denmark","tileSource":"contours-denmark-coarse.geojson"},"geometry":{"type":"LineString","coordinates":[[10.565,55.75],[10.560114,55.745],[10.576418,55.74],[10.5908,55.725],[10.581923,55.715],[10.58,55.703922],[10.565,55.710185],[10.56,55.707321],[10.5525,55.715],[10.546744,55.74],[10.565,55.75]]}},{"type":"Feature","properties":{"depth":15,"source":"DDM 2024 coarse contour","resolution":"0.005 degree sampled grid","scope":"denmark","tileSource":"contours-denmark-coarse.geojson"},"geometry":{"type":"LineString","coordinates":[[10.715313,55.725],[10.727895,55.715],[10.706402,55.715],[10.715313,55.725]]}},{"type":"Feature","properties":{"depth":15,"source":"DDM 2024 coarse contour","resolution":"0.005 degree sampled grid","scope":"denmark","tileSource":"contours-denmark-coarse.geojson"},"geometry":{"type":"LineString","coordinates":[[10.74575,55.745],[10.735,55.734035],[10.726034,55.735],[10.735,55.742941],[10.74575,55.745]]}},{"type":"Feature","properties":{"depth":15,"source":"DDM 2024 coarse contour","resolution":"0.005 degree sampled grid","scope":"denmark","tileSource":"contours-denmark-coarse.geojson"},"geometry":{"type":"LineString","coordinates":[[10.651222,55.785001],[10.63,55.751],[10.62,55.742143],[10.6,55.743625],[10.585,55.75598],[10.5615,55.755],[10.565,55.75],[10.535,55.76],[10.511429,55.785],[10.511429,55.785001]]}},{"type":"Feature","properties":{"depth":20,"source":"DDM 2024 coarse contour","resolution":"0.005 degree sampled grid","scope":"denmark","tileSource":"contours-denmark-coarse.geojson"},"geometry":{"type":"LineString","coordinates":[[10.472818,55.785001],[10.470301,55.78],[10.455,55.7725],[10.447217,55.76],[10.452564,55.74],[10.46016,55.735],[10.45568,55.73],[10.457667,55.715],[10.39,55.708833],[10.385,55.716786],[10.335,55.713077],[10.285,55.723056],[10.279999,55.723152]]}},{"type":"Feature","properties":{"depth":20,"source":"DDM 2024 coarse contour","resolution":"0.005 degree sampled grid","scope":"denmark","tileSource":"contours-denmark-coarse.geojson"},"geometry":{"type":"LineString","coordinates":[[10.279999,55.6628],[10.28,55.6628],[10.29,55.658043],[10.365,55.652162],[10.37,55.645],[10.455,55.64],[10.46,55.645],[10.445,55.665],[10.42,55.66025],[10.405,55.662979],[10.370417,55.68],[10.4,55.682264],[10.425,55.6755],[10.455,55.678125],[10.49,55.686667],[10.5025,55.695],[10.508,55.705],[10.505,55.714],[10.495,55.707414],[10.469219,55.725],[10.469342,55.745],[10.4585,55.755],[10.465,55.76425],[10.475,55.74337],[10.485,55.7475],[10.495,55.74],[10.5,55.751875],[10.515,55.722188],[10.518864,55.73],[10.510833,55.74],[10.515,55.746818],[10.545,55.744375],[10.558559,55.75],[10.523889,55.755],[10.5155,55.76],[10.518889,55.765],[10.51,55.765],[10.51,55.77],[10.5,55.775],[10.496905,55.78],[10.49796,55.785001]]}},{"type":"Feature","properties":{"depth":20,"source":"DDM 2024 coarse contour","resolution":"0.005 degree sampled grid","scope":"denmark","tileSource":"contours-denmark-coarse.geojson"},"geometry":{"type":"LineString","coordinates":[[10.65812,55.785001],[10.645441,55.765],[10.640313,55.745],[10.646875,55.735],[10.640833,55.725],[10.642333,55.71],[10.635,55.7045],[10.63,55.708171],[10.624,55.705],[10.623523,55.695],[10.632365,55.69],[10.635099,55.68],[10.63,55.6725],[10.625,55.680545],[10.615,55.673971],[10.595,55.676437],[10.59,55.67],[10.6,55.665],[10.59,55.653814],[10.62,55.659435],[10.63,55.66625],[10.632727,55.66],[10.645,55.657277],[10.665,55.641364],[10.675,55.628667],[10.685,55.627674],[10.686429,55.615],[10.705,55.611458],[10.71,55.617241],[10.716974,55.615],[10.710781,55.61],[10.73,55.587759],[10.735,55.59125],[10.746078,55.585],[10.745,55.578382],[10.736136,55.58],[10.74,55.572333],[10.755001,55.562466]]}},{"type":"Feature","properties":{"depth":20,"source":"DDM 2024 coarse contour","resolution":"0.005 degree sampled grid","scope":"denmark","tileSource":"contours-denmark-coarse.geojson"},"geometry":{"type":"LineString","coordinates":[[10.746905,55.635],[10.754138,55.63],[10.749786,55.62],[10.755001,55.615939]]}},{"type":"Feature","properties":{"depth":20,"source":"DDM 2024 coarse contour","resolution":"0.005 degree sampled grid","scope":"denmark","tileSource":"contours-denmark-coarse.geojson"},"geometry":{"type":"LineString","coordinates":[[10.755001,55.614549],[10.735,55.607062],[10.72027,55.61],[10.727407,55.615],[10.72225,55.63],[10.725,55.635926],[10.746905,55.635]]}},{"type":"Feature","properties":{"depth":20,"source":"DDM 2024 coarse contour","resolution":"0.005 degree sampled grid","scope":"denmark","tileSource":"contours-denmark-coarse.geojson"},"geometry":{"type":"LineString","coordinates":[[10.585,55.707931],[10.58,55.701767],[10.563837,55.7],[10.585,55.695417],[10.59,55.7],[10.59,55.694167],[10.585,55.707931]]}},{"type":"Feature","properties":{"depth":20,"source":"DDM 2024 coarse contour","resolution":"0.005 degree sampled grid","scope":"denmark","tileSource":"contours-denmark-coarse.geojson"},"geometry":{"type":"LineString","coordinates":[[10.755001,55.740978],[10.749545,55.74],[10.748611,55.735],[10.735833,55.73],[10.736591,55.725],[10.723571,55.725],[10.738,55.71],[10.707586,55.71],[10.71,55.704141],[10.675,55.691583],[10.65,55.698534],[10.657589,55.715],[10.653529,55.73],[10.66,55.72475],[10.6775,55.745],[10.675,55.765],[10.696667,55.75],[10.704167,55.735],[10.695645,55.73],[10.706429,55.725],[10.70575,55.735],[10.712857,55.74],[10.715862,55.75],[10.707083,55.755],[10.709167,55.76],[10.699464,55.77],[10.715,55.781429],[10.719286,55.78],[10.7125,55.775],[10.7325,55.77],[10.732059,55.785],[10.732058,55.785001]]}},{"type":"Feature","properties":{"depth":20,"source":"DDM 2024 coarse contour","resolution":"0.005 degree sampled grid","scope":"denmark","tileSource":"contours-denmark-coarse.geojson"},"geometry":{"type":"LineString","coordinates":[[10.695,55.729048],[10.690526,55.725],[10.695,55.712907],[10.702045,55.72],[10.695,55.729048]]}},{"type":"Feature","properties":{"depth":20,"source":"DDM 2024 coarse contour","resolution":"0.005 degree sampled grid","scope":"denmark","tileSource":"contours-denmark-coarse.geojson"},"geometry":{"type":"LineString","coordinates":[[10.58,55.747388],[10.565778,55.745],[10.58,55.740294],[10.584324,55.745],[10.58,55.747388]]}},{"type":"Feature","properties":{"depth":20,"source":"DDM 2024 coarse contour","resolution":"0.005 degree sampled grid","scope":"denmark","tileSource":"contours-denmark-coarse.geojson"},"geometry":{"type":"LineString","coordinates":[[10.673929,55.78],[10.6705,55.77],[10.675,55.765],[10.665,55.77],[10.67,55.782391],[10.673929,55.78]]}},{"type":"Feature","properties":{"depth":30,"source":"DDM 2024 coarse contour","resolution":"0.005 degree sampled grid","scope":"denmark","tileSource":"contours-denmark-coarse.geojson"},"geometry":{"type":"LineString","coordinates":[[10.755001,55.696265],[10.74,55.6861],[10.731923,55.685],[10.745,55.681818],[10.744444,55.675],[10.74,55.669054],[10.724583,55.665],[10.735,55.6575],[10.735536,55.65],[10.755001,55.640614]]}},{"type":"Feature","properties":{"depth":30,"source":"DDM 2024 coarse contour","resolution":"0.005 degree sampled grid","scope":"denmark","tileSource":"contours-denmark-coarse.geojson"},"geometry":{"type":"LineString","coordinates":[[10.645,55.688118],[10.637533,55.685],[10.635,55.665794],[10.65,55.658696],[10.665,55.663833],[10.645,55.688118]]}},{"type":"Feature","properties":{"depth":30,"source":"DDM 2024 coarse contour","resolution":"0.005 degree sampled grid","scope":"denmark","tileSource":"contours-denmark-coarse.geojson"},"geometry":{"type":"LineString","coordinates":[[10.465,55.741222],[10.460769,55.74],[10.465,55.727111],[10.465,55.741222]]}},{"type":"Feature","properties":{"depth":30,"source":"DDM 2024 coarse contour","resolution":"0.005 degree sampled grid","scope":"denmark","tileSource":"contours-denmark-coarse.geojson"},"geometry":{"type":"LineString","coordinates":[[10.475036,55.785001],[10.469338,55.775],[10.48,55.762973],[10.486928,55.785001]]}}]}