{"type":"FeatureCollection","name":"DDM contour tile r00_c17","bbox":[15.56,54.35,16.035,54.825],"metadata":{"schema":"waternav-ddm-contour-tile-v1","version":"v45.8","tileId":"r00_c17","source":"Danmarks Dybdemodel 2024 ddm_50m.dybde.tiff via bundled DDM contour GeoJSON files"},"features":[{"type":"Feature","properties":{"depth":1,"source":"DDM 2024 coarse contour","resolution":"0.005 degree sampled grid","scope":"denmark","tileSource":"contours-denmark-coarse.geojson"},"geometry":{"type":"LineString","coordinates":[[15.559999,54.659705],[15.57,54.659706],[15.575,54.664704],[15.59,54.664705],[15.595,54.669702],[15.615,54.669703],[15.62,54.6747],[15.635,54.674701],[15.64,54.679698],[15.65,54.679699],[15.655,54.684697],[15.665,54.684698],[15.69,54.704696],[15.695,54.704697],[15.71,54.719695],[15.715,54.719696],[15.725,54.729694],[15.73,54.729696],[15.74,54.739694],[15.745,54.739695],[15.755,54.749694],[15.76,54.749695],[15.79,54.779687],[15.795,54.77969],[15.815,54.799685],[15.820314,54.8],[15.820315,54.805],[15.830319,54.815],[15.83032,54.82],[15.835323,54.825001]]}},{"type":"Feature","properties":{"depth":2,"source":"DDM 2024 coarse contour","resolution":"0.005 degree sampled grid","scope":"denmark","tileSource":"contours-denmark-coarse.geojson"},"geometry":{"type":"LineString","coordinates":[[15.559999,54.65971],[15.57,54.659711],[15.575,54.664708],[15.59,54.664709],[15.595,54.669707],[15.615,54.669707],[15.62,54.674705],[15.635,54.674706],[15.64,54.679703],[15.65,54.679704],[15.655,54.684702],[15.665,54.684703],[15.69,54.7047],[15.695,54.704702],[15.71,54.7197],[15.715,54.719701],[15.725,54.729699],[15.73,54.7297],[15.74,54.739699],[15.745,54.7397],[15.755,54.749699],[15.76,54.7497],[15.79,54.779692],[15.795,54.779694],[15.815,54.799689],[15.820309,54.8],[15.820311,54.805],[15.830314,54.815],[15.830315,54.82],[15.835318,54.825001]]}},{"type":"Feature","properties":{"depth":3,"source":"DDM 2024 coarse contour","resolution":"0.005 degree sampled grid","scope":"denmark","tileSource":"contours-denmark-coarse.geojson"},"geometry":{"type":"LineString","coordinates":[[15.559999,54.659715],[15.57,54.659716],[15.575,54.664713],[15.59,54.664714],[15.595,54.669711],[15.615,54.669712],[15.62,54.67471],[15.635,54.67471],[15.64,54.679708],[15.65,54.679708],[15.655,54.684707],[15.665,54.684708],[15.69,54.704705],[15.695,54.704707],[15.71,54.719704],[15.715,54.719706],[15.725,54.729704],[15.73,54.729705],[15.74,54.739703],[15.745,54.739705],[15.755,54.749703],[15.76,54.749704],[15.79,54.779696],[15.795,54.779699],[15.815,54.799694],[15.820305,54.8],[15.820306,54.805],[15.830309,54.815],[15.830311,54.82],[15.835314,54.825001]]}},{"type":"Feature","properties":{"depth":5,"source":"DDM 2024 coarse contour","resolution":"0.005 degree sampled grid","scope":"denmark","tileSource":"contours-denmark-coarse.geojson"},"geometry":{"type":"LineString","coordinates":[[15.559999,54.659724],[15.57,54.659725],[15.575,54.664722],[15.59,54.664723],[15.595,54.669721],[15.615,54.669722],[15.62,54.674719],[15.635,54.67472],[15.64,54.679717],[15.65,54.679718],[15.655,54.684716],[15.665,54.684717],[15.69,54.704715],[15.695,54.704716],[15.71,54.719714],[15.715,54.719715],[15.725,54.729713],[15.73,54.729715],[15.74,54.739713],[15.745,54.739714],[15.755,54.749713],[15.76,54.749714],[15.79,54.779706],[15.795,54.779708],[15.815,54.799703],[15.820295,54.8],[15.820297,54.805],[15.8303,54.815],[15.830301,54.82],[15.835304,54.825001]]}},{"type":"Feature","properties":{"depth":10,"source":"DDM 2024 coarse contour","resolution":"0.005 degree sampled grid","scope":"denmark","tileSource":"contours-denmark-coarse.geojson"},"geometry":{"type":"LineString","coordinates":[[15.559999,54.659748],[15.57,54.659749],[15.595,54.669744],[15.635,54.674743],[15.655,54.68474],[15.665,54.684741],[15.71,54.719737],[15.76,54.749737],[15.79,54.779729],[15.820272,54.8],[15.836947,54.825001]]}},{"type":"Feature","properties":{"depth":15,"source":"DDM 2024 coarse contour","resolution":"0.005 degree sampled grid","scope":"denmark","tileSource":"contours-denmark-coarse.geojson"},"geometry":{"type":"LineString","coordinates":[[15.559999,54.659771],[15.57,54.659772],[15.595,54.669768],[15.635,54.674767],[15.655,54.684763],[15.665,54.684764],[15.71,54.719761],[15.76,54.749761],[15.79,54.779753],[15.820248,54.8],[15.836923,54.825001]]}},{"type":"Feature","properties":{"depth":20,"source":"DDM 2024 coarse contour","resolution":"0.005 degree sampled grid","scope":"denmark","tileSource":"contours-denmark-coarse.geojson"},"geometry":{"type":"LineString","coordinates":[[15.559999,54.659795],[15.57,54.659796],[15.595,54.669791],[15.635,54.67479],[15.655,54.684787],[15.665,54.684788],[15.71,54.719784],[15.76,54.749784],[15.79,54.779776],[15.820225,54.8],[15.8369,54.825001]]}},{"type":"Feature","properties":{"depth":30,"source":"DDM 2024 coarse contour","resolution":"0.005 degree sampled grid","scope":"denmark","tileSource":"contours-denmark-coarse.geojson"},"geometry":{"type":"LineString","coordinates":[[15.559999,54.659842],[15.57,54.659843],[15.595,54.669838],[15.635,54.674837],[15.655,54.684834],[15.665,54.684835],[15.71,54.719831],[15.76,54.749831],[15.79,54.779823],[15.820178,54.8],[15.836853,54.825001]]}},{"type":"Feature","properties":{"depth":50,"source":"DDM 2024 coarse contour","resolution":"0.005 degree sampled grid","scope":"denmark","tileSource":"contours-denmark-coarse.geojson"},"geometry":{"type":"LineString","coordinates":[[15.559999,54.659936],[15.57,54.659937],[15.595,54.669932],[15.635,54.674931],[15.655,54.684928],[15.665,54.684929],[15.71,54.719925],[15.76,54.749925],[15.79,54.779917],[15.820084,54.8],[15.836759,54.825001]]}}]}