{"type":"FeatureCollection","name":"DDM contour tile r01_c05","bbox":[9.8,54.83,10.275,55.305],"metadata":{"schema":"waternav-ddm-contour-tile-v1","version":"v45.8","tileId":"r01_c05","source":"Danmarks Dybdemodel 2024 ddm_50m.dybde.tiff via bundled DDM contour GeoJSON files"},"features":[{"type":"Feature","properties":{"depth":1,"source":"DDM 2024 coarse contour","resolution":"0.005 degree sampled grid","scope":"denmark","tileSource":"contours-denmark-coarse.geojson"},"geometry":{"type":"LineString","coordinates":[[9.799999,54.965132],[9.82,54.945694],[9.825,54.944996],[9.835,54.9358],[9.84,54.939994],[9.855,54.939997],[9.845,54.94001],[9.832,54.95],[9.835,54.969818],[9.83,54.970833],[9.828958,54.975],[9.82,54.975014],[9.815,54.979429],[9.799999,54.979739]]}},{"type":"Feature","properties":{"depth":1,"source":"DDM 2024 coarse contour","resolution":"0.005 degree sampled grid","scope":"denmark","tileSource":"contours-denmark-coarse.geojson"},"geometry":{"type":"LineString","coordinates":[[9.799999,55.071351],[9.8,55.071351],[9.815,55.069977],[9.83,55.055303],[9.84,55.054979],[9.845,55.049994],[9.85,55.049997],[9.885,55.025349],[9.895,55.024971],[9.900417,55.02],[9.94,55.019983],[9.945,55.01575],[9.955,55.014997],[9.965,55.009997],[9.98,54.995294],[9.985,54.999949],[9.989979,54.995],[9.99,54.990116],[9.995,54.989989],[10.004985,54.98],[10.010333,54.97],[10.044991,54.935],[10.045789,54.92],[10.050392,54.91],[10.06,54.899997],[10.065,54.899985],[10.069989,54.895],[10.070273,54.885],[10.074984,54.88],[10.065,54.870017],[10.045,54.870013],[10.035,54.874643],[10.03,54.870023],[10.015,54.870001],[10.005,54.860017],[9.995,54.859138],[9.99,54.850014],[9.935,54.85],[9.93,54.855001],[9.92,54.855033],[9.915,54.860008],[9.905,54.860025],[9.9,54.864167],[9.895,54.860016],[9.89,54.865],[9.875,54.870057],[9.865022,54.88],[9.885,54.894907],[9.9,54.89994],[9.92,54.885203],[9.93,54.884977],[9.936111,54.88],[9.95,54.879968],[9.954983,54.875],[9.955,54.870526],[9.97,54.869991],[9.984,54.86],[9.9875,54.86],[9.989318,54.87],[9.964531,54.885],[9.94,54.89006],[9.935,54.895026],[9.925,54.895068],[9.91,54.905008],[9.88544,54.905],[9.88,54.895107],[9.875,54.899811],[9.87,54.899844],[9.865,54.89507],[9.855,54.894842],[9.85,54.890042],[9.84,54.890003],[9.835,54.885103],[9.83,54.885126],[9.825,54.890007],[9.805,54.890095],[9.8,54.895006],[9.799999,54.895006]]}},{"type":"Feature","properties":{"depth":1,"source":"DDM 2024 coarse contour","resolution":"0.005 degree sampled grid","scope":"denmark","tileSource":"contours-denmark-coarse.geojson"},"geometry":{"type":"LineString","coordinates":[[9.799999,54.834885],[9.83,54.83486],[9.835,54.839876],[9.875,54.83986],[9.88,54.844862],[9.895,54.844862],[9.921766,54.829999]]}},{"type":"Feature","properties":{"depth":1,"source":"DDM 2024 coarse contour","resolution":"0.005 degree sampled grid","scope":"denmark","tileSource":"contours-denmark-coarse.geojson"},"geometry":{"type":"LineString","coordinates":[[10.275001,54.89502],[10.275,54.89502],[10.240016,54.925],[10.2399,54.94],[10.225,54.950007],[10.21,54.955057],[10.200026,54.97],[10.205,54.974972],[10.21,54.974973],[10.215,54.97],[10.22,54.97],[10.225396,54.96],[10.25,54.949937],[10.255,54.944983],[10.275001,54.944965]]}},{"type":"Feature","properties":{"depth":1,"source":"DDM 2024 coarse contour","resolution":"0.005 degree sampled grid","scope":"denmark","tileSource":"contours-denmark-coarse.geojson"},"geometry":{"type":"LineString","coordinates":[[10.275001,55.080018],[10.265,55.080045],[10.25,55.090005],[10.24,55.09003],[10.235,55.094623],[10.23,55.089687],[10.230116,55.075],[10.24,55.074947],[10.26,55.064994],[10.271852,55.055],[10.26,55.050081],[10.245,55.060018],[10.24,55.060066],[10.230066,55.07],[10.23,55.074963],[10.215656,55.07],[10.220833,55.065],[10.215,55.060021],[10.202778,55.06],[10.195,55.070001],[10.19,55.070031],[10.185,55.075035],[10.165,55.075073],[10.159697,55.08],[10.135,55.08505],[10.13,55.090003],[10.125,55.085078],[10.115,55.084808],[10.11,55.080059],[10.095,55.079847],[10.09,55.075081],[10.075,55.075012],[10.070018,55.08],[10.070019,55.09],[10.085,55.10999],[10.105,55.109983],[10.115,55.122667],[10.1275,55.125],[10.125,55.1302],[10.13,55.12625],[10.152857,55.125],[10.16,55.124997],[10.1625,55.13],[10.145,55.15],[10.135,55.15],[10.130007,55.155],[10.130008,55.165],[10.115,55.182917],[10.095,55.174506],[10.02,55.177941],[10.015003,55.185],[10.015006,55.195],[10.005,55.195018],[10,55.200007],[9.994988,55.2],[10.005761,55.19],[10.000263,55.185],[9.996071,55.17],[10.025,55.154993],[10.044995,55.13],[10.03,55.120014],[10.005,55.120055],[10,55.125002],[9.985,55.12503],[9.975018,55.135],[9.98,55.139977],[9.985004,55.14],[9.989362,55.15],[9.980005,55.165],[9.980015,55.175],[9.983919,55.18],[9.980013,55.19],[9.985,55.197],[9.984904,55.205],[9.973621,55.215],[9.93,55.21505],[9.91,55.235],[9.9,55.235016],[9.895,55.238857],[9.890005,55.245],[9.895009,55.25],[9.895011,55.255],[9.885,55.255021],[9.88002,55.26],[9.878519,55.27],[9.885003,55.27],[9.885013,55.29],[9.888919,55.295],[9.889644,55.305001]]}},{"type":"Feature","properties":{"depth":1,"source":"DDM 2024 coarse contour","resolution":"0.005 degree sampled grid","scope":"denmark","tileSource":"contours-denmark-coarse.geojson"},"geometry":{"type":"LineString","coordinates":[[10.255119,55.04],[10.275,55.024994],[10.275001,55.024994]]}},{"type":"Feature","properties":{"depth":1,"source":"DDM 2024 coarse contour","resolution":"0.005 degree sampled grid","scope":"denmark","tileSource":"contours-denmark-coarse.geojson"},"geometry":{"type":"LineString","coordinates":[[10.275001,55.015065],[10.255,55.015117],[10.235004,55.03],[10.235001,55.035],[10.24,55.039974],[10.245,55.039985],[10.25,55.04491],[10.255119,55.04]]}},{"type":"Feature","properties":{"depth":1,"source":"DDM 2024 coarse contour","resolution":"0.005 degree sampled grid","scope":"denmark","tileSource":"contours-denmark-coarse.geojson"},"geometry":{"type":"LineString","coordinates":[[10.149928,55.065],[10.141,55.06],[10.1414,55.055],[10.155,55.054977],[10.16,55.050288],[10.165,55.050241],[10.17,55.054908],[10.175,55.050167],[10.185,55.049167],[10.186429,55.045],[10.175,55.035015],[10.16,55.034474],[10.155,55.030026],[10.14,55.03002],[10.125002,55.045],[10.120014,55.055],[10.135,55.064924],[10.14,55.060758],[10.140028,55.065],[10.145,55.069889],[10.149928,55.065]]}},{"type":"Feature","properties":{"depth":1,"source":"DDM 2024 coarse contour","resolution":"0.005 degree sampled grid","scope":"denmark","tileSource":"contours-denmark-coarse.geojson"},"geometry":{"type":"LineString","coordinates":[[10.23,55.099186],[10.216944,55.095],[10.23,55.090135],[10.2345,55.095],[10.23,55.099186]]}},{"type":"Feature","properties":{"depth":1,"source":"DDM 2024 coarse contour","resolution":"0.005 degree sampled grid","scope":"denmark","tileSource":"contours-denmark-coarse.geojson"},"geometry":{"type":"LineString","coordinates":[[10.108,55.14],[10.118,55.135],[10.1,55.130014],[10.0925,55.135],[10.1,55.140972],[10.108,55.14]]}},{"type":"Feature","properties":{"depth":1,"source":"DDM 2024 coarse contour","resolution":"0.005 degree sampled grid","scope":"denmark","tileSource":"contours-denmark-coarse.geojson"},"geometry":{"type":"LineString","coordinates":[[9.885114,55.25],[9.889995,55.245],[9.885,55.240004],[9.88,55.240006],[9.869375,55.25],[9.875,55.254984],[9.88,55.254979],[9.885114,55.25]]}},{"type":"Feature","properties":{"depth":1,"source":"DDM 2024 coarse contour","resolution":"0.005 degree sampled grid","scope":"denmark","tileSource":"contours-denmark-coarse.geojson"},"geometry":{"type":"LineString","coordinates":[[9.832666,55.305001],[9.83375,55.3],[9.825,55.295008],[9.799999,55.295017]]}},{"type":"Feature","properties":{"depth":2,"source":"DDM 2024 coarse contour","resolution":"0.005 degree sampled grid","scope":"denmark","tileSource":"contours-denmark-coarse.geojson"},"geometry":{"type":"LineString","coordinates":[[9.799999,54.965848],[9.825,54.945111],[9.833108,54.955],[9.828,54.96],[9.835,54.961417],[9.835,54.968909],[9.825,54.97],[9.826875,54.975],[9.815,54.978],[9.799999,54.979022]]}},{"type":"Feature","properties":{"depth":2,"source":"DDM 2024 coarse contour","resolution":"0.005 degree sampled grid","scope":"denmark","tileSource":"contours-denmark-coarse.geojson"},"geometry":{"type":"LineString","coordinates":[[9.799999,55.074095],[9.815,55.069982],[9.83,55.056818],[9.855,55.04825],[9.875,55.030556],[9.885,55.02593],[9.895,55.024976],[9.9025,55.02],[9.94,55.019988],[9.945,55.016583],[9.960833,55.015],[9.98,54.996275],[9.985,54.999954],[9.99,54.991279],[10.00499,54.98],[10.015154,54.965],[10.044996,54.935],[10.051373,54.91],[10.069994,54.895],[10.071182,54.885],[10.074989,54.88],[10.065,54.870012],[10.045,54.870008],[10.035,54.873452],[10.03,54.870018],[10.016379,54.87],[10.005,54.860012],[9.995,54.857414],[9.99,54.850009],[9.935,54.849612],[9.92,54.855028],[9.915,54.860003],[9.905,54.86002],[9.9,54.863125],[9.895,54.860011],[9.879775,54.87],[9.875,54.870052],[9.865017,54.88],[9.885,54.894912],[9.9,54.899945],[9.92,54.88561],[9.93,54.884982],[9.938889,54.88],[9.95,54.879973],[9.955,54.871842],[9.97,54.869996],[9.98,54.863103],[9.987045,54.87],[9.96375,54.885],[9.955,54.885044],[9.95,54.890011],[9.94,54.890055],[9.935,54.895021],[9.925,54.895063],[9.91,54.905003],[9.885989,54.905],[9.88,54.895102],[9.875,54.899575],[9.87,54.899583],[9.85,54.890037],[9.84,54.889939],[9.835,54.885098],[9.83,54.885121],[9.825,54.890002],[9.805,54.89009],[9.8,54.895001],[9.799999,54.895001]]}},{"type":"Feature","properties":{"depth":2,"source":"DDM 2024 coarse contour","resolution":"0.005 degree sampled grid","scope":"denmark","tileSource":"contours-denmark-coarse.geojson"},"geometry":{"type":"LineString","coordinates":[[9.799999,54.83489],[9.83,54.834864],[9.835,54.839881],[9.875,54.839864],[9.88,54.844867],[9.895,54.844867],[9.921775,54.829999]]}},{"type":"Feature","properties":{"depth":2,"source":"DDM 2024 coarse contour","resolution":"0.005 degree sampled grid","scope":"denmark","tileSource":"contours-denmark-coarse.geojson"},"geometry":{"type":"LineString","coordinates":[[10.275001,54.895015],[10.275,54.895015],[10.26,54.910003],[10.255,54.91003],[10.243778,54.92],[10.240011,54.925],[10.2389,54.94],[10.225,54.950002],[10.21,54.955052],[10.200021,54.97],[10.205,54.974977],[10.21,54.974978],[10.221552,54.97],[10.225891,54.96],[10.25,54.949942],[10.255,54.944988],[10.275001,54.94497]]}},{"type":"Feature","properties":{"depth":2,"source":"DDM 2024 coarse contour","resolution":"0.005 degree sampled grid","scope":"denmark","tileSource":"contours-denmark-coarse.geojson"},"geometry":{"type":"LineString","coordinates":[[10.275001,55.065001],[10.275,55.065],[10.275001,55.065001]]}},{"type":"Feature","properties":{"depth":2,"source":"DDM 2024 coarse contour","resolution":"0.005 degree sampled grid","scope":"denmark","tileSource":"contours-denmark-coarse.geojson"},"geometry":{"type":"LineString","coordinates":[[10.275001,55.080012],[10.265,55.08004],[10.25,55.09],[10.24,55.090025],[10.235,55.093679],[10.23,55.086562],[10.231279,55.075],[10.24,55.074952],[10.273704,55.055],[10.26,55.050076],[10.245,55.060013],[10.24,55.060061],[10.230061,55.07],[10.23,55.074593],[10.216475,55.07],[10.221667,55.065],[10.215,55.060016],[10.2,55.059877],[10.195,55.069551],[10.185,55.07503],[10.165,55.075068],[10.158939,55.08],[10.135,55.085045],[10.13,55.089874],[10.125,55.085073],[10.115,55.084533],[10.11,55.080054],[10.095,55.079629],[10.09,55.075076],[10.075,55.075007],[10.070013,55.08],[10.070014,55.09],[10.080001,55.1],[10.080001,55.105],[10.085,55.109995],[10.105,55.109988],[10.11,55.115],[10.109615,55.125],[10.115,55.125234],[10.119919,55.13],[10.115,55.133813],[10.1,55.130009],[10.09,55.134737],[10.075,55.1325],[10.074643,55.135],[10.09,55.135263],[10.1,55.142361],[10.11,55.144],[10.115,55.149996],[10.125,55.150581],[10.13,55.153462],[10.130003,55.165],[10.115,55.1794],[10.095,55.173889],[10.04,55.175019],[10.035,55.178021],[10.03,55.174687],[10.025,55.178229],[10.01,55.173852],[10.007812,55.175],[10.01,55.178182],[10.015,55.176429],[10.017344,55.18],[10.015001,55.195],[10.001143,55.195],[10.006848,55.19],[9.996197,55.175],[9.997262,55.17],[10.01,55.164986],[10.03,55.151056],[10.045,55.13],[10.03,55.120009],[10.005,55.12005],[9.999432,55.125],[9.985,55.125025],[9.975013,55.135],[9.98,55.139982],[9.984865,55.14],[9.988298,55.15],[9.98,55.165],[9.982568,55.18],[9.980008,55.19],[9.984881,55.2],[9.98,55.209946],[9.971897,55.215],[9.93,55.215045],[9.908333,55.235],[9.895,55.237429],[9.89,55.245],[9.885,55.239677],[9.88,55.240001],[9.86625,55.25],[9.87,55.254],[9.88,55.254984],[9.89,55.245],[9.895004,55.25],[9.895,55.255006],[9.885,55.255016],[9.877973,55.265],[9.876667,55.27],[9.88,55.272903],[9.885,55.270488],[9.885008,55.29],[9.888754,55.305001]]}},{"type":"Feature","properties":{"depth":2,"source":"DDM 2024 coarse contour","resolution":"0.005 degree sampled grid","scope":"denmark","tileSource":"contours-denmark-coarse.geojson"},"geometry":{"type":"LineString","coordinates":[[9.84,54.945],[9.83,54.9488],[9.82525,54.945],[9.835,54.9378],[9.853636,54.94],[9.845,54.940005],[9.84,54.945]]}},{"type":"Feature","properties":{"depth":2,"source":"DDM 2024 coarse contour","resolution":"0.005 degree sampled grid","scope":"denmark","tileSource":"contours-denmark-coarse.geojson"},"geometry":{"type":"LineString","coordinates":[[10.255516,55.04],[10.275001,55.027132]]}},{"type":"Feature","properties":{"depth":2,"source":"DDM 2024 coarse contour","resolution":"0.005 degree sampled grid","scope":"denmark","tileSource":"contours-denmark-coarse.geojson"},"geometry":{"type":"LineString","coordinates":[[10.275001,55.01506],[10.255,55.015112],[10.245,55.025001],[10.24,55.025012],[10.234773,55.03],[10.234167,55.035],[10.25,55.044915],[10.255516,55.04]]}},{"type":"Feature","properties":{"depth":2,"source":"DDM 2024 coarse contour","resolution":"0.005 degree sampled grid","scope":"denmark","tileSource":"contours-denmark-coarse.geojson"},"geometry":{"type":"LineString","coordinates":[[10.149933,55.065],[10.142,55.06],[10.1434,55.055],[10.155,55.054982],[10.165,55.050508],[10.17,55.054913],[10.175,55.050405],[10.191087,55.05],[10.175,55.03501],[10.16,55.033596],[10.155,55.030021],[10.14,55.030015],[10.125,55.044324],[10.120009,55.055],[10.135,55.064929],[10.14,55.061515],[10.145,55.069894],[10.149933,55.065]]}},{"type":"Feature","properties":{"depth":2,"source":"DDM 2024 coarse contour","resolution":"0.005 degree sampled grid","scope":"denmark","tileSource":"contours-denmark-coarse.geojson"},"geometry":{"type":"LineString","coordinates":[[10.23,55.098023],[10.219722,55.095],[10.23,55.091486],[10.23325,55.095],[10.23,55.098023]]}},{"type":"Feature","properties":{"depth":2,"source":"DDM 2024 coarse contour","resolution":"0.005 degree sampled grid","scope":"denmark","tileSource":"contours-denmark-coarse.geojson"},"geometry":{"type":"LineString","coordinates":[[10.14,55.150013],[10.136286,55.15],[10.135,55.141818],[10.125,55.148077],[10.12,55.141739],[10.112105,55.14],[10.135,55.127593],[10.155,55.127333],[10.159,55.13],[10.15375,55.14],[10.145,55.144333],[10.143714,55.15],[10.14,55.150013]]}},{"type":"Feature","properties":{"depth":2,"source":"DDM 2024 coarse contour","resolution":"0.005 degree sampled grid","scope":"denmark","tileSource":"contours-denmark-coarse.geojson"},"geometry":{"type":"LineString","coordinates":[[9.834411,55.305001],[9.83675,55.3],[9.825,55.295003],[9.799999,55.295012]]}},{"type":"Feature","properties":{"depth":3,"source":"DDM 2024 coarse contour","resolution":"0.005 degree sampled grid","scope":"denmark","tileSource":"contours-denmark-coarse.geojson"},"geometry":{"type":"LineString","coordinates":[[9.799999,54.966038],[9.825,54.946222],[9.8284,54.95],[9.824853,54.96],[9.835,54.96225],[9.835,54.968],[9.821667,54.97],[9.824444,54.975],[9.799999,54.978122]]}},{"type":"Feature","properties":{"depth":3,"source":"DDM 2024 coarse contour","resolution":"0.005 degree sampled grid","scope":"denmark","tileSource":"contours-denmark-coarse.geojson"},"geometry":{"type":"LineString","coordinates":[[9.799999,55.074286],[9.815,55.069987],[9.845,55.050606],[9.85625,55.05],[9.87,55.037857],[9.875,55.036],[9.880222,55.04],[9.875833,55.035],[9.885,55.026512],[9.904583,55.02],[9.915,55.023611],[9.965,55.015085],[9.975,55.000851],[9.98,54.997255],[9.985,54.999959],[10,54.985143],[10.045,54.935122],[10.052353,54.91],[10.069999,54.895],[10.074994,54.88],[10.065,54.870007],[10.035,54.872262],[10.018103,54.87],[9.99,54.850004],[9.945,54.84858],[9.93,54.85],[9.9146,54.86],[9.89,54.861552],[9.879324,54.87],[9.875,54.870047],[9.865012,54.88],[9.885,54.894917],[9.9,54.89995],[9.92,54.886016],[9.95,54.879978],[9.955,54.873158],[9.96,54.871639],[9.975,54.868077],[9.978409,54.87],[9.980192,54.875],[9.973707,54.88],[9.962969,54.885],[9.955,54.885039],[9.95,54.890006],[9.94,54.89005],[9.935,54.895016],[9.925,54.895058],[9.91,54.9049],[9.886538,54.905],[9.88,54.895097],[9.87,54.899323],[9.85,54.890032],[9.84,54.889735],[9.835,54.885094],[9.83,54.885116],[9.825,54.889908],[9.805,54.890085],[9.799999,54.892543]]}},{"type":"Feature","properties":{"depth":3,"source":"DDM 2024 coarse contour","resolution":"0.005 degree sampled grid","scope":"denmark","tileSource":"contours-denmark-coarse.geojson"},"geometry":{"type":"LineString","coordinates":[[9.799999,54.834895],[9.83,54.834869],[9.835,54.839886],[9.875,54.839869],[9.88,54.844872],[9.895,54.844872],[9.921784,54.829999]]}},{"type":"Feature","properties":{"depth":3,"source":"DDM 2024 coarse contour","resolution":"0.005 degree sampled grid","scope":"denmark","tileSource":"contours-denmark-coarse.geojson"},"geometry":{"type":"LineString","coordinates":[[10.275001,54.897362],[10.259636,54.91],[10.255,54.910025],[10.242667,54.92],[10.2379,54.94],[10.224508,54.95],[10.21,54.955047],[10.200016,54.97],[10.205,54.974982],[10.21,54.974983],[10.223276,54.97],[10.226386,54.96],[10.25,54.949947],[10.255,54.944993],[10.275001,54.944975]]}},{"type":"Feature","properties":{"depth":3,"source":"DDM 2024 coarse contour","resolution":"0.005 degree sampled grid","scope":"denmark","tileSource":"contours-denmark-coarse.geojson"},"geometry":{"type":"LineString","coordinates":[[10.275001,55.054791],[10.275,55.054792],[10.26,55.050071],[10.245,55.060008],[10.24,55.060056],[10.230056,55.07],[10.23,55.074222],[10.217295,55.07],[10.2225,55.065],[10.22,55.06125],[10.2,55.059631],[10.195,55.06891],[10.185,55.075025],[10.165,55.075063],[10.158182,55.08],[10.135,55.08504],[10.13,55.089454],[10.11,55.080049],[10.095,55.07941],[10.09,55.075071],[10.075,55.075002],[10.070008,55.08],[10.070009,55.09],[10.078704,55.1],[10.08,55.106739],[10.095,55.112812],[10.097045,55.11],[10.105,55.109993],[10.108387,55.115],[10.105769,55.125],[10.115,55.126016],[10.119113,55.13],[10.11,55.133535],[10.105,55.13004],[10.09,55.132105],[10.059545,55.13],[10.07,55.13119],[10.075,55.136875],[10.09,55.137895],[10.115,55.150066],[10.125,55.151744],[10.1298,55.16],[10.125006,55.17],[10.11,55.178095],[10.095,55.173272],[10.035,55.176979],[10.03,55.173125],[10.025,55.177187],[10.01,55.173033],[10.00625,55.175],[10.014156,55.185],[10.015,55.193095],[10.002571,55.195],[10.007935,55.19],[9.996901,55.175],[9.998452,55.17],[10.02,55.16025],[10.050833,55.13],[10.03,55.120004],[10.005,55.120045],[9.998295,55.125],[9.985,55.12502],[9.975008,55.135],[9.983514,55.14],[9.987234,55.15],[9.978214,55.165],[9.983942,55.205],[9.98,55.209409],[9.970172,55.215],[9.93,55.21504],[9.915,55.23001],[9.906481,55.235],[9.895,55.236],[9.89,55.243485],[9.885,55.238065],[9.88,55.2386],[9.86,55.249677],[9.845,55.25],[9.845,55.255],[9.865,55.256176],[9.88,55.254989],[9.89,55.246515],[9.8946,55.25],[9.895001,55.255],[9.885,55.255011],[9.869744,55.275],[9.87,55.280313],[9.885,55.271707],[9.885003,55.29],[9.88837,55.305001]]}},{"type":"Feature","properties":{"depth":3,"source":"DDM 2024 coarse contour","resolution":"0.005 degree sampled grid","scope":"denmark","tileSource":"contours-denmark-coarse.geojson"},"geometry":{"type":"LineString","coordinates":[[9.835,54.945806],[9.82775,54.945],[9.835,54.9398],[9.835,54.945806]]}},{"type":"Feature","properties":{"depth":3,"source":"DDM 2024 coarse contour","resolution":"0.005 degree sampled grid","scope":"denmark","tileSource":"contours-denmark-coarse.geojson"},"geometry":{"type":"LineString","coordinates":[[10.255913,55.04],[10.275001,55.027489]]}},{"type":"Feature","properties":{"depth":3,"source":"DDM 2024 coarse contour","resolution":"0.005 degree sampled grid","scope":"denmark","tileSource":"contours-denmark-coarse.geojson"},"geometry":{"type":"LineString","coordinates":[[10.275001,55.015055],[10.255,55.015107],[10.245,55.024574],[10.2325,55.03],[10.232976,55.035],[10.25,55.04492],[10.255913,55.04]]}},{"type":"Feature","properties":{"depth":3,"source":"DDM 2024 coarse contour","resolution":"0.005 degree sampled grid","scope":"denmark","tileSource":"contours-denmark-coarse.geojson"},"geometry":{"type":"LineString","coordinates":[[10.149938,55.065],[10.143,55.06],[10.145526,55.055],[10.155,55.054987],[10.16,55.050929],[10.17,55.054918],[10.175,55.050643],[10.193261,55.05],[10.185,55.040313],[10.17,55.033056],[10.14,55.03001],[10.125,55.042973],[10.120004,55.055],[10.135,55.064934],[10.14,55.062273],[10.145,55.069899],[10.149938,55.065]]}},{"type":"Feature","properties":{"depth":3,"source":"DDM 2024 coarse contour","resolution":"0.005 degree sampled grid","scope":"denmark","tileSource":"contours-denmark-coarse.geojson"},"geometry":{"type":"LineString","coordinates":[[10.245,55.090013],[10.235,55.092736],[10.2321,55.09],[10.232442,55.075],[10.24,55.074956],[10.26,55.065702],[10.275,55.066613],[10.275001,55.066614]]}},{"type":"Feature","properties":{"depth":3,"source":"DDM 2024 coarse contour","resolution":"0.005 degree sampled grid","scope":"denmark","tileSource":"contours-denmark-coarse.geojson"},"geometry":{"type":"LineString","coordinates":[[10.275001,55.080001],[10.265,55.080035],[10.26,55.085011],[10.245,55.090013]]}},{"type":"Feature","properties":{"depth":3,"source":"DDM 2024 coarse contour","resolution":"0.005 degree sampled grid","scope":"denmark","tileSource":"contours-denmark-coarse.geojson"},"geometry":{"type":"LineString","coordinates":[[10.14,55.150008],[10.137714,55.15],[10.138333,55.14],[10.130278,55.135],[10.14,55.128281],[10.153571,55.13],[10.151667,55.14],[10.145,55.141],[10.14,55.150008]]}},{"type":"Feature","properties":{"depth":3,"source":"DDM 2024 coarse contour","resolution":"0.005 degree sampled grid","scope":"denmark","tileSource":"contours-denmark-coarse.geojson"},"geometry":{"type":"LineString","coordinates":[[9.799999,55.28635],[9.805161,55.285],[9.799999,55.279088]]}},{"type":"Feature","properties":{"depth":3,"source":"DDM 2024 coarse contour","resolution":"0.005 degree sampled grid","scope":"denmark","tileSource":"contours-denmark-coarse.geojson"},"geometry":{"type":"LineString","coordinates":[[9.799999,55.271946],[9.802273,55.27],[9.799999,55.26974]]}},{"type":"Feature","properties":{"depth":3,"source":"DDM 2024 coarse contour","resolution":"0.005 degree sampled grid","scope":"denmark","tileSource":"contours-denmark-coarse.geojson"},"geometry":{"type":"LineString","coordinates":[[9.836271,55.305001],[9.83925,55.3],[9.827857,55.295],[9.825,55.288947],[9.82,55.294615],[9.815,55.289904],[9.813947,55.295],[9.799999,55.295007]]}},{"type":"Feature","properties":{"depth":5,"source":"DDM 2024 coarse contour","resolution":"0.005 degree sampled grid","scope":"denmark","tileSource":"contours-denmark-coarse.geojson"},"geometry":{"type":"LineString","coordinates":[[9.799999,54.967442],[9.82,54.951324],[9.821912,54.96],[9.835,54.963917],[9.835,54.966182],[9.815833,54.97],[9.812353,54.975],[9.805,54.9775],[9.799999,54.978132]]}},{"type":"Feature","properties":{"depth":5,"source":"DDM 2024 coarse contour","resolution":"0.005 degree sampled grid","scope":"denmark","tileSource":"contours-denmark-coarse.geojson"},"geometry":{"type":"LineString","coordinates":[[9.799999,55.076718],[9.815,55.069997],[9.845,55.052121],[9.865,55.050203],[9.865,55.044],[9.882444,55.04],[9.882059,55.03],[9.885,55.027674],[9.905,55.021607],[9.915,55.025301],[9.925,55.021257],[9.965,55.015427],[9.975,55.002979],[9.98,54.999216],[9.985,54.999969],[10,54.986571],[10.045,54.936341],[10.054314,54.91],[10.06,54.907895],[10.07,54.896636],[10.077414,54.875],[10.095,54.859286],[10.09,54.8635],[10.077679,54.86],[10.075,54.86525],[10.061875,54.87],[10.05,54.866538],[10.027667,54.87],[10.012857,54.865],[9.99875,54.85],[9.935,54.848319],[9.9126,54.86],[9.89,54.859],[9.878423,54.87],[9.866212,54.875],[9.865002,54.88],[9.885,54.894926],[9.9,54.899959],[9.92,54.886829],[9.95,54.879988],[9.96,54.873279],[9.975,54.872778],[9.97587,54.875],[9.961406,54.885],[9.955,54.885029],[9.949602,54.89],[9.94,54.890041],[9.935,54.895006],[9.925,54.895048],[9.91,54.904233],[9.887637,54.905],[9.88,54.895088],[9.87,54.898802],[9.83,54.885107],[9.825,54.889539],[9.805,54.890075],[9.8,54.894097],[9.799999,54.894097]]}},{"type":"Feature","properties":{"depth":5,"source":"DDM 2024 coarse contour","resolution":"0.005 degree sampled grid","scope":"denmark","tileSource":"contours-denmark-coarse.geojson"},"geometry":{"type":"LineString","coordinates":[[9.799999,54.834905],[9.83,54.834879],[9.835,54.839896],[9.875,54.839879],[9.88,54.844881],[9.895,54.844882],[9.921802,54.829999]]}},{"type":"Feature","properties":{"depth":5,"source":"DDM 2024 coarse contour","resolution":"0.005 degree sampled grid","scope":"denmark","tileSource":"contours-denmark-coarse.geojson"},"geometry":{"type":"LineString","coordinates":[[10.275001,54.895833],[10.265,54.905],[10.240444,54.92],[10.2359,54.94],[10.215,54.955002],[10.21,54.955038],[10.200006,54.97],[10.205,54.974992],[10.225,54.970205],[10.227376,54.96],[10.255,54.945139],[10.275001,54.945012]]}},{"type":"Feature","properties":{"depth":5,"source":"DDM 2024 coarse contour","resolution":"0.005 degree sampled grid","scope":"denmark","tileSource":"contours-denmark-coarse.geojson"},"geometry":{"type":"LineString","coordinates":[[10.275001,55.016194],[10.255,55.015098],[10.245,55.023511],[10.235,55.025156],[10.229526,55.03],[10.230595,55.035],[10.25,55.04493],[10.275001,55.028371]]}},{"type":"Feature","properties":{"depth":5,"source":"DDM 2024 coarse contour","resolution":"0.005 degree sampled grid","scope":"denmark","tileSource":"contours-denmark-coarse.geojson"},"geometry":{"type":"LineString","coordinates":[[10.275001,55.053402],[10.275,55.053403],[10.26,55.050061],[10.254882,55.055],[10.24,55.060046],[10.230046,55.07],[10.23,55.073481],[10.218934,55.07],[10.224167,55.065],[10.225,55.049409],[10.22,55.0575],[10.215,55.054918],[10.2,55.059138],[10.195,55.067628],[10.185,55.075015],[10.165,55.075053],[10.13,55.088613],[10.11,55.08004],[10.095,55.078974],[10.09,55.075061],[10.0718,55.075],[10.067857,55.085],[10.071875,55.095],[10.08,55.110543],[10.094808,55.12],[10.095,55.126],[10.055,55.129167],[10.045,55.127368],[10.035,55.12],[10.04,55.115556],[10.045,55.118421],[10.05,55.116579],[10.056471,55.11],[10.055,55.104864],[10.038404,55.11],[10.035,55.12],[10.03,55.117931],[10.005,55.120036],[9.996023,55.125],[9.985,55.12501],[9.97425,55.135],[9.980811,55.14],[9.985106,55.15],[9.974286,55.165],[9.9775,55.175],[9.974412,55.19],[9.982981,55.205],[9.98,55.208333],[9.965476,55.215],[9.93,55.21503],[9.921429,55.22],[9.915,55.23],[9.905,55.233605],[9.895,55.229457],[9.885,55.234286],[9.875,55.225],[9.877857,55.23],[9.875,55.235],[9.865,55.238462],[9.86,55.246452],[9.835,55.243],[9.829167,55.25],[9.83,55.255152],[9.855,55.259737],[9.885714,55.255],[9.87407,55.265],[9.864493,55.28],[9.87,55.283438],[9.88,55.279722],[9.885,55.274146],[9.88303,55.29],[9.887986,55.305],[9.887986,55.305001]]}},{"type":"Feature","properties":{"depth":5,"source":"DDM 2024 coarse contour","resolution":"0.005 degree sampled grid","scope":"denmark","tileSource":"contours-denmark-coarse.geojson"},"geometry":{"type":"LineString","coordinates":[[10.149948,55.065],[10.145,55.06],[10.16,55.051571],[10.17,55.054928],[10.175,55.051119],[10.195,55.050264],[10.1945,55.04],[10.17,55.030278],[10.135,55.031635],[10.125,55.04027],[10.115385,55.055],[10.135,55.064944],[10.14,55.063788],[10.145,55.069909],[10.149948,55.065]]}},{"type":"Feature","properties":{"depth":5,"source":"DDM 2024 coarse contour","resolution":"0.005 degree sampled grid","scope":"denmark","tileSource":"contours-denmark-coarse.geojson"},"geometry":{"type":"LineString","coordinates":[[10.245,55.090003],[10.2341,55.09],[10.234767,55.075],[10.26,55.067456],[10.275001,55.069977]]}},{"type":"Feature","properties":{"depth":5,"source":"DDM 2024 coarse contour","resolution":"0.005 degree sampled grid","scope":"denmark","tileSource":"contours-denmark-coarse.geojson"},"geometry":{"type":"LineString","coordinates":[[10.275001,55.070105],[10.26859,55.075],[10.273468,55.08],[10.265,55.080025],[10.26,55.085001],[10.245,55.090003]]}},{"type":"Feature","properties":{"depth":5,"source":"DDM 2024 coarse contour","resolution":"0.005 degree sampled grid","scope":"denmark","tileSource":"contours-denmark-coarse.geojson"},"geometry":{"type":"LineString","coordinates":[[10.105,55.11525],[10.1,55.117419],[10.096429,55.115],[10.099318,55.11],[10.1025,55.11],[10.105,55.11525]]}},{"type":"Feature","properties":{"depth":5,"source":"DDM 2024 coarse contour","resolution":"0.005 degree sampled grid","scope":"denmark","tileSource":"contours-denmark-coarse.geojson"},"geometry":{"type":"LineString","coordinates":[[10.115,55.131938],[10.100775,55.13],[10.105,55.126154],[10.115,55.127578],[10.1175,55.13],[10.115,55.131938]]}},{"type":"Feature","properties":{"depth":5,"source":"DDM 2024 coarse contour","resolution":"0.005 degree sampled grid","scope":"denmark","tileSource":"contours-denmark-coarse.geojson"},"geometry":{"type":"LineString","coordinates":[[10.11,55.176508],[10.08,55.171385],[10.0355,55.175],[10.03,55.17],[10.025,55.175104],[10.015,55.171604],[10.005,55.1738],[10.000778,55.17],[10.02,55.16275],[10.045,55.136827],[10.055,55.13122],[10.069,55.135],[10.085,55.145135],[10.105,55.145968],[10.126176,55.155],[10.128467,55.16],[10.124271,55.17],[10.11,55.176508]]}},{"type":"Feature","properties":{"depth":5,"source":"DDM 2024 coarse contour","resolution":"0.005 degree sampled grid","scope":"denmark","tileSource":"contours-denmark-coarse.geojson"},"geometry":{"type":"LineString","coordinates":[[9.839389,55.305001],[9.841214,55.3],[9.84,55.294375],[9.835,55.295488],[9.830455,55.29],[9.836346,55.285],[9.835088,55.28],[9.815,55.287981],[9.81,55.293913],[9.799999,55.291076]]}},{"type":"Feature","properties":{"depth":5,"source":"DDM 2024 coarse contour","resolution":"0.005 degree sampled grid","scope":"denmark","tileSource":"contours-denmark-coarse.geojson"},"geometry":{"type":"LineString","coordinates":[[9.799999,55.288443],[9.808387,55.285],[9.811667,55.28],[9.810125,55.265],[9.799999,55.265]]}},{"type":"Feature","properties":{"depth":5,"source":"DDM 2024 coarse contour","resolution":"0.005 degree sampled grid","scope":"denmark","tileSource":"contours-denmark-coarse.geojson"},"geometry":{"type":"LineString","coordinates":[[9.855463,55.305001],[9.855464,55.305],[9.85,55.3],[9.85,55.305001]]}},{"type":"Feature","properties":{"depth":10,"source":"DDM 2024 coarse contour","resolution":"0.005 degree sampled grid","scope":"denmark","tileSource":"contours-denmark-coarse.geojson"},"geometry":{"type":"LineString","coordinates":[[9.857046,55.305001],[9.86058,55.3],[9.847917,55.295],[9.837301,55.28],[9.82375,55.275],[9.8,55.254744],[9.799999,55.254744]]}},{"type":"Feature","properties":{"depth":10,"source":"DDM 2024 coarse contour","resolution":"0.005 degree sampled grid","scope":"denmark","tileSource":"contours-denmark-coarse.geojson"},"geometry":{"type":"LineString","coordinates":[[9.799999,55.080683],[9.8,55.080683],[9.845,55.056765],[9.855,55.06226],[9.87,55.045763],[9.8924,55.035],[9.88619,55.03],[9.965,55.01628],[10,54.990109],[10.068939,54.91],[10.083302,54.875],[10.09728,54.86],[10.095449,54.855],[10.035,54.861379],[10.01,54.853254],[10,54.843412],[9.98,54.846566],[9.96,54.841429],[9.93,54.847222],[9.91,54.858286],[9.8798,54.855],[9.880971,54.865],[9.863531,54.875],[9.863217,54.88],[9.895,54.899968],[9.905,54.899563],[9.92,54.888862],[9.955,54.882188],[9.932711,54.895],[9.8914,54.905],[9.88,54.895063],[9.87,54.8975],[9.83,54.885082],[9.799999,54.889881]]}},{"type":"Feature","properties":{"depth":10,"source":"DDM 2024 coarse contour","resolution":"0.005 degree sampled grid","scope":"denmark","tileSource":"contours-denmark-coarse.geojson"},"geometry":{"type":"LineString","coordinates":[[9.799999,54.833042],[9.895,54.844906],[9.924816,54.829999]]}},{"type":"Feature","properties":{"depth":10,"source":"DDM 2024 coarse contour","resolution":"0.005 degree sampled grid","scope":"denmark","tileSource":"contours-denmark-coarse.geojson"},"geometry":{"type":"LineString","coordinates":[[10.275001,54.891465],[10.234244,54.92],[10.228941,54.925],[10.235517,54.93],[10.231273,54.94],[10.203846,54.96],[10.198041,54.97],[10.205,54.985741],[10.21,54.9875],[10.208462,54.98],[10.225,54.97123],[10.225,54.964757],[10.235,54.956611],[10.259167,54.945],[10.275001,54.943517]]}},{"type":"Feature","properties":{"depth":10,"source":"DDM 2024 coarse contour","resolution":"0.005 degree sampled grid","scope":"denmark","tileSource":"contours-denmark-coarse.geojson"},"geometry":{"type":"LineString","coordinates":[[10.275001,55.015018],[10.255,55.015073],[10.232118,55.025],[10.227078,55.035],[10.25,55.044954],[10.275001,55.029829]]}},{"type":"Feature","properties":{"depth":10,"source":"DDM 2024 coarse contour","resolution":"0.005 degree sampled grid","scope":"denmark","tileSource":"contours-denmark-coarse.geojson"},"geometry":{"type":"LineString","coordinates":[[10.275001,55.048496],[10.245,55.057097],[10.225,55.047441],[10.2,55.057906],[10.182031,55.075],[10.165,55.075029],[10.13,55.086513],[10.08,55.073125],[10.066404,55.075],[10.06,55.08],[10.06344,55.085],[10.06,55.102083],[10.032632,55.11],[10.025,55.116833],[9.995,55.123727],[9.945,55.125],[9.965,55.1335],[9.962656,55.14],[9.975789,55.145],[9.977105,55.15],[9.954902,55.16],[9.95,55.165],[9.954286,55.17],[9.945833,55.175],[9.961111,55.175],[9.963804,55.18],[9.959032,55.19],[9.980577,55.205],[9.965,55.211571],[9.95,55.209778],[9.93,55.215005],[9.905,55.227841],[9.87,55.213684],[9.86,55.22303],[9.848167,55.225],[9.853804,55.235],[9.85,55.241765],[9.835,55.233092],[9.825,55.238125],[9.818448,55.235],[9.811224,55.245],[9.81369,55.25],[9.8335,55.26],[9.829292,55.265],[9.85,55.278939],[9.852551,55.27],[9.8598,55.27],[9.86087,55.28],[9.869,55.29],[9.875,55.286807],[9.881919,55.295],[9.882126,55.305001]]}},{"type":"Feature","properties":{"depth":10,"source":"DDM 2024 coarse contour","resolution":"0.005 degree sampled grid","scope":"denmark","tileSource":"contours-denmark-coarse.geojson"},"geometry":{"type":"LineString","coordinates":[[10.032778,54.845],[10.059667,54.835],[10.065242,54.829999]]}},{"type":"Feature","properties":{"depth":10,"source":"DDM 2024 coarse contour","resolution":"0.005 degree sampled grid","scope":"denmark","tileSource":"contours-denmark-coarse.geojson"},"geometry":{"type":"LineString","coordinates":[[10.004983,54.829999],[10.009667,54.835],[10.0054,54.84],[10.015,54.846353],[10.032778,54.845]]}},{"type":"Feature","properties":{"depth":10,"source":"DDM 2024 coarse contour","resolution":"0.005 degree sampled grid","scope":"denmark","tileSource":"contours-denmark-coarse.geojson"},"geometry":{"type":"LineString","coordinates":[[10.275001,54.849625],[10.26,54.847],[10.257805,54.85],[10.275001,54.85]]}},{"type":"Feature","properties":{"depth":10,"source":"DDM 2024 coarse contour","resolution":"0.005 degree sampled grid","scope":"denmark","tileSource":"contours-denmark-coarse.geojson"},"geometry":{"type":"LineString","coordinates":[[9.850139,54.86],[9.862375,54.855],[9.84,54.851949],[9.837534,54.855],[9.837041,54.86],[9.850139,54.86]]}},{"type":"Feature","properties":{"depth":10,"source":"DDM 2024 coarse contour","resolution":"0.005 degree sampled grid","scope":"denmark","tileSource":"contours-denmark-coarse.geojson"},"geometry":{"type":"LineString","coordinates":[[10.149972,55.065],[10.16,55.053173],[10.19723,55.05],[10.1965,55.035],[10.2,55.030116],[10.215,55.027867],[10.225294,55.01],[10.215,55.007128],[10.19,55.028077],[10.187875,55.02],[10.195,55.009737],[10.18,55.019189],[10.1347,55.025],[10.115,55.04352],[10.095,55.039875],[10.083846,55.045],[10.1,55.049189],[10.105,55.0602],[10.138265,55.065],[10.145,55.069933],[10.149972,55.065]]}},{"type":"Feature","properties":{"depth":10,"source":"DDM 2024 coarse contour","resolution":"0.005 degree sampled grid","scope":"denmark","tileSource":"contours-denmark-coarse.geojson"},"geometry":{"type":"LineString","coordinates":[[9.946348,55.065],[9.967609,55.045],[9.945,55.054041],[9.940273,55.05],[9.942241,55.045],[9.93,55.044311],[9.915,55.054902],[9.906429,55.055],[9.925,55.05275],[9.925455,55.06],[9.946348,55.065]]}},{"type":"Feature","properties":{"depth":10,"source":"DDM 2024 coarse contour","resolution":"0.005 degree sampled grid","scope":"denmark","tileSource":"contours-denmark-coarse.geojson"},"geometry":{"type":"LineString","coordinates":[[9.906094,55.085],[9.895,55.078893],[9.890385,55.085],[9.906094,55.085]]}},{"type":"Feature","properties":{"depth":10,"source":"DDM 2024 coarse contour","resolution":"0.005 degree sampled grid","scope":"denmark","tileSource":"contours-denmark-coarse.geojson"},"geometry":{"type":"LineString","coordinates":[[9.890652,55.125],[9.907614,55.12],[9.900556,55.115],[9.905,55.10875],[9.931081,55.1],[9.908913,55.1],[9.893478,55.11],[9.89,55.12875],[9.890652,55.125]]}},{"type":"Feature","properties":{"depth":10,"source":"DDM 2024 coarse contour","resolution":"0.005 degree sampled grid","scope":"denmark","tileSource":"contours-denmark-coarse.geojson"},"geometry":{"type":"LineString","coordinates":[[10.075,55.109375],[10.060946,55.105],[10.065,55.10125],[10.075,55.103521],[10.075,55.109375]]}},{"type":"Feature","properties":{"depth":10,"source":"DDM 2024 coarse contour","resolution":"0.005 degree sampled grid","scope":"denmark","tileSource":"contours-denmark-coarse.geojson"},"geometry":{"type":"LineString","coordinates":[[10.06,55.125267],[10.049423,55.125],[10.055,55.125],[10.06,55.11413],[10.065,55.12],[10.075,55.1105],[10.07875,55.115],[10.06,55.125267]]}},{"type":"Feature","properties":{"depth":10,"source":"DDM 2024 coarse contour","resolution":"0.005 degree sampled grid","scope":"denmark","tileSource":"contours-denmark-coarse.geojson"},"geometry":{"type":"LineString","coordinates":[[10.115,55.167143],[10.097174,55.15],[10.125,55.159773],[10.115,55.167143]]}},{"type":"Feature","properties":{"depth":10,"source":"DDM 2024 coarse contour","resolution":"0.005 degree sampled grid","scope":"denmark","tileSource":"contours-denmark-coarse.geojson"},"geometry":{"type":"LineString","coordinates":[[9.901765,55.215],[9.913254,55.205],[9.898571,55.195],[9.889268,55.21],[9.895,55.21697],[9.901765,55.215]]}},{"type":"Feature","properties":{"depth":10,"source":"DDM 2024 coarse contour","resolution":"0.005 degree sampled grid","scope":"denmark","tileSource":"contours-denmark-coarse.geojson"},"geometry":{"type":"LineString","coordinates":[[9.822674,55.21],[9.821,55.205],[9.829,55.2],[9.815,55.19973],[9.806607,55.205],[9.815,55.2115],[9.822674,55.21]]}},{"type":"Feature","properties":{"depth":15,"source":"DDM 2024 coarse contour","resolution":"0.005 degree sampled grid","scope":"denmark","tileSource":"contours-denmark-coarse.geojson"},"geometry":{"type":"LineString","coordinates":[[10.275001,54.888756],[10.226,54.925],[10.222174,54.93],[10.229286,54.935],[10.226786,54.94],[10.215,54.950676],[10.208971,54.95],[10.195455,54.975],[10.205,54.995588],[10.21,54.993462],[10.22,54.999167],[10.212371,54.98],[10.225,54.972254],[10.231478,54.96],[10.255,54.947917],[10.275001,54.945293]]}},{"type":"Feature","properties":{"depth":15,"source":"DDM 2024 coarse contour","resolution":"0.005 degree sampled grid","scope":"denmark","tileSource":"contours-denmark-coarse.geojson"},"geometry":{"type":"LineString","coordinates":[[10.275001,55.011952],[10.265,55.012431],[10.23,55.0243],[10.225521,55.02],[10.24,55.009592],[10.235,55.003559],[10.215,55.000161],[10.175,55.01525],[10.14,55.020703],[10.13,55.024914],[10.115,55.040969],[10.087105,55.04],[10.07965,55.045],[10.081897,55.05],[10.095,55.051419],[10.1,55.06],[10.145,55.069957],[10.16,55.054776],[10.195,55.052467],[10.21,55.035909],[10.227069,55.045],[10.2,55.056675],[10.185,55.070208],[10.127879,55.085],[10.08,55.071562],[10.060952,55.075],[10.055745,55.1],[10.03,55.108921],[10.02,55.117186],[9.99,55.122441],[9.965,55.119568],[9.935,55.129409],[9.942073,55.135],[9.94,55.140479],[9.955,55.139737],[9.948281,55.145],[9.963095,55.15],[9.959375,55.155],[9.94,55.165645],[9.927222,55.155],[9.912619,55.155],[9.916923,55.165],[9.94,55.1825],[9.945,55.185],[9.952143,55.18],[9.952596,55.19],[9.970882,55.2],[9.965,55.204286],[9.955,55.202],[9.915,55.216667],[9.923,55.21],[9.9142,55.2],[9.88,55.180625],[9.880294,55.19],[9.891053,55.195],[9.885,55.201],[9.866909,55.19],[9.865,55.181196],[9.847308,55.185],[9.8822,55.205],[9.865,55.208667],[9.86,55.215714],[9.845714,55.215],[9.856818,55.21],[9.853679,55.2],[9.83,55.1935],[9.81,55.196389],[9.799999,55.202564]]}},{"type":"Feature","properties":{"depth":15,"source":"DDM 2024 coarse contour","resolution":"0.005 degree sampled grid","scope":"denmark","tileSource":"contours-denmark-coarse.geojson"},"geometry":{"type":"LineString","coordinates":[[9.799999,55.223221],[9.801979,55.225],[9.799999,55.225894]]}},{"type":"Feature","properties":{"depth":15,"source":"DDM 2024 coarse contour","resolution":"0.005 degree sampled grid","scope":"denmark","tileSource":"contours-denmark-coarse.geojson"},"geometry":{"type":"LineString","coordinates":[[9.799999,55.238231],[9.805,55.240342],[9.81,55.250812],[9.825,55.260614],[9.833495,55.27],[9.83,55.274827],[9.799999,55.253619]]}},{"type":"Feature","properties":{"depth":15,"source":"DDM 2024 coarse contour","resolution":"0.005 degree sampled grid","scope":"denmark","tileSource":"contours-denmark-coarse.geojson"},"geometry":{"type":"LineString","coordinates":[[9.799999,55.082107],[9.809687,55.08],[9.83,55.069615],[9.86,55.06595],[9.858705,55.06],[9.87,55.047881],[9.901054,55.035],[9.893103,55.03],[9.965,55.017133],[10,54.992826],[10.074674,54.91],[10.075606,54.895],[10.09928,54.86],[10.095,54.850915],[10.07,54.856382],[10.021429,54.85],[10.07,54.83475],[10.08,54.838],[10.0875,54.83],[10.0875,54.829999]]}},{"type":"Feature","properties":{"depth":15,"source":"DDM 2024 coarse contour","resolution":"0.005 degree sampled grid","scope":"denmark","tileSource":"contours-denmark-coarse.geojson"},"geometry":{"type":"LineString","coordinates":[[9.799999,54.846345],[9.801842,54.845],[9.799999,54.843925]]}},{"type":"Feature","properties":{"depth":15,"source":"DDM 2024 coarse contour","resolution":"0.005 degree sampled grid","scope":"denmark","tileSource":"contours-denmark-coarse.geojson"},"geometry":{"type":"LineString","coordinates":[[9.799999,54.833066],[9.895,54.84493],[9.924864,54.829999]]}},{"type":"Feature","properties":{"depth":15,"source":"DDM 2024 coarse contour","resolution":"0.005 degree sampled grid","scope":"denmark","tileSource":"contours-denmark-coarse.geojson"},"geometry":{"type":"LineString","coordinates":[[9.990988,54.829999],[9.999444,54.835],[10,54.840471],[9.98,54.841923],[9.96,54.836481],[9.905,54.856512],[9.85,54.851262],[9.833,54.845],[9.835,54.861111],[9.875,54.857955],[9.877973,54.865],[9.861783,54.875],[9.861279,54.88],[9.886437,54.895],[9.885,54.899098],[9.83,54.885058],[9.799999,54.888003]]}},{"type":"Feature","properties":{"depth":15,"source":"DDM 2024 coarse contour","resolution":"0.005 degree sampled grid","scope":"denmark","tileSource":"contours-denmark-coarse.geojson"},"geometry":{"type":"LineString","coordinates":[[10.275001,54.84128],[10.247755,54.845],[10.26,54.856038],[10.27,54.854621],[10.275001,54.856773]]}},{"type":"Feature","properties":{"depth":15,"source":"DDM 2024 coarse contour","resolution":"0.005 degree sampled grid","scope":"denmark","tileSource":"contours-denmark-coarse.geojson"},"geometry":{"type":"LineString","coordinates":[[10.275001,54.979436],[10.273797,54.98],[10.275,54.993712],[10.275001,54.993713]]}},{"type":"Feature","properties":{"depth":15,"source":"DDM 2024 coarse contour","resolution":"0.005 degree sampled grid","scope":"denmark","tileSource":"contours-denmark-coarse.geojson"},"geometry":{"type":"LineString","coordinates":[[10.22,55.033712],[10.216343,55.03],[10.225,55.02102],[10.228679,55.025],[10.225,55.028679],[10.22,55.025],[10.223889,55.03],[10.22,55.033712]]}},{"type":"Feature","properties":{"depth":15,"source":"DDM 2024 coarse contour","resolution":"0.005 degree sampled grid","scope":"denmark","tileSource":"contours-denmark-coarse.geojson"},"geometry":{"type":"LineString","coordinates":[[9.948522,55.065],[9.995544,55.035],[9.95,55.048811],[9.945,55.042258],[9.93,55.043036],[9.902755,55.055],[9.93,55.065372],[9.948522,55.065]]}},{"type":"Feature","properties":{"depth":15,"source":"DDM 2024 coarse contour","resolution":"0.005 degree sampled grid","scope":"denmark","tileSource":"contours-denmark-coarse.geojson"},"geometry":{"type":"LineString","coordinates":[[10.27,55.050223],[10.245,55.053514],[10.231518,55.045],[10.265,55.039697],[10.275001,55.041099]]}},{"type":"Feature","properties":{"depth":15,"source":"DDM 2024 coarse contour","resolution":"0.005 degree sampled grid","scope":"denmark","tileSource":"contours-denmark-coarse.geojson"},"geometry":{"type":"LineString","coordinates":[[10.275001,55.047648],[10.27,55.050223]]}},{"type":"Feature","properties":{"depth":15,"source":"DDM 2024 coarse contour","resolution":"0.005 degree sampled grid","scope":"denmark","tileSource":"contours-denmark-coarse.geojson"},"geometry":{"type":"LineString","coordinates":[[9.907396,55.085],[9.9,55.076092],[9.89,55.080948],[9.874412,55.08],[9.8784,55.085],[9.9,55.089864],[9.907396,55.085]]}},{"type":"Feature","properties":{"depth":15,"source":"DDM 2024 coarse contour","resolution":"0.005 degree sampled grid","scope":"denmark","tileSource":"contours-denmark-coarse.geojson"},"geometry":{"type":"LineString","coordinates":[[9.849444,55.1],[9.85,55.094146],[9.843933,55.1],[9.849444,55.1]]}},{"type":"Feature","properties":{"depth":15,"source":"DDM 2024 coarse contour","resolution":"0.005 degree sampled grid","scope":"denmark","tileSource":"contours-denmark-coarse.geojson"},"geometry":{"type":"LineString","coordinates":[[9.886429,55.135],[9.9,55.123611],[9.915039,55.12],[9.916071,55.115],[9.91,55.11852],[9.902692,55.115],[9.91,55.10808],[9.936071,55.1],[9.92,55.092898],[9.89875,55.105],[9.893429,55.1],[9.898261,55.095],[9.895,55.093235],[9.875,55.094296],[9.875,55.103125],[9.886909,55.11],[9.886429,55.135]]}},{"type":"Feature","properties":{"depth":15,"source":"DDM 2024 coarse contour","resolution":"0.005 degree sampled grid","scope":"denmark","tileSource":"contours-denmark-coarse.geojson"},"geometry":{"type":"LineString","coordinates":[[9.845,55.214211],[9.838,55.205],[9.846979,55.205],[9.845,55.214211]]}},{"type":"Feature","properties":{"depth":15,"source":"DDM 2024 coarse contour","resolution":"0.005 degree sampled grid","scope":"denmark","tileSource":"contours-denmark-coarse.geojson"},"geometry":{"type":"LineString","coordinates":[[9.81,55.242077],[9.805781,55.24],[9.805,55.227636],[9.81,55.224636],[9.824444,55.23],[9.815,55.231939],[9.81,55.242077]]}},{"type":"Feature","properties":{"depth":15,"source":"DDM 2024 coarse contour","resolution":"0.005 degree sampled grid","scope":"denmark","tileSource":"contours-denmark-coarse.geojson"},"geometry":{"type":"LineString","coordinates":[[9.863469,55.305001],[9.862813,55.3],[9.845693,55.285],[9.85,55.280991],[9.87,55.294236],[9.875,55.289819],[9.878372,55.305001]]}},{"type":"Feature","properties":{"depth":20,"source":"DDM 2024 coarse contour","resolution":"0.005 degree sampled grid","scope":"denmark","tileSource":"contours-denmark-coarse.geojson"},"geometry":{"type":"LineString","coordinates":[[10.275001,54.836296],[10.245,54.84283],[10.239935,54.85],[10.245,54.855294],[10.275,54.8661],[10.275001,54.8661]]}},{"type":"Feature","properties":{"depth":20,"source":"DDM 2024 coarse contour","resolution":"0.005 degree sampled grid","scope":"denmark","tileSource":"contours-denmark-coarse.geojson"},"geometry":{"type":"LineString","coordinates":[[10.275001,54.887044],[10.25,54.898913],[10.216774,54.93],[10.219583,54.94],[10.207132,54.95],[10.191393,54.975],[10.195,54.991667],[10.176081,55.01],[10.145,55.015347],[10.115,55.038385],[10.09,55.037235],[10.077902,55.045],[10.08,55.051842],[10.095,55.054797],[10.1,55.062358],[10.12,55.064966],[10.13,55.0718],[10.15,55.068284],[10.155,55.059864],[10.167308,55.065],[10.145385,55.08],[10.125,55.082905],[10.12,55.077113],[10.08,55.07],[10.06,55.07322],[10.052014,55.1],[10.03,55.107122],[10.02,55.11582],[9.945,55.121815],[9.929579,55.135],[9.944231,55.15],[9.905,55.153871],[9.9,55.146667],[9.889211,55.145],[9.920825,55.14],[9.9,55.135727],[9.897231,55.13],[9.922545,55.115],[9.911346,55.11],[9.938622,55.1],[9.925,55.088542],[9.91,55.094217],[9.905582,55.09],[9.91029,55.08],[9.905,55.073942],[9.865,55.07793],[9.860496,55.075],[9.865423,55.07],[9.860847,55.06],[9.87,55.05],[9.9,55.037094],[9.900484,55.03],[9.965,55.017986],[9.995,54.999925],[10.01875,54.98],[10.037788,54.95],[10.065,54.922157],[10.080085,54.915],[10.076129,54.9],[10.10129,54.86],[10.099111,54.85],[10.092222,54.845],[10.1,54.84375],[10.104516,54.83],[10.104514,54.829999]]}},{"type":"Feature","properties":{"depth":20,"source":"DDM 2024 coarse contour","resolution":"0.005 degree sampled grid","scope":"denmark","tileSource":"contours-denmark-coarse.geojson"},"geometry":{"type":"LineString","coordinates":[[9.799999,54.848893],[9.805642,54.845],[9.799999,54.841914]]}},{"type":"Feature","properties":{"depth":20,"source":"DDM 2024 coarse contour","resolution":"0.005 degree sampled grid","scope":"denmark","tileSource":"contours-denmark-coarse.geojson"},"geometry":{"type":"LineString","coordinates":[[9.799999,54.833091],[9.895,54.844955],[9.922778,54.829999]]}},{"type":"Feature","properties":{"depth":20,"source":"DDM 2024 coarse contour","resolution":"0.005 degree sampled grid","scope":"denmark","tileSource":"contours-denmark-coarse.geojson"},"geometry":{"type":"LineString","coordinates":[[9.965,54.829999],[9.965,54.83],[9.905,54.853854],[9.87,54.851825],[9.84,54.842689],[9.829214,54.845],[9.829,54.855],[9.835,54.862963],[9.871522,54.86],[9.874167,54.865],[9.870375,54.87],[9.853841,54.88],[9.871867,54.885],[9.885,54.895],[9.83,54.885034],[9.80525,54.89],[9.799999,54.888978]]}},{"type":"Feature","properties":{"depth":20,"source":"DDM 2024 coarse contour","resolution":"0.005 degree sampled grid","scope":"denmark","tileSource":"contours-denmark-coarse.geojson"},"geometry":{"type":"LineString","coordinates":[[10.255,55.015024],[10.242308,55.015],[10.240379,55.005],[10.217076,54.99],[10.214948,54.98],[10.235,54.958703],[10.255,54.949306],[10.275001,54.949241]]}},{"type":"Feature","properties":{"depth":20,"source":"DDM 2024 coarse contour","resolution":"0.005 degree sampled grid","scope":"denmark","tileSource":"contours-denmark-coarse.geojson"},"geometry":{"type":"LineString","coordinates":[[10.275001,54.977942],[10.270633,54.98],[10.264712,54.985],[10.272105,54.995],[10.275001,54.996146]]}},{"type":"Feature","properties":{"depth":20,"source":"DDM 2024 coarse contour","resolution":"0.005 degree sampled grid","scope":"denmark","tileSource":"contours-denmark-coarse.geojson"},"geometry":{"type":"LineString","coordinates":[[10.275001,55.010292],[10.255,55.015024]]}},{"type":"Feature","properties":{"depth":20,"source":"DDM 2024 coarse contour","resolution":"0.005 degree sampled grid","scope":"denmark","tileSource":"contours-denmark-coarse.geojson"},"geometry":{"type":"LineString","coordinates":[[9.799999,55.082557],[9.83,55.074],[9.855,55.071143],[9.859091,55.075],[9.840476,55.105],[9.859286,55.115],[9.842,55.12],[9.858846,55.125],[9.842955,55.13],[9.865,55.132879],[9.87,55.11725],[9.885,55.118646],[9.8775,55.125],[9.880921,55.13],[9.875,55.147857],[9.895,55.150437],[9.935,55.185714],[9.92,55.195435],[9.875,55.172632],[9.86,55.17561],[9.85,55.172045],[9.846905,55.175],[9.85,55.180169],[9.83,55.177576],[9.8268,55.18],[9.83,55.189286],[9.799999,55.196996]]}},{"type":"Feature","properties":{"depth":20,"source":"DDM 2024 coarse contour","resolution":"0.005 degree sampled grid","scope":"denmark","tileSource":"contours-denmark-coarse.geojson"},"geometry":{"type":"LineString","coordinates":[[9.950851,55.065],[9.99,55.043514],[9.997245,55.035],[9.984167,55.035],[9.955,55.046809],[9.947937,55.045],[9.95,55.038536],[9.94,55.039472],[9.900204,55.055],[9.904273,55.06],[9.93,55.067061],[9.950851,55.065]]}},{"type":"Feature","properties":{"depth":20,"source":"DDM 2024 coarse contour","resolution":"0.005 degree sampled grid","scope":"denmark","tileSource":"contours-denmark-coarse.geojson"},"geometry":{"type":"LineString","coordinates":[[10.205,55.055126],[10.19,55.059533],[10.170937,55.055],[10.2,55.052805],[10.205,55.047602],[10.209275,55.05],[10.205,55.055126]]}},{"type":"Feature","properties":{"depth":20,"source":"DDM 2024 coarse contour","resolution":"0.005 degree sampled grid","scope":"denmark","tileSource":"contours-denmark-coarse.geojson"},"geometry":{"type":"LineString","coordinates":[[9.86,55.101863],[9.854898,55.1],[9.861944,55.085],[9.895481,55.09],[9.875,55.090775],[9.86,55.101863]]}},{"type":"Feature","properties":{"depth":20,"source":"DDM 2024 coarse contour","resolution":"0.005 degree sampled grid","scope":"denmark","tileSource":"contours-denmark-coarse.geojson"},"geometry":{"type":"LineString","coordinates":[[9.81,55.258077],[9.799999,55.25001]]}},{"type":"Feature","properties":{"depth":20,"source":"DDM 2024 coarse contour","resolution":"0.005 degree sampled grid","scope":"denmark","tileSource":"contours-denmark-coarse.geojson"},"geometry":{"type":"LineString","coordinates":[[9.799999,55.244317],[9.805,55.243767],[9.812222,55.255],[9.81,55.258077]]}},{"type":"Feature","properties":{"depth":20,"source":"DDM 2024 coarse contour","resolution":"0.005 degree sampled grid","scope":"denmark","tileSource":"contours-denmark-coarse.geojson"},"geometry":{"type":"LineString","coordinates":[[9.83,55.273589],[9.810943,55.26],[9.815,55.256587],[9.825,55.262076],[9.832599,55.27],[9.83,55.273589]]}},{"type":"Feature","properties":{"depth":30,"source":"DDM 2024 coarse contour","resolution":"0.005 degree sampled grid","scope":"denmark","tileSource":"contours-denmark-coarse.geojson"},"geometry":{"type":"LineString","coordinates":[[9.87,55.07553],[9.864628,55.075],[9.869269,55.07],[9.864879,55.06],[9.886897,55.045],[9.916379,55.03],[9.955,55.022971],[10,55.005417],[10.025,54.987692],[10.039571,54.965],[10.048182,54.96],[10.057576,54.94],[10.087676,54.91],[10.085781,54.895],[10.095,54.877917],[10.12,54.88],[10.148333,54.865],[10.15,54.857368],[10.160556,54.855],[10.16,54.84],[10.17,54.83],[10.155,54.8375],[10.15,54.8375],[10.148909,54.83],[10.14891,54.829999]]}},{"type":"Feature","properties":{"depth":30,"source":"DDM 2024 coarse contour","resolution":"0.005 degree sampled grid","scope":"denmark","tileSource":"contours-denmark-coarse.geojson"},"geometry":{"type":"LineString","coordinates":[[10.17,54.829999],[10.17,54.83],[10.170002,54.829999]]}},{"type":"Feature","properties":{"depth":30,"source":"DDM 2024 coarse contour","resolution":"0.005 degree sampled grid","scope":"denmark","tileSource":"contours-denmark-coarse.geojson"},"geometry":{"type":"LineString","coordinates":[[10.17941,54.829999],[10.19,54.836],[10.208465,54.829999]]}},{"type":"Feature","properties":{"depth":30,"source":"DDM 2024 coarse contour","resolution":"0.005 degree sampled grid","scope":"denmark","tileSource":"contours-denmark-coarse.geojson"},"geometry":{"type":"LineString","coordinates":[[10.262363,54.829999],[10.254722,54.835],[10.24,54.837317],[10.2325,54.845],[10.230769,54.855],[10.223571,54.86],[10.214,54.88],[10.231923,54.895],[10.222727,54.91],[10.225,54.915],[10.21,54.924268],[10.197368,54.94],[10.200227,54.95],[10.190204,54.97],[10.16,55.007625],[10.145,55.011655],[10.115,55.03093],[10.08,55.038158],[10.06,55.061538],[10.02,55.07],[9.985,55.066818],[9.95,55.074565],[9.9465,55.07],[9.997426,55.045],[10.002209,55.035],[10,55.03025],[9.99,55.028361],[9.96625,55.035],[9.965,55.040093],[9.959804,55.04],[9.9625,55.035],[9.955,55.034667],[9.92,55.041716],[9.893068,55.055],[9.894242,55.065],[9.87,55.07553]]}},{"type":"Feature","properties":{"depth":30,"source":"DDM 2024 coarse contour","resolution":"0.005 degree sampled grid","scope":"denmark","tileSource":"contours-denmark-coarse.geojson"},"geometry":{"type":"LineString","coordinates":[[10.13,54.836607],[10.125,54.834],[10.125,54.829999]]}},{"type":"Feature","properties":{"depth":30,"source":"DDM 2024 coarse contour","resolution":"0.005 degree sampled grid","scope":"denmark","tileSource":"contours-denmark-coarse.geojson"},"geometry":{"type":"LineString","coordinates":[[10.133076,54.829999],[10.133077,54.83],[10.13,54.836607]]}},{"type":"Feature","properties":{"depth":30,"source":"DDM 2024 coarse contour","resolution":"0.005 degree sampled grid","scope":"denmark","tileSource":"contours-denmark-coarse.geojson"},"geometry":{"type":"LineString","coordinates":[[9.81,54.855313],[9.81,54.845735],[9.81694,54.85],[9.81,54.855313]]}},{"type":"Feature","properties":{"depth":30,"source":"DDM 2024 coarse contour","resolution":"0.005 degree sampled grid","scope":"denmark","tileSource":"contours-denmark-coarse.geojson"},"geometry":{"type":"LineString","coordinates":[[9.86,54.886118],[9.843519,54.885],[9.863519,54.885],[9.86,54.886118]]}},{"type":"Feature","properties":{"depth":30,"source":"DDM 2024 coarse contour","resolution":"0.005 degree sampled grid","scope":"denmark","tileSource":"contours-denmark-coarse.geojson"},"geometry":{"type":"LineString","coordinates":[[10.24,55.0008],[10.22,54.99],[10.21864,54.98],[10.24,54.963571],[10.239,54.98],[10.250818,54.985],[10.24,55.0008]]}},{"type":"Feature","properties":{"depth":30,"source":"DDM 2024 coarse contour","resolution":"0.005 degree sampled grid","scope":"denmark","tileSource":"contours-denmark-coarse.geojson"},"geometry":{"type":"LineString","coordinates":[[10.265,54.980231],[10.255556,54.98],[10.275,54.97123],[10.275001,54.971232]]}},{"type":"Feature","properties":{"depth":30,"source":"DDM 2024 coarse contour","resolution":"0.005 degree sampled grid","scope":"denmark","tileSource":"contours-denmark-coarse.geojson"},"geometry":{"type":"LineString","coordinates":[[10.275001,54.975781],[10.265,54.980231]]}},{"type":"Feature","properties":{"depth":30,"source":"DDM 2024 coarse contour","resolution":"0.005 degree sampled grid","scope":"denmark","tileSource":"contours-denmark-coarse.geojson"},"geometry":{"type":"LineString","coordinates":[[9.91,55.068235],[9.898571,55.065],[9.91385,55.065],[9.91,55.068235]]}},{"type":"Feature","properties":{"depth":30,"source":"DDM 2024 coarse contour","resolution":"0.005 degree sampled grid","scope":"denmark","tileSource":"contours-denmark-coarse.geojson"},"geometry":{"type":"LineString","coordinates":[[9.92,55.135357],[9.91625,55.13],[9.923333,55.125],[9.924091,55.135],[9.92,55.135357]]}}]}