{"type":"FeatureCollection","name":"DDM contour tile r02_c05","bbox":[9.8,55.31,10.275,55.785],"metadata":{"schema":"waternav-ddm-contour-tile-v1","version":"v45.8","tileId":"r02_c05","source":"Danmarks Dybdemodel 2024 ddm_50m.dybde.tiff via bundled DDM contour GeoJSON files"},"features":[{"type":"Feature","properties":{"depth":1,"source":"DDM 2024 coarse contour","resolution":"0.005 degree sampled grid","scope":"denmark","tileSource":"contours-denmark-coarse.geojson"},"geometry":{"type":"LineString","coordinates":[[10.032483,55.785001],[10.02,55.780001],[10.019989,55.765],[10.025,55.759998],[10.05,55.759971],[10.055,55.755556],[10.075,55.754992],[10.08119,55.75],[10.080556,55.745],[10.055,55.745012],[10.035,55.730023],[10.005,55.730008],[9.999992,55.725],[9.999999,55.72],[10.015,55.719959],[10.024993,55.71],[10.024996,55.705],[10.029998,55.7],[10.025,55.695023],[10.018333,55.7],[10.0005,55.7],[9.995,55.695018],[9.96,55.695002],[9.955,55.690034],[9.905,55.690003],[9.9,55.685031],[9.875,55.685002],[9.87,55.680044],[9.86,55.680004],[9.845,55.670052],[9.83,55.669932],[9.825,55.665067],[9.82,55.665067],[9.81,55.675025],[9.799999,55.675034]]}},{"type":"Feature","properties":{"depth":1,"source":"DDM 2024 coarse contour","resolution":"0.005 degree sampled grid","scope":"denmark","tileSource":"contours-denmark-coarse.geojson"},"geometry":{"type":"LineString","coordinates":[[9.799999,55.629966],[9.84,55.629971],[9.845,55.625533],[9.85,55.629958],[9.855,55.629949],[9.859998,55.625],[9.85,55.615008],[9.845,55.615004],[9.84,55.610016],[9.8308,55.61],[9.82,55.600032],[9.799999,55.596006]]}},{"type":"Feature","properties":{"depth":1,"source":"DDM 2024 coarse contour","resolution":"0.005 degree sampled grid","scope":"denmark","tileSource":"contours-denmark-coarse.geojson"},"geometry":{"type":"LineString","coordinates":[[10.245,55.63],[10.26,55.625682],[10.275,55.627857],[10.275001,55.627857]]}},{"type":"Feature","properties":{"depth":1,"source":"DDM 2024 coarse contour","resolution":"0.005 degree sampled grid","scope":"denmark","tileSource":"contours-denmark-coarse.geojson"},"geometry":{"type":"LineString","coordinates":[[9.890007,55.309999],[9.890007,55.31],[9.875005,55.33],[9.870011,55.345],[9.865,55.3497],[9.825,55.350054],[9.82,55.355],[9.805,55.355061],[9.8,55.360006],[9.799999,55.360006]]}},{"type":"Feature","properties":{"depth":1,"source":"DDM 2024 coarse contour","resolution":"0.005 degree sampled grid","scope":"denmark","tileSource":"contours-denmark-coarse.geojson"},"geometry":{"type":"LineString","coordinates":[[9.799999,55.380343],[9.83,55.381429],[9.839683,55.39],[9.835,55.390029],[9.815,55.40501],[9.8,55.405016],[9.799999,55.405016]]}},{"type":"Feature","properties":{"depth":1,"source":"DDM 2024 coarse contour","resolution":"0.005 degree sampled grid","scope":"denmark","tileSource":"contours-denmark-coarse.geojson"},"geometry":{"type":"LineString","coordinates":[[9.799999,55.419956],[9.8,55.419956],[9.805,55.415272],[9.822143,55.415],[9.82501,55.42],[9.82,55.425001],[9.805,55.425032],[9.8,55.430001],[9.799999,55.430001]]}},{"type":"Feature","properties":{"depth":1,"source":"DDM 2024 coarse contour","resolution":"0.005 degree sampled grid","scope":"denmark","tileSource":"contours-denmark-coarse.geojson"},"geometry":{"type":"LineString","coordinates":[[9.799999,55.440612],[9.8,55.440612],[9.804886,55.445],[9.8,55.45],[9.799999,55.45]]}},{"type":"Feature","properties":{"depth":1,"source":"DDM 2024 coarse contour","resolution":"0.005 degree sampled grid","scope":"denmark","tileSource":"contours-denmark-coarse.geojson"},"geometry":{"type":"LineString","coordinates":[[9.799999,55.554917],[9.8,55.554918],[9.845,55.55499],[9.854992,55.545],[9.850909,55.535],[9.850918,55.525],[9.865,55.515577],[9.89,55.514986],[9.895,55.511379],[9.9,55.514989],[9.905,55.51125],[9.915,55.511111],[9.925,55.514988],[9.945,55.515],[9.99,55.539992],[10.021667,55.55],[10.023125,55.56],[10.03,55.566346],[10.04,55.565278],[10.045,55.560921],[10.055,55.564992],[10.067667,55.565],[10.085,55.571094],[10.1,55.587353],[10.115,55.590909],[10.12,55.587083],[10.133,55.595],[10.135385,55.595],[10.136875,55.585],[10.14,55.5825],[10.15,55.587647],[10.172,55.59],[10.155,55.599565],[10.143611,55.6],[10.144643,55.605],[10.16,55.609995],[10.17,55.607174],[10.18,55.614998],[10.21,55.606429],[10.225,55.606111],[10.247,55.615],[10.2388,55.625],[10.24,55.63],[10.245,55.63]]}},{"type":"Feature","properties":{"depth":1,"source":"DDM 2024 coarse contour","resolution":"0.005 degree sampled grid","scope":"denmark","tileSource":"contours-denmark-coarse.geojson"},"geometry":{"type":"LineString","coordinates":[[9.799999,55.329993],[9.8,55.329994],[9.81,55.325875],[9.82,55.329995],[9.828333,55.325],[9.831583,55.309999]]}},{"type":"Feature","properties":{"depth":1,"source":"DDM 2024 coarse contour","resolution":"0.005 degree sampled grid","scope":"denmark","tileSource":"contours-denmark-coarse.geojson"},"geometry":{"type":"LineString","coordinates":[[9.815,55.440008],[9.805,55.44],[9.812,55.435],[9.82,55.435],[9.818077,55.44],[9.815,55.440008]]}},{"type":"Feature","properties":{"depth":1,"source":"DDM 2024 coarse contour","resolution":"0.005 degree sampled grid","scope":"denmark","tileSource":"contours-denmark-coarse.geojson"},"geometry":{"type":"LineString","coordinates":[[10.18,55.645],[10.19,55.644992],[10.194987,55.64],[10.18,55.625021],[10.160015,55.64],[10.160007,55.645],[10.165,55.64999],[10.175,55.649982],[10.18,55.645]]}},{"type":"Feature","properties":{"depth":1,"source":"DDM 2024 coarse contour","resolution":"0.005 degree sampled grid","scope":"denmark","tileSource":"contours-denmark-coarse.geojson"},"geometry":{"type":"LineString","coordinates":[[10.275001,55.745002],[10.24,55.745007],[10.230012,55.755],[10.245,55.766923],[10.27,55.764988],[10.275,55.762],[10.275001,55.762001]]}},{"type":"Feature","properties":{"depth":1,"source":"DDM 2024 coarse contour","resolution":"0.005 degree sampled grid","scope":"denmark","tileSource":"contours-denmark-coarse.geojson"},"geometry":{"type":"LineString","coordinates":[[10.275001,55.769999],[10.275,55.77],[10.275001,55.77]]}},{"type":"Feature","properties":{"depth":1,"source":"DDM 2024 coarse contour","resolution":"0.005 degree sampled grid","scope":"denmark","tileSource":"contours-denmark-coarse.geojson"},"geometry":{"type":"LineString","coordinates":[[10.23875,55.775],[10.23,55.7725],[10.225,55.775],[10.21,55.769],[10.207273,55.775],[10.215,55.7775],[10.23875,55.775]]}},{"type":"Feature","properties":{"depth":2,"source":"DDM 2024 coarse contour","resolution":"0.005 degree sampled grid","scope":"denmark","tileSource":"contours-denmark-coarse.geojson"},"geometry":{"type":"LineString","coordinates":[[10.03319,55.785001],[10.02,55.779407],[10.019994,55.765],[10.025,55.760556],[10.05,55.759976],[10.055,55.756173],[10.075,55.754997],[10.083571,55.75],[10.083333,55.745],[10.08,55.744241],[10.055,55.745007],[10.035,55.730018],[10.005,55.730003],[9.999997,55.725],[10.001026,55.72],[10.015,55.719964],[10.024998,55.71],[10.025,55.705833],[10.035,55.697917],[10.035,55.693654],[10.03,55.697727],[10.025,55.695018],[10.01625,55.7],[10.002167,55.7],[9.995,55.695013],[9.96,55.69461],[9.955,55.690029],[9.905,55.689779],[9.9,55.685026],[9.875,55.68472],[9.87,55.680039],[9.860233,55.68],[9.845,55.670047],[9.83,55.669592],[9.825,55.665062],[9.82,55.665062],[9.81,55.67502],[9.799999,55.675029]]}},{"type":"Feature","properties":{"depth":2,"source":"DDM 2024 coarse contour","resolution":"0.005 degree sampled grid","scope":"denmark","tileSource":"contours-denmark-coarse.geojson"},"geometry":{"type":"LineString","coordinates":[[9.799999,55.630087],[9.815,55.630263],[9.84,55.629976],[9.845,55.6262],[9.855,55.629954],[9.863333,55.625],[9.84,55.610011],[9.8318,55.61],[9.82,55.600027],[9.810909,55.6],[9.805,55.595011],[9.799999,55.595003]]}},{"type":"Feature","properties":{"depth":2,"source":"DDM 2024 coarse contour","resolution":"0.005 degree sampled grid","scope":"denmark","tileSource":"contours-denmark-coarse.geojson"},"geometry":{"type":"LineString","coordinates":[[9.890002,55.309999],[9.890002,55.31],[9.875,55.33],[9.870006,55.345],[9.865,55.3487],[9.825,55.350049],[9.82,55.354653],[9.805,55.355056],[9.8,55.360001],[9.799999,55.360001]]}},{"type":"Feature","properties":{"depth":2,"source":"DDM 2024 coarse contour","resolution":"0.005 degree sampled grid","scope":"denmark","tileSource":"contours-denmark-coarse.geojson"},"geometry":{"type":"LineString","coordinates":[[9.799999,55.379991],[9.818276,55.38],[9.835,55.385377],[9.838889,55.39],[9.825,55.395769],[9.815,55.405005],[9.8,55.405011],[9.799999,55.405011]]}},{"type":"Feature","properties":{"depth":2,"source":"DDM 2024 coarse contour","resolution":"0.005 degree sampled grid","scope":"denmark","tileSource":"contours-denmark-coarse.geojson"},"geometry":{"type":"LineString","coordinates":[[9.799999,55.41884],[9.817143,55.415],[9.825005,55.42],[9.82,55.42442],[9.805,55.425027],[9.799999,55.428757]]}},{"type":"Feature","properties":{"depth":2,"source":"DDM 2024 coarse contour","resolution":"0.005 degree sampled grid","scope":"denmark","tileSource":"contours-denmark-coarse.geojson"},"geometry":{"type":"LineString","coordinates":[[9.799999,55.443533],[9.80375,55.445],[9.8,55.448929],[9.799999,55.448929]]}},{"type":"Feature","properties":{"depth":2,"source":"DDM 2024 coarse contour","resolution":"0.005 degree sampled grid","scope":"denmark","tileSource":"contours-denmark-coarse.geojson"},"geometry":{"type":"LineString","coordinates":[[9.799999,55.554922],[9.8,55.554923],[9.83,55.557065],[9.845,55.554995],[9.854997,55.545],[9.851939,55.525],[9.865,55.516218],[9.895,55.513103],[9.9,55.514994],[9.905,55.5125],[9.943448,55.515],[9.995,55.5425],[10.016667,55.55],[10.021667,55.555],[10.02,55.562273],[10.025,55.566944],[10.045,55.57],[10.041719,55.565],[10.045,55.562237],[10.0625,55.565],[10.058333,55.57],[10.067857,55.575],[10.075,55.570652],[10.085,55.572656],[10.1,55.5905],[10.11,55.591],[10.12,55.595926],[10.125,55.593438],[10.13,55.597917],[10.145,55.587609],[10.15,55.590417],[10.168824,55.59],[10.155,55.598478],[10.140833,55.6],[10.141071,55.605],[10.145,55.608438],[10.17,55.609348],[10.1785,55.615],[10.18,55.62125],[10.185,55.615781],[10.205,55.612353],[10.21,55.608214],[10.225,55.6075],[10.244355,55.615],[10.2368,55.625],[10.24,55.631],[10.26,55.627955],[10.275001,55.629282]]}},{"type":"Feature","properties":{"depth":2,"source":"DDM 2024 coarse contour","resolution":"0.005 degree sampled grid","scope":"denmark","tileSource":"contours-denmark-coarse.geojson"},"geometry":{"type":"LineString","coordinates":[[9.82,55.33],[9.830349,55.325],[9.832073,55.31],[9.832073,55.309999]]}},{"type":"Feature","properties":{"depth":2,"source":"DDM 2024 coarse contour","resolution":"0.005 degree sampled grid","scope":"denmark","tileSource":"contours-denmark-coarse.geojson"},"geometry":{"type":"LineString","coordinates":[[9.799999,55.328486],[9.81,55.327125],[9.82,55.33]]}},{"type":"Feature","properties":{"depth":2,"source":"DDM 2024 coarse contour","resolution":"0.005 degree sampled grid","scope":"denmark","tileSource":"contours-denmark-coarse.geojson"},"geometry":{"type":"LineString","coordinates":[[10.182273,55.645],[10.19,55.644997],[10.194992,55.64],[10.18,55.625016],[10.16001,55.64],[10.160002,55.645],[10.165,55.649995],[10.175,55.649987],[10.182273,55.645]]}},{"type":"Feature","properties":{"depth":2,"source":"DDM 2024 coarse contour","resolution":"0.005 degree sampled grid","scope":"denmark","tileSource":"contours-denmark-coarse.geojson"},"geometry":{"type":"LineString","coordinates":[[10.275001,55.745001],[10.24,55.745002],[10.230007,55.755],[10.237639,55.76],[10.235,55.768125],[10.225,55.773214],[10.21,55.7665],[10.200833,55.775],[10.213788,55.785001]]}},{"type":"Feature","properties":{"depth":2,"source":"DDM 2024 coarse contour","resolution":"0.005 degree sampled grid","scope":"denmark","tileSource":"contours-denmark-coarse.geojson"},"geometry":{"type":"LineString","coordinates":[[10.216198,55.785001],[10.225,55.778125],[10.24,55.776957],[10.245588,55.77],[10.255417,55.765],[10.275,55.764],[10.270833,55.77],[10.275001,55.771471]]}},{"type":"Feature","properties":{"depth":3,"source":"DDM 2024 coarse contour","resolution":"0.005 degree sampled grid","scope":"denmark","tileSource":"contours-denmark-coarse.geojson"},"geometry":{"type":"LineString","coordinates":[[10.03407,55.785001],[10.02,55.778559],[10.019999,55.765],[10.025,55.761667],[10.075,55.755227],[10.090556,55.745],[10.055,55.745002],[10.035,55.730013],[10.005,55.729636],[10.000364,55.725],[10.002308,55.72],[10.015,55.719969],[10.025,55.71049],[10.03,55.715725],[10.034167,55.715],[10.03125,55.71],[10.039474,55.695],[10.035,55.691731],[10.015,55.699744],[10.003833,55.7],[9.995,55.695008],[9.96,55.693961],[9.955,55.690024],[9.911667,55.69],[9.9,55.685021],[9.875,55.684252],[9.845,55.670043],[9.83,55.669252],[9.82,55.665057],[9.81,55.675015],[9.799999,55.675024]]}},{"type":"Feature","properties":{"depth":3,"source":"DDM 2024 coarse contour","resolution":"0.005 degree sampled grid","scope":"denmark","tileSource":"contours-denmark-coarse.geojson"},"geometry":{"type":"LineString","coordinates":[[9.799999,55.630266],[9.815,55.630702],[9.84,55.629981],[9.845,55.626867],[9.855,55.629959],[9.86,55.625769],[9.865,55.628889],[9.868889,55.625],[9.84,55.610006],[9.8328,55.61],[9.82,55.600022],[9.812424,55.6],[9.8,55.594355],[9.799999,55.594354]]}},{"type":"Feature","properties":{"depth":3,"source":"DDM 2024 coarse contour","resolution":"0.005 degree sampled grid","scope":"denmark","tileSource":"contours-denmark-coarse.geojson"},"geometry":{"type":"LineString","coordinates":[[10.1906,55.645],[10.194997,55.64],[10.193684,55.635],[10.182763,55.62],[10.19,55.616],[10.211,55.615],[10.22,55.608649],[10.242742,55.615],[10.234737,55.625],[10.24,55.632],[10.275001,55.631027]]}},{"type":"Feature","properties":{"depth":3,"source":"DDM 2024 coarse contour","resolution":"0.005 degree sampled grid","scope":"denmark","tileSource":"contours-denmark-coarse.geojson"},"geometry":{"type":"LineString","coordinates":[[9.889492,55.309999],[9.889492,55.31],[9.870781,55.335],[9.870001,55.345],[9.865,55.3477],[9.825,55.350045],[9.82,55.354306],[9.805,55.355051],[9.8,55.359672],[9.799999,55.359672]]}},{"type":"Feature","properties":{"depth":3,"source":"DDM 2024 coarse contour","resolution":"0.005 degree sampled grid","scope":"denmark","tileSource":"contours-denmark-coarse.geojson"},"geometry":{"type":"LineString","coordinates":[[9.799999,55.379994],[9.816552,55.38],[9.835,55.386321],[9.838095,55.39],[9.82,55.395],[9.820227,55.4],[9.815,55.405],[9.8,55.405006],[9.799999,55.405006]]}},{"type":"Feature","properties":{"depth":3,"source":"DDM 2024 coarse contour","resolution":"0.005 degree sampled grid","scope":"denmark","tileSource":"contours-denmark-coarse.geojson"},"geometry":{"type":"LineString","coordinates":[[9.799999,55.418854],[9.815,55.415522],[9.825,55.42],[9.799999,55.428607]]}},{"type":"Feature","properties":{"depth":3,"source":"DDM 2024 coarse contour","resolution":"0.005 degree sampled grid","scope":"denmark","tileSource":"contours-denmark-coarse.geojson"},"geometry":{"type":"LineString","coordinates":[[9.799999,55.444126],[9.802614,55.445],[9.799999,55.44643]]}},{"type":"Feature","properties":{"depth":3,"source":"DDM 2024 coarse contour","resolution":"0.005 degree sampled grid","scope":"denmark","tileSource":"contours-denmark-coarse.geojson"},"geometry":{"type":"LineString","coordinates":[[9.799999,55.554927],[9.8,55.554928],[9.83,55.558152],[9.853667,55.55],[9.852959,55.525],[9.865,55.516859],[9.905,55.51375],[9.941724,55.515],[9.985,55.537143],[9.994167,55.545],[10.015,55.550968],[10.019464,55.555],[10.017,55.56],[10.018667,55.565],[10.025,55.569722],[10.055,55.570769],[10.07,55.577708],[10.075,55.572826],[10.08,55.572667],[10.085781,55.575],[10.084286,55.58],[10.099444,55.595],[10.11,55.593],[10.125,55.599167],[10.122222,55.605],[10.125,55.609167],[10.135,55.59775],[10.1386,55.6],[10.141875,55.61],[10.16,55.614545],[10.175,55.61431],[10.1758,55.62],[10.1846,55.625],[10.17,55.630011],[10.160005,55.64],[10.16,55.649167],[10.175,55.649992],[10.1906,55.645]]}},{"type":"Feature","properties":{"depth":3,"source":"DDM 2024 coarse contour","resolution":"0.005 degree sampled grid","scope":"denmark","tileSource":"contours-denmark-coarse.geojson"},"geometry":{"type":"LineString","coordinates":[[9.799999,55.330237],[9.81,55.328375],[9.82,55.330309],[9.83,55.325842],[9.833293,55.31],[9.833294,55.309999]]}},{"type":"Feature","properties":{"depth":3,"source":"DDM 2024 coarse contour","resolution":"0.005 degree sampled grid","scope":"denmark","tileSource":"contours-denmark-coarse.geojson"},"geometry":{"type":"LineString","coordinates":[[10.155,55.597391],[10.139231,55.595],[10.145,55.589783],[10.15,55.5925],[10.155,55.5906],[10.157973,55.595],[10.155,55.597391]]}},{"type":"Feature","properties":{"depth":3,"source":"DDM 2024 coarse contour","resolution":"0.005 degree sampled grid","scope":"denmark","tileSource":"contours-denmark-coarse.geojson"},"geometry":{"type":"LineString","coordinates":[[10.275001,55.745],[10.235,55.745],[10.230002,55.755],[10.23625,55.76],[10.235,55.765],[10.227727,55.765],[10.225,55.771429],[10.21,55.764286],[10.204444,55.765],[10.193571,55.775],[10.207352,55.785001]]}},{"type":"Feature","properties":{"depth":3,"source":"DDM 2024 coarse contour","resolution":"0.005 degree sampled grid","scope":"denmark","tileSource":"contours-denmark-coarse.geojson"},"geometry":{"type":"LineString","coordinates":[[10.237619,55.785001],[10.237619,55.785],[10.234286,55.78],[10.24,55.77913],[10.248529,55.77],[10.259583,55.765],[10.272222,55.765],[10.261875,55.77],[10.275001,55.773988]]}},{"type":"Feature","properties":{"depth":5,"source":"DDM 2024 coarse contour","resolution":"0.005 degree sampled grid","scope":"denmark","tileSource":"contours-denmark-coarse.geojson"},"geometry":{"type":"LineString","coordinates":[[10.275001,55.735816],[10.26,55.737],[10.253333,55.735],[10.245,55.741833],[10.225,55.745882],[10.221957,55.75],[10.230417,55.76],[10.2,55.7625],[10.195,55.7675],[10.186,55.77],[10.183333,55.775],[10.197143,55.785],[10.197143,55.785001]]}},{"type":"Feature","properties":{"depth":5,"source":"DDM 2024 coarse contour","resolution":"0.005 degree sampled grid","scope":"denmark","tileSource":"contours-denmark-coarse.geojson"},"geometry":{"type":"LineString","coordinates":[[10.035458,55.785001],[10.035455,55.785],[10.040476,55.78],[10.023936,55.78],[10.02,55.776864],[10.02,55.76875],[10.035,55.7605],[10.079444,55.755],[10.090962,55.75],[10.094259,55.745],[10.055,55.739375],[10.045,55.730278],[10.01825,55.73],[10.002182,55.725],[10.004872,55.72],[10.015,55.719979],[10.025,55.712451],[10.03,55.717174],[10.04,55.716525],[10.045278,55.715],[10.045,55.709444],[10.062143,55.705],[10.0425,55.695],[10.05125,55.685],[10.05,55.68],[10.035,55.686071],[10.026129,55.695],[10.01,55.698833],[9.985,55.692727],[9.920789,55.69],[9.875,55.683318],[9.845,55.670033],[9.82,55.665047],[9.81,55.675005],[9.799999,55.675014]]}},{"type":"Feature","properties":{"depth":5,"source":"DDM 2024 coarse contour","resolution":"0.005 degree sampled grid","scope":"denmark","tileSource":"contours-denmark-coarse.geojson"},"geometry":{"type":"LineString","coordinates":[[9.799999,55.630256],[9.815,55.631579],[9.845,55.6282],[9.855,55.629969],[9.86,55.626731],[9.865,55.631034],[9.903125,55.63],[9.88,55.627692],[9.870385,55.62],[9.86,55.618367],[9.843333,55.61],[9.8348,55.61],[9.83,55.604125],[9.81,55.59775],[9.805,55.590625],[9.799999,55.590137]]}},{"type":"Feature","properties":{"depth":5,"source":"DDM 2024 coarse contour","resolution":"0.005 degree sampled grid","scope":"denmark","tileSource":"contours-denmark-coarse.geojson"},"geometry":{"type":"LineString","coordinates":[[9.799999,55.584902],[9.8,55.584898],[9.799999,55.584897]]}},{"type":"Feature","properties":{"depth":5,"source":"DDM 2024 coarse contour","resolution":"0.005 degree sampled grid","scope":"denmark","tileSource":"contours-denmark-coarse.geojson"},"geometry":{"type":"LineString","coordinates":[[10.17575,55.65],[10.205,55.64],[10.187683,55.625],[10.186,55.62],[10.19,55.6185],[10.215,55.61875],[10.22,55.622609],[10.222,55.62],[10.218333,55.615],[10.225,55.6124],[10.234474,55.615],[10.229167,55.625],[10.24,55.634],[10.275001,55.632855]]}},{"type":"Feature","properties":{"depth":5,"source":"DDM 2024 coarse contour","resolution":"0.005 degree sampled grid","scope":"denmark","tileSource":"contours-denmark-coarse.geojson"},"geometry":{"type":"LineString","coordinates":[[9.886035,55.309999],[9.882131,55.32],[9.863714,55.34],[9.8664,55.345],[9.805,55.355041],[9.8,55.358852],[9.799999,55.358852]]}},{"type":"Feature","properties":{"depth":5,"source":"DDM 2024 coarse contour","resolution":"0.005 degree sampled grid","scope":"denmark","tileSource":"contours-denmark-coarse.geojson"},"geometry":{"type":"LineString","coordinates":[[9.799999,55.38],[9.811765,55.38],[9.815,55.385],[9.807174,55.39],[9.816607,55.4],[9.799999,55.403701]]}},{"type":"Feature","properties":{"depth":5,"source":"DDM 2024 coarse contour","resolution":"0.005 degree sampled grid","scope":"denmark","tileSource":"contours-denmark-coarse.geojson"},"geometry":{"type":"LineString","coordinates":[[9.799999,55.419235],[9.815,55.417015],[9.8231,55.42],[9.799999,55.42715]]}},{"type":"Feature","properties":{"depth":5,"source":"DDM 2024 coarse contour","resolution":"0.005 degree sampled grid","scope":"denmark","tileSource":"contours-denmark-coarse.geojson"},"geometry":{"type":"LineString","coordinates":[[9.799999,55.554937],[9.8,55.554938],[9.815,55.555357],[9.827,55.56],[9.85,55.555253],[9.855,55.5512],[9.855,55.525],[9.865,55.518141],[9.94,55.516724],[10,55.55],[10.00125,55.56],[10.025,55.575517],[10.03,55.5772],[10.04,55.572738],[10.055,55.574615],[10.085,55.585],[10.078889,55.59],[10.09,55.600294],[10.095,55.597857],[10.11,55.6],[10.10875,55.605],[10.115,55.613125],[10.12,55.614545],[10.13,55.611333],[10.175,55.6216],[10.1806,55.625],[10.156154,55.635],[10.152857,55.645],[10.16,55.653393],[10.17575,55.65]]}},{"type":"Feature","properties":{"depth":5,"source":"DDM 2024 coarse contour","resolution":"0.005 degree sampled grid","scope":"denmark","tileSource":"contours-denmark-coarse.geojson"},"geometry":{"type":"LineString","coordinates":[[9.799999,55.33375],[9.825,55.33],[9.832093,55.325],[9.837566,55.309999]]}},{"type":"Feature","properties":{"depth":5,"source":"DDM 2024 coarse contour","resolution":"0.005 degree sampled grid","scope":"denmark","tileSource":"contours-denmark-coarse.geojson"},"geometry":{"type":"LineString","coordinates":[[9.851447,55.31],[9.851448,55.309999]]}},{"type":"Feature","properties":{"depth":5,"source":"DDM 2024 coarse contour","resolution":"0.005 degree sampled grid","scope":"denmark","tileSource":"contours-denmark-coarse.geojson"},"geometry":{"type":"LineString","coordinates":[[9.85,55.309999],[9.85,55.3125],[9.851447,55.31]]}},{"type":"Feature","properties":{"depth":5,"source":"DDM 2024 coarse contour","resolution":"0.005 degree sampled grid","scope":"denmark","tileSource":"contours-denmark-coarse.geojson"},"geometry":{"type":"LineString","coordinates":[[9.835,55.390009],[9.825,55.392021],[9.8188,55.39],[9.825,55.386607],[9.835,55.390009]]}},{"type":"Feature","properties":{"depth":5,"source":"DDM 2024 coarse contour","resolution":"0.005 degree sampled grid","scope":"denmark","tileSource":"contours-denmark-coarse.geojson"},"geometry":{"type":"LineString","coordinates":[[10.215455,55.755],[10.215909,55.75],[10.21,55.747143],[10.186875,55.745],[10.195,55.759167],[10.215455,55.755]]}},{"type":"Feature","properties":{"depth":10,"source":"DDM 2024 coarse contour","resolution":"0.005 degree sampled grid","scope":"denmark","tileSource":"contours-denmark-coarse.geojson"},"geometry":{"type":"LineString","coordinates":[[10.275001,55.729439],[10.225,55.728451],[10.221563,55.73],[10.227083,55.735],[10.215,55.742386],[10.185,55.741736],[10.16,55.748036],[10.131111,55.745],[10.148971,55.74],[10.152885,55.73],[10.145,55.726786],[10.125556,55.735],[10.129091,55.745],[10.118542,55.755],[10.135294,55.76],[10.14,55.765714],[10.155,55.762353],[10.165,55.752895],[10.174615,55.755],[10.156129,55.77],[10.165625,55.78],[10.165577,55.785001]]}},{"type":"Feature","properties":{"depth":10,"source":"DDM 2024 coarse contour","resolution":"0.005 degree sampled grid","scope":"denmark","tileSource":"contours-denmark-coarse.geojson"},"geometry":{"type":"LineString","coordinates":[[10.064163,55.785001],[10.062222,55.78],[10.037273,55.77],[10.08,55.759052],[10.106087,55.745],[10.07,55.736379],[10.07,55.73],[10.043462,55.72],[10.055,55.713333],[10.08,55.715658],[10.083571,55.71],[10.078864,55.705],[10.084091,55.7],[10.067083,55.695],[10.070455,55.69],[10.055,55.678757],[10.035,55.678387],[10.01,55.691538],[9.985,55.686981],[9.93,55.688561],[9.875,55.680981],[9.86,55.672857],[9.82,55.665022],[9.799999,55.668613]]}},{"type":"Feature","properties":{"depth":10,"source":"DDM 2024 coarse contour","resolution":"0.005 degree sampled grid","scope":"denmark","tileSource":"contours-denmark-coarse.geojson"},"geometry":{"type":"LineString","coordinates":[[9.799999,55.632601],[9.815,55.633772],[9.86,55.629135],[9.865,55.633908],[9.89,55.632967],[9.9,55.638103],[9.915179,55.63],[9.836,55.605],[9.8065,55.585],[9.818393,55.58],[9.81,55.574],[9.805,55.576774],[9.799999,55.570854]]}},{"type":"Feature","properties":{"depth":10,"source":"DDM 2024 coarse contour","resolution":"0.005 degree sampled grid","scope":"denmark","tileSource":"contours-denmark-coarse.geojson"},"geometry":{"type":"LineString","coordinates":[[9.799999,55.338251],[9.825,55.332083],[9.845,55.322045],[9.853513,55.309999]]}},{"type":"Feature","properties":{"depth":10,"source":"DDM 2024 coarse contour","resolution":"0.005 degree sampled grid","scope":"denmark","tileSource":"contours-denmark-coarse.geojson"},"geometry":{"type":"LineString","coordinates":[[10.162361,55.66],[10.2,55.645638],[10.24,55.645132],[10.25,55.650284],[10.27,55.650658],[10.275001,55.646556]]}},{"type":"Feature","properties":{"depth":10,"source":"DDM 2024 coarse contour","resolution":"0.005 degree sampled grid","scope":"denmark","tileSource":"contours-denmark-coarse.geojson"},"geometry":{"type":"LineString","coordinates":[[9.882229,55.309999],[9.882333,55.315],[9.86,55.338154],[9.845,55.345848],[9.799999,55.357217]]}},{"type":"Feature","properties":{"depth":10,"source":"DDM 2024 coarse contour","resolution":"0.005 degree sampled grid","scope":"denmark","tileSource":"contours-denmark-coarse.geojson"},"geometry":{"type":"LineString","coordinates":[[9.799999,55.397804],[9.802143,55.4],[9.799999,55.400191]]}},{"type":"Feature","properties":{"depth":10,"source":"DDM 2024 coarse contour","resolution":"0.005 degree sampled grid","scope":"denmark","tileSource":"contours-denmark-coarse.geojson"},"geometry":{"type":"LineString","coordinates":[[9.799999,55.423477],[9.801094,55.425],[9.799999,55.425046]]}},{"type":"Feature","properties":{"depth":10,"source":"DDM 2024 coarse contour","resolution":"0.005 degree sampled grid","scope":"denmark","tileSource":"contours-denmark-coarse.geojson"},"geometry":{"type":"LineString","coordinates":[[9.799999,55.554305],[9.825,55.563333],[9.856176,55.555],[9.86,55.531],[9.87,55.52375],[9.935,55.519672],[9.967143,55.535],[9.977619,55.545],[9.9775,55.565],[9.984062,55.57],[9.98,55.575],[9.995,55.573269],[10.02,55.586714],[10.025,55.582927],[10.04,55.588095],[10.055,55.582353],[10.06,55.6],[10.070313,55.6],[10.068333,55.605],[10.08975,55.62],[10.096818,55.635],[10.12,55.637246],[10.133214,55.63],[10.135,55.622619],[10.14913,55.635],[10.135,55.63925],[10.1345,55.645],[10.162361,55.66]]}},{"type":"Feature","properties":{"depth":10,"source":"DDM 2024 coarse contour","resolution":"0.005 degree sampled grid","scope":"denmark","tileSource":"contours-denmark-coarse.geojson"},"geometry":{"type":"LineString","coordinates":[[10.16,55.63089],[10.15,55.634],[10.147333,55.63],[10.155,55.62746],[10.16,55.63089]]}},{"type":"Feature","properties":{"depth":15,"source":"DDM 2024 coarse contour","resolution":"0.005 degree sampled grid","scope":"denmark","tileSource":"contours-denmark-coarse.geojson"},"geometry":{"type":"LineString","coordinates":[[10.275001,55.726257],[10.205,55.724522],[10.210455,55.73],[10.205,55.734516],[10.17,55.733519],[10.16,55.723603],[10.14,55.723519],[10.1114,55.74],[10.111563,55.76],[10.095,55.775294],[10.095862,55.76],[10.10971,55.745],[10.086,55.735],[10.092727,55.7],[10.09,55.6952],[10.055,55.677405],[10.005,55.673333],[9.99,55.665],[9.98,55.667857],[9.976154,55.66],[9.985,55.658],[9.99,55.665],[10.005,55.645],[9.995,55.632],[9.96,55.61],[9.945,55.605455],[9.937273,55.61],[9.954444,55.615],[9.95,55.618636],[9.935,55.615854],[9.915,55.621538],[9.862353,55.61],[9.826667,55.59],[9.835,55.587614],[9.84,55.592407],[9.843421,55.59],[9.838594,55.585],[9.799999,55.564222]]}},{"type":"Feature","properties":{"depth":15,"source":"DDM 2024 coarse contour","resolution":"0.005 degree sampled grid","scope":"denmark","tileSource":"contours-denmark-coarse.geojson"},"geometry":{"type":"LineString","coordinates":[[9.799999,55.555028],[9.85,55.578571],[9.838409,55.565],[9.85,55.562273],[9.873333,55.545],[9.885,55.556667],[9.8875,55.58],[9.895,55.584],[9.95,55.593438],[10.06,55.633889],[10.085,55.631944],[10.16,55.662617],[10.21,55.649375],[10.275001,55.656588]]}},{"type":"Feature","properties":{"depth":15,"source":"DDM 2024 coarse contour","resolution":"0.005 degree sampled grid","scope":"denmark","tileSource":"contours-denmark-coarse.geojson"},"geometry":{"type":"LineString","coordinates":[[9.799999,55.33985],[9.815,55.338355],[9.845,55.327037],[9.855,55.314803],[9.865,55.316667],[9.864125,55.309999]]}},{"type":"Feature","properties":{"depth":15,"source":"DDM 2024 coarse contour","resolution":"0.005 degree sampled grid","scope":"denmark","tileSource":"contours-denmark-coarse.geojson"},"geometry":{"type":"LineString","coordinates":[[9.879482,55.309999],[9.88,55.312333],[9.86,55.334022],[9.835,55.338158],[9.820588,55.35],[9.8,55.35],[9.799999,55.35]]}},{"type":"Feature","properties":{"depth":15,"source":"DDM 2024 coarse contour","resolution":"0.005 degree sampled grid","scope":"denmark","tileSource":"contours-denmark-coarse.geojson"},"geometry":{"type":"LineString","coordinates":[[9.855,55.6717],[9.8275,55.665],[9.85,55.660862],[9.86,55.665],[9.855,55.6717]]}},{"type":"Feature","properties":{"depth":15,"source":"DDM 2024 coarse contour","resolution":"0.005 degree sampled grid","scope":"denmark","tileSource":"contours-denmark-coarse.geojson"},"geometry":{"type":"LineString","coordinates":[[9.885,55.679375],[9.86663,55.675],[9.865,55.667],[9.8885,55.675],[9.885,55.679375]]}},{"type":"Feature","properties":{"depth":15,"source":"DDM 2024 coarse contour","resolution":"0.005 degree sampled grid","scope":"denmark","tileSource":"contours-denmark-coarse.geojson"},"geometry":{"type":"LineString","coordinates":[[9.91,55.680581],[9.88525,55.68],[9.895,55.675571],[9.913125,55.68],[9.91,55.680581]]}},{"type":"Feature","properties":{"depth":20,"source":"DDM 2024 coarse contour","resolution":"0.005 degree sampled grid","scope":"denmark","tileSource":"contours-denmark-coarse.geojson"},"geometry":{"type":"LineString","coordinates":[[10.275001,55.723247],[10.195,55.724778],[10.165,55.720818],[10.1605,55.72],[10.203333,55.705],[10.155,55.687],[10.132,55.67],[10.13,55.665],[10.135,55.664063],[10.175,55.664138],[10.22,55.675],[10.2575,55.66],[10.275001,55.662178]]}},{"type":"Feature","properties":{"depth":20,"source":"DDM 2024 coarse contour","resolution":"0.005 degree sampled grid","scope":"denmark","tileSource":"contours-denmark-coarse.geojson"},"geometry":{"type":"LineString","coordinates":[[9.825,55.572875],[9.799999,55.561338]]}},{"type":"Feature","properties":{"depth":20,"source":"DDM 2024 coarse contour","resolution":"0.005 degree sampled grid","scope":"denmark","tileSource":"contours-denmark-coarse.geojson"},"geometry":{"type":"LineString","coordinates":[[9.799999,55.559133],[9.805,55.557638],[9.82,55.563811],[9.827396,55.57],[9.825,55.572875]]}},{"type":"Feature","properties":{"depth":20,"source":"DDM 2024 coarse contour","resolution":"0.005 degree sampled grid","scope":"denmark","tileSource":"contours-denmark-coarse.geojson"},"geometry":{"type":"LineString","coordinates":[[9.865,55.597121],[9.85,55.593519],[9.845357,55.585],[9.855,55.583429],[9.868889,55.595],[9.865,55.597121]]}},{"type":"Feature","properties":{"depth":20,"source":"DDM 2024 coarse contour","resolution":"0.005 degree sampled grid","scope":"denmark","tileSource":"contours-denmark-coarse.geojson"},"geometry":{"type":"LineString","coordinates":[[10.1,55.692],[10.041667,55.67],[10.05,55.664643],[10.065,55.666875],[10.095,55.682917],[10.1,55.692]]}},{"type":"Feature","properties":{"depth":20,"source":"DDM 2024 coarse contour","resolution":"0.005 degree sampled grid","scope":"denmark","tileSource":"contours-denmark-coarse.geojson"},"geometry":{"type":"LineString","coordinates":[[10.15,55.720769],[10.115,55.723333],[10.111667,55.72],[10.15,55.715882],[10.15,55.720769]]}},{"type":"Feature","properties":{"depth":20,"source":"DDM 2024 coarse contour","resolution":"0.005 degree sampled grid","scope":"denmark","tileSource":"contours-denmark-coarse.geojson"},"geometry":{"type":"LineString","coordinates":[[10.105,55.741088],[10.099143,55.73],[10.11,55.721667],[10.113333,55.725],[10.105,55.741088]]}}]}