{"type":"FeatureCollection","name":"DDM contour tile r02_c10","bbox":[12.2,55.31,12.675,55.785],"metadata":{"schema":"waternav-ddm-contour-tile-v1","version":"v45.8","tileId":"r02_c10","source":"Danmarks Dybdemodel 2024 ddm_50m.dybde.tiff via bundled DDM contour GeoJSON files"},"features":[{"type":"Feature","properties":{"depth":1,"source":"DDM 2024 coarse contour","resolution":"0.005 degree sampled grid","scope":"denmark","tileSource":"contours-denmark-coarse.geojson"},"geometry":{"type":"LineString","coordinates":[[12.63509,55.309999],[12.635078,55.35],[12.630078,55.355],[12.630074,55.365],[12.625074,55.37],[12.625071,55.38],[12.620072,55.385],[12.615069,55.41],[12.610067,55.415],[12.610062,55.425],[12.605065,55.43],[12.62,55.439941],[12.625,55.439941],[12.635,55.449946],[12.67,55.464949],[12.675001,55.469948]]}},{"type":"Feature","properties":{"depth":1,"source":"DDM 2024 coarse contour","resolution":"0.005 degree sampled grid","scope":"denmark","tileSource":"contours-denmark-coarse.geojson"},"geometry":{"type":"LineString","coordinates":[[12.594988,55.785001],[12.594992,55.775],[12.599987,55.77],[12.599992,55.755],[12.585789,55.74],[12.585,55.73],[12.589991,55.725],[12.584998,55.72],[12.6,55.719981],[12.605,55.725086],[12.62,55.724983],[12.625,55.729976],[12.63,55.72997],[12.634945,55.725],[12.634947,55.72],[12.63,55.715053],[12.625,55.715044],[12.62,55.710035],[12.61,55.710014],[12.604995,55.705],[12.604993,55.7],[12.625,55.699962],[12.629993,55.695],[12.627,55.69],[12.63,55.684986],[12.635,55.689939],[12.639929,55.685],[12.64,55.679961],[12.645,55.679931],[12.649965,55.675],[12.645,55.670018],[12.635345,55.67],[12.634998,55.665],[12.64,55.664996],[12.645,55.656034],[12.65,55.659986],[12.65499,55.655],[12.64999,55.65],[12.649998,55.645],[12.66,55.634997],[12.675,55.634982],[12.675001,55.634981]]}},{"type":"Feature","properties":{"depth":1,"source":"DDM 2024 coarse contour","resolution":"0.005 degree sampled grid","scope":"denmark","tileSource":"contours-denmark-coarse.geojson"},"geometry":{"type":"LineString","coordinates":[[12.675001,55.585186],[12.665,55.577],[12.655,55.578182],[12.64,55.573667],[12.605,55.551875],[12.58,55.549687],[12.56,55.5575],[12.551875,55.57],[12.535,55.570013],[12.515015,55.585],[12.510009,55.6],[12.505006,55.605],[12.509595,55.62],[12.509348,55.625],[12.505,55.628571],[12.500143,55.62],[12.504992,55.615],[12.495,55.601364],[12.45,55.600013],[12.435,55.610001],[12.4,55.610008],[12.404994,55.605],[12.4,55.600011],[12.395,55.605],[12.39,55.600005],[12.38,55.600003],[12.365,55.590007],[12.351563,55.59],[12.34,55.585003],[12.331154,55.585],[12.325,55.580008],[12.315,55.580002],[12.31,55.575013],[12.3,55.575003],[12.295,55.570012],[12.29,55.570005],[12.285,55.565004],[12.25,55.549125],[12.230323,55.53],[12.229991,55.525],[12.2216,55.515],[12.219994,55.505],[12.212174,55.5],[12.209994,55.49],[12.2,55.47825],[12.199999,55.477708]]}},{"type":"Feature","properties":{"depth":1,"source":"DDM 2024 coarse contour","resolution":"0.005 degree sampled grid","scope":"denmark","tileSource":"contours-denmark-coarse.geojson"},"geometry":{"type":"LineString","coordinates":[[12.199999,55.474995],[12.214969,55.46],[12.21,55.455033],[12.205,55.460025],[12.199999,55.455015]]}},{"type":"Feature","properties":{"depth":1,"source":"DDM 2024 coarse contour","resolution":"0.005 degree sampled grid","scope":"denmark","tileSource":"contours-denmark-coarse.geojson"},"geometry":{"type":"LineString","coordinates":[[12.199999,55.447125],[12.2,55.4466],[12.225,55.4255],[12.235,55.424992],[12.241429,55.42],[12.255,55.419991],[12.261667,55.415],[12.27,55.414991],[12.275,55.409999],[12.29,55.40999],[12.295,55.404999],[12.335,55.404981],[12.34,55.4],[12.365,55.39999],[12.39,55.384998],[12.395,55.38499],[12.405,55.375],[12.415,55.374985],[12.425,55.36],[12.44,55.354992],[12.449998,55.345],[12.449997,55.335],[12.454992,55.33],[12.45,55.324821],[12.449983,55.315],[12.449987,55.309999]]}},{"type":"Feature","properties":{"depth":1,"source":"DDM 2024 coarse contour","resolution":"0.005 degree sampled grid","scope":"denmark","tileSource":"contours-denmark-coarse.geojson"},"geometry":{"type":"LineString","coordinates":[[12.53,55.635],[12.513462,55.635],[12.507857,55.63],[12.51,55.626667],[12.525,55.628333],[12.52875,55.63],[12.53,55.635]]}},{"type":"Feature","properties":{"depth":2,"source":"DDM 2024 coarse contour","resolution":"0.005 degree sampled grid","scope":"denmark","tileSource":"contours-denmark-coarse.geojson"},"geometry":{"type":"LineString","coordinates":[[12.635085,55.309999],[12.635073,55.35],[12.630073,55.355],[12.630069,55.365],[12.625069,55.37],[12.625067,55.38],[12.620068,55.385],[12.615064,55.41],[12.610062,55.415],[12.610057,55.425],[12.60506,55.43],[12.62,55.439946],[12.625,55.439946],[12.635,55.449951],[12.67,55.464954],[12.675001,55.469953]]}},{"type":"Feature","properties":{"depth":2,"source":"DDM 2024 coarse contour","resolution":"0.005 degree sampled grid","scope":"denmark","tileSource":"contours-denmark-coarse.geojson"},"geometry":{"type":"LineString","coordinates":[[12.594993,55.785001],[12.594997,55.775],[12.599992,55.77],[12.599997,55.755],[12.587105,55.74],[12.589996,55.725],[12.587308,55.72],[12.6,55.719986],[12.605,55.725948],[12.62,55.724988],[12.625,55.729981],[12.63,55.729975],[12.63495,55.725],[12.634952,55.72],[12.63,55.715048],[12.625,55.715039],[12.62,55.71003],[12.61,55.710009],[12.605,55.705],[12.604998,55.7],[12.625,55.699967],[12.629998,55.695],[12.630171,55.69],[12.635,55.689944],[12.639933,55.685],[12.64,55.679966],[12.645,55.679936],[12.64997,55.675],[12.645,55.670013],[12.637069,55.67],[12.645,55.657759],[12.65,55.659991],[12.654995,55.655],[12.649995,55.65],[12.65499,55.64],[12.663,55.635],[12.675,55.634987],[12.675001,55.634986]]}},{"type":"Feature","properties":{"depth":2,"source":"DDM 2024 coarse contour","resolution":"0.005 degree sampled grid","scope":"denmark","tileSource":"contours-denmark-coarse.geojson"},"geometry":{"type":"LineString","coordinates":[[12.675001,55.574213],[12.675,55.574211],[12.67,55.575417],[12.665,55.572273],[12.655,55.575909],[12.63,55.565333],[12.605,55.5475],[12.58,55.546562],[12.56,55.552333],[12.5475,55.57],[12.535,55.570008],[12.51501,55.585],[12.510004,55.6],[12.505001,55.605],[12.508243,55.62],[12.505,55.626786],[12.501571,55.62],[12.504997,55.615],[12.503636,55.605],[12.495,55.5975],[12.45,55.600008],[12.435,55.6084],[12.4,55.610003],[12.404999,55.605],[12.4,55.600006],[12.395,55.601875],[12.38,55.598636],[12.365,55.590002],[12.354688,55.59],[12.35,55.586591],[12.315,55.579138],[12.31,55.575008],[12.300833,55.575],[12.25,55.547875],[12.231935,55.53],[12.225,55.519375],[12.223438,55.51],[12.214348,55.5],[12.20913,55.485],[12.2,55.47575],[12.214974,55.46],[12.21,55.455028],[12.205,55.46002],[12.199999,55.45501]]}},{"type":"Feature","properties":{"depth":2,"source":"DDM 2024 coarse contour","resolution":"0.005 degree sampled grid","scope":"denmark","tileSource":"contours-denmark-coarse.geojson"},"geometry":{"type":"LineString","coordinates":[[12.199999,55.449182],[12.2,55.4486],[12.22,55.435],[12.225,55.428],[12.24381,55.42],[12.255,55.419996],[12.275,55.411905],[12.29,55.409995],[12.29675,55.405],[12.335,55.404986],[12.345,55.4],[12.365,55.399995],[12.395,55.384995],[12.407812,55.375],[12.415,55.37499],[12.425,55.362812],[12.451579,55.345],[12.45,55.335937],[12.454997,55.33],[12.45,55.323036],[12.45,55.309999]]}},{"type":"Feature","properties":{"depth":3,"source":"DDM 2024 coarse contour","resolution":"0.005 degree sampled grid","scope":"denmark","tileSource":"contours-denmark-coarse.geojson"},"geometry":{"type":"LineString","coordinates":[[12.63508,55.309999],[12.635068,55.35],[12.630068,55.355],[12.630064,55.365],[12.625064,55.37],[12.625062,55.38],[12.620063,55.385],[12.615059,55.41],[12.610057,55.415],[12.610052,55.425],[12.605055,55.43],[12.62,55.439951],[12.625,55.439951],[12.635,55.449956],[12.67,55.464959],[12.675001,55.469958]]}},{"type":"Feature","properties":{"depth":3,"source":"DDM 2024 coarse contour","resolution":"0.005 degree sampled grid","scope":"denmark","tileSource":"contours-denmark-coarse.geojson"},"geometry":{"type":"LineString","coordinates":[[12.596519,55.785001],[12.595556,55.775],[12.60125,55.765],[12.59875,55.75],[12.588421,55.74],[12.590937,55.72],[12.6,55.719991],[12.605,55.72681],[12.62,55.724993],[12.625,55.729986],[12.63,55.72998],[12.634955,55.725],[12.634956,55.72],[12.63,55.715044],[12.625,55.715034],[12.62,55.710025],[12.61,55.710004],[12.606042,55.7],[12.625,55.699972],[12.630231,55.695],[12.630598,55.69],[12.635,55.689949],[12.639938,55.685],[12.64,55.679971],[12.645,55.679941],[12.649975,55.675],[12.645,55.670008],[12.638793,55.67],[12.645,55.659483],[12.65,55.659996],[12.655,55.655],[12.65,55.65],[12.67,55.64125],[12.669444,55.635],[12.675001,55.632975]]}},{"type":"Feature","properties":{"depth":3,"source":"DDM 2024 coarse contour","resolution":"0.005 degree sampled grid","scope":"denmark","tileSource":"contours-denmark-coarse.geojson"},"geometry":{"type":"LineString","coordinates":[[12.675001,55.571581],[12.675,55.571579],[12.665,55.568214],[12.655,55.570714],[12.63,55.561538],[12.62875,55.555],[12.595,55.54],[12.59,55.543125],[12.565,55.542857],[12.55,55.548333],[12.545,55.544828],[12.55,55.555],[12.5425,55.57],[12.535,55.570003],[12.525,55.575005],[12.511538,55.59],[12.51,55.599783],[12.5,55.592],[12.485,55.597308],[12.47,55.595],[12.463333,55.6],[12.45,55.600003],[12.435,55.6064],[12.41,55.608333],[12.405,55.601111],[12.37,55.587917],[12.303611,55.575],[12.293214,55.57],[12.29,55.563824],[12.263,55.555],[12.25,55.546625],[12.23,55.524167],[12.229167,55.51],[12.22,55.4975],[12.21625,55.485],[12.202187,55.475],[12.214979,55.46],[12.21,55.455023],[12.205,55.460015],[12.2,55.451],[12.229167,55.435],[12.227,55.43],[12.25,55.420952],[12.26,55.420238],[12.29925,55.405],[12.36,55.401892],[12.38,55.395385],[12.415,55.374995],[12.454211,55.345],[12.45,55.340789],[12.455429,55.33],[12.45,55.32125],[12.45,55.309999]]}},{"type":"Feature","properties":{"depth":5,"source":"DDM 2024 coarse contour","resolution":"0.005 degree sampled grid","scope":"denmark","tileSource":"contours-denmark-coarse.geojson"},"geometry":{"type":"LineString","coordinates":[[12.635071,55.309999],[12.635058,55.35],[12.630058,55.355],[12.630054,55.365],[12.625054,55.37],[12.625052,55.38],[12.620053,55.385],[12.615049,55.41],[12.610047,55.415],[12.610042,55.425],[12.605045,55.43],[12.62,55.43996],[12.625,55.439961],[12.635,55.449966],[12.67,55.464969],[12.675001,55.469968]]}},{"type":"Feature","properties":{"depth":5,"source":"DDM 2024 coarse contour","resolution":"0.005 degree sampled grid","scope":"denmark","tileSource":"contours-denmark-coarse.geojson"},"geometry":{"type":"LineString","coordinates":[[12.599111,55.785001],[12.598333,55.775],[12.604821,55.765],[12.6,55.76],[12.605,55.757143],[12.61,55.75875],[12.61375,55.755],[12.612667,55.745],[12.605,55.743333],[12.597,55.735],[12.5975,55.725],[12.6,55.720625],[12.605,55.728534],[12.610417,55.725],[12.62,55.73],[12.63,55.72999],[12.634965,55.725],[12.634966,55.72],[12.62,55.710015],[12.610984,55.71],[12.618846,55.7],[12.63,55.69633],[12.631453,55.69],[12.639948,55.685],[12.64,55.679981],[12.645,55.679951],[12.649985,55.675],[12.65,55.670156],[12.657083,55.665],[12.66,55.656538],[12.665,55.660328],[12.675,55.640385],[12.675001,55.640384]]}},{"type":"Feature","properties":{"depth":5,"source":"DDM 2024 coarse contour","resolution":"0.005 degree sampled grid","scope":"denmark","tileSource":"contours-denmark-coarse.geojson"},"geometry":{"type":"LineString","coordinates":[[12.675001,55.556197],[12.665,55.551923],[12.65,55.560417],[12.61,55.534286],[12.56,55.535],[12.541379,55.545],[12.537083,55.55],[12.540588,55.555],[12.53,55.569583],[12.525,55.571538],[12.52,55.566875],[12.503333,55.575],[12.507,55.58],[12.505833,55.585],[12.495,55.583125],[12.485,55.589286],[12.48,55.583571],[12.475,55.58375],[12.47,55.585],[12.465,55.591389],[12.43,55.601333],[12.425,55.6],[12.4275,55.595],[12.41,55.593333],[12.365,55.575],[12.305,55.570588],[12.29,55.55875],[12.2725,55.555],[12.255833,55.545],[12.242857,55.53],[12.247,55.525],[12.245625,55.515],[12.24875,55.51],[12.24,55.495],[12.25,55.485],[12.24875,55.48],[12.24,55.476],[12.23,55.479318],[12.21,55.4738],[12.204999,55.47],[12.214989,55.46],[12.21,55.455013],[12.205,55.460005],[12.2025,55.455],[12.21,55.448393],[12.215,55.450172],[12.225,55.440909],[12.25,55.4275],[12.3,55.407361],[12.36,55.404595],[12.38,55.399231],[12.412143,55.38],[12.43,55.365312],[12.435208,55.365],[12.456076,55.345],[12.452931,55.34],[12.458286,55.33],[12.450568,55.315],[12.451291,55.309999]]}},{"type":"Feature","properties":{"depth":5,"source":"DDM 2024 coarse contour","resolution":"0.005 degree sampled grid","scope":"denmark","tileSource":"contours-denmark-coarse.geojson"},"geometry":{"type":"LineString","coordinates":[[12.665,55.705],[12.665,55.7],[12.675,55.695],[12.66875,55.68],[12.66,55.679578],[12.654333,55.69],[12.655192,55.7],[12.66,55.707143],[12.665,55.705]]}},{"type":"Feature","properties":{"depth":10,"source":"DDM 2024 coarse contour","resolution":"0.005 degree sampled grid","scope":"denmark","tileSource":"contours-denmark-coarse.geojson"},"geometry":{"type":"LineString","coordinates":[[12.635046,55.309999],[12.635033,55.35],[12.605021,55.43],[12.635,55.449991],[12.67,55.464994],[12.675001,55.469993]]}},{"type":"Feature","properties":{"depth":10,"source":"DDM 2024 coarse contour","resolution":"0.005 degree sampled grid","scope":"denmark","tileSource":"contours-denmark-coarse.geojson"},"geometry":{"type":"LineString","coordinates":[[12.675001,55.541195],[12.67,55.540556],[12.661667,55.53],[12.6675,55.515],[12.662778,55.505],[12.65,55.496667],[12.643571,55.5],[12.64,55.513333],[12.635,55.505],[12.625,55.502143],[12.61,55.50875],[12.575,55.503571],[12.565,55.51087],[12.555,55.50375],[12.54625,55.515],[12.54,55.513462],[12.508333,55.53],[12.505,55.547143],[12.5,55.535],[12.49,55.5475],[12.48,55.5425],[12.475,55.533],[12.47,55.53875],[12.46625,55.535],[12.47,55.525],[12.476667,55.525],[12.48,55.515],[12.475,55.51],[12.475,55.515],[12.465,55.515],[12.46875,55.52],[12.455,55.531667],[12.425,55.527143],[12.405,55.534444],[12.4,55.529091],[12.375,55.535],[12.32,55.528],[12.305,55.54],[12.3,55.535],[12.295,55.536667],[12.285,55.525],[12.275,55.5075],[12.27375,55.49],[12.325,55.451667],[12.3475,55.455],[12.34575,55.43],[12.335,55.445],[12.32,55.455],[12.3,55.452241],[12.29,55.463333],[12.27,55.465476],[12.245,55.465],[12.2415,55.46],[12.25,55.452283],[12.255,55.457812],[12.275,55.452],[12.285,55.425],[12.303333,55.415],[12.33,55.413182],[12.365,55.425],[12.41,55.397174],[12.4615,55.35],[12.459318,55.34],[12.465313,55.325],[12.457619,55.315],[12.458678,55.309999]]}},{"type":"Feature","properties":{"depth":10,"source":"DDM 2024 coarse contour","resolution":"0.005 degree sampled grid","scope":"denmark","tileSource":"contours-denmark-coarse.geojson"},"geometry":{"type":"LineString","coordinates":[[12.675001,55.784064],[12.65,55.745],[12.645,55.746739],[12.641923,55.745],[12.645,55.74],[12.635,55.74],[12.634991,55.72],[12.625263,55.715],[12.631528,55.71],[12.63,55.706857],[12.625,55.714762],[12.622209,55.705],[12.633472,55.695],[12.640984,55.68],[12.66,55.671829],[12.675001,55.654093]]}},{"type":"Feature","properties":{"depth":10,"source":"DDM 2024 coarse contour","resolution":"0.005 degree sampled grid","scope":"denmark","tileSource":"contours-denmark-coarse.geojson"},"geometry":{"type":"LineString","coordinates":[[12.32,55.52],[12.31,55.506667],[12.305,55.505],[12.3,55.51],[12.31,55.52],[12.32,55.52]]}},{"type":"Feature","properties":{"depth":10,"source":"DDM 2024 coarse contour","resolution":"0.005 degree sampled grid","scope":"denmark","tileSource":"contours-denmark-coarse.geojson"},"geometry":{"type":"LineString","coordinates":[[12.670759,55.725],[12.675001,55.714048]]}},{"type":"Feature","properties":{"depth":10,"source":"DDM 2024 coarse contour","resolution":"0.005 degree sampled grid","scope":"denmark","tileSource":"contours-denmark-coarse.geojson"},"geometry":{"type":"LineString","coordinates":[[12.675001,55.674345],[12.67,55.67194],[12.66,55.676566],[12.637869,55.705],[12.655208,55.725],[12.670759,55.725]]}},{"type":"Feature","properties":{"depth":10,"source":"DDM 2024 coarse contour","resolution":"0.005 degree sampled grid","scope":"denmark","tileSource":"contours-denmark-coarse.geojson"},"geometry":{"type":"LineString","coordinates":[[12.65075,55.735],[12.650152,55.73],[12.645,55.729167],[12.645,55.74],[12.65075,55.735]]}},{"type":"Feature","properties":{"depth":15,"source":"DDM 2024 coarse contour","resolution":"0.005 degree sampled grid","scope":"denmark","tileSource":"contours-denmark-coarse.geojson"},"geometry":{"type":"LineString","coordinates":[[12.565,55.466429],[12.54,55.4475],[12.51,55.44],[12.505,55.425],[12.5,55.423333],[12.485,55.423333],[12.46,55.436667],[12.44,55.435],[12.44,55.425],[12.43,55.42],[12.4225,55.405],[12.47,55.343571],[12.474605,55.325],[12.467241,55.31],[12.467241,55.309999]]}},{"type":"Feature","properties":{"depth":15,"source":"DDM 2024 coarse contour","resolution":"0.005 degree sampled grid","scope":"denmark","tileSource":"contours-denmark-coarse.geojson"},"geometry":{"type":"LineString","coordinates":[[12.635022,55.309999],[12.635009,55.35],[12.625005,55.37],[12.620002,55.395],[12.612,55.405],[12.61375,55.41],[12.602,55.415],[12.58,55.438333],[12.575,55.45],[12.5775,55.455],[12.565,55.466429]]}},{"type":"Feature","properties":{"depth":15,"source":"DDM 2024 coarse contour","resolution":"0.005 degree sampled grid","scope":"denmark","tileSource":"contours-denmark-coarse.geojson"},"geometry":{"type":"LineString","coordinates":[[12.675,55.727576],[12.675001,55.72757]]}},{"type":"Feature","properties":{"depth":15,"source":"DDM 2024 coarse contour","resolution":"0.005 degree sampled grid","scope":"denmark","tileSource":"contours-denmark-coarse.geojson"},"geometry":{"type":"LineString","coordinates":[[12.675001,55.727576],[12.675,55.727576]]}},{"type":"Feature","properties":{"depth":20,"source":"DDM 2024 coarse contour","resolution":"0.005 degree sampled grid","scope":"denmark","tileSource":"contours-denmark-coarse.geojson"},"geometry":{"type":"LineString","coordinates":[[12.53,55.381],[12.515,55.375],[12.545,55.326667],[12.5565,55.32],[12.555,55.31625],[12.55,55.310714],[12.545,55.319],[12.525,55.315],[12.52,55.32619],[12.51,55.325714],[12.506667,55.33],[12.509063,55.34],[12.496176,55.355],[12.498333,55.365],[12.49,55.368333],[12.48,55.36],[12.491692,55.35],[12.496774,55.315],[12.49434,55.309999]]}},{"type":"Feature","properties":{"depth":20,"source":"DDM 2024 coarse contour","resolution":"0.005 degree sampled grid","scope":"denmark","tileSource":"contours-denmark-coarse.geojson"},"geometry":{"type":"LineString","coordinates":[[12.623711,55.309999],[12.59,55.33375],[12.55,55.373571],[12.53,55.381]]}}]}