{"type":"FeatureCollection","name":"DDM contour tile r04_c04","bbox":[9.32,56.27,9.795,56.745],"metadata":{"schema":"waternav-ddm-contour-tile-v1","version":"v45.8","tileId":"r04_c04","source":"Danmarks Dybdemodel 2024 ddm_50m.dybde.tiff via bundled DDM contour GeoJSON files"},"features":[{"type":"Feature","properties":{"depth":1,"source":"DDM 2024 coarse contour","resolution":"0.005 degree sampled grid","scope":"denmark","tileSource":"contours-denmark-coarse.geojson"},"geometry":{"type":"LineString","coordinates":[[9.319999,56.53539],[9.335,56.544998],[9.35,56.5425],[9.356,56.545],[9.357857,56.55],[9.355,56.554],[9.345,56.5575],[9.32,56.550007],[9.319999,56.550007]]}},{"type":"Feature","properties":{"depth":2,"source":"DDM 2024 coarse contour","resolution":"0.005 degree sampled grid","scope":"denmark","tileSource":"contours-denmark-coarse.geojson"},"geometry":{"type":"LineString","coordinates":[[9.319999,56.534998],[9.32,56.534998],[9.335,56.547778],[9.35,56.55],[9.34,56.5525],[9.319999,56.551392]]}}]}