{"type":"FeatureCollection","name":"DDM contour tile r00_c16","bbox":[15.08,54.35,15.555,54.825],"metadata":{"schema":"waternav-ddm-contour-tile-v1","version":"v45.5","tileId":"r00_c16","source":"Danmarks Dybdemodel 2024 ddm_50m.dybde.tiff via bundled DDM contour GeoJSON files"},"features":[{"type":"Feature","properties":{"depth":1,"source":"DDM 2024 coarse contour","resolution":"0.005 degree sampled grid","scope":"denmark","tileSource":"contours-denmark-coarse.geojson"},"geometry":{"type":"LineString","coordinates":[[15.079999,54.569779],[15.155,54.569774],[15.16,54.574771],[15.225,54.57477],[15.23,54.579768],[15.255,54.579762],[15.26,54.584758],[15.285,54.584757],[15.29,54.589753],[15.305,54.589753],[15.31,54.594748],[15.32,54.594748],[15.325,54.599744],[15.335,54.599744],[15.34,54.604739],[15.355,54.604739],[15.36,54.609735],[15.37,54.609735],[15.375,54.61473],[15.39,54.61473],[15.395,54.619726],[15.42,54.624721],[15.425,54.629718],[15.435,54.629717],[15.44,54.634715],[15.46,54.634715],[15.465,54.639713],[15.48,54.639713],[15.485,54.644711],[15.505,54.644712],[15.51,54.649709],[15.525,54.64971],[15.53,54.654707],[15.545,54.654708],[15.55,54.659705],[15.555001,54.659705]]}},{"type":"Feature","properties":{"depth":2,"source":"DDM 2024 coarse contour","resolution":"0.005 degree sampled grid","scope":"denmark","tileSource":"contours-denmark-coarse.geojson"},"geometry":{"type":"LineString","coordinates":[[15.079999,54.569784],[15.155,54.569779],[15.16,54.574776],[15.225,54.574774],[15.23,54.579773],[15.255,54.579767],[15.26,54.584763],[15.285,54.584762],[15.29,54.589758],[15.305,54.589758],[15.31,54.594753],[15.32,54.594753],[15.325,54.599749],[15.335,54.599749],[15.34,54.604744],[15.355,54.604744],[15.36,54.60974],[15.37,54.60974],[15.375,54.614735],[15.39,54.614735],[15.395,54.619731],[15.42,54.624726],[15.425,54.629723],[15.435,54.629722],[15.44,54.63472],[15.46,54.63472],[15.465,54.639718],[15.48,54.639718],[15.485,54.644715],[15.505,54.644716],[15.51,54.649714],[15.525,54.649715],[15.53,54.654712],[15.545,54.654712],[15.55,54.65971],[15.555001,54.65971]]}},{"type":"Feature","properties":{"depth":3,"source":"DDM 2024 coarse contour","resolution":"0.005 degree sampled grid","scope":"denmark","tileSource":"contours-denmark-coarse.geojson"},"geometry":{"type":"LineString","coordinates":[[15.079999,54.569789],[15.155,54.569784],[15.16,54.574781],[15.225,54.574779],[15.23,54.579778],[15.255,54.579771],[15.26,54.584767],[15.285,54.584766],[15.29,54.589762],[15.305,54.589762],[15.31,54.594758],[15.32,54.594758],[15.325,54.599753],[15.335,54.599753],[15.34,54.604749],[15.355,54.604749],[15.36,54.609744],[15.37,54.609744],[15.375,54.61474],[15.39,54.614739],[15.395,54.619735],[15.42,54.624731],[15.425,54.629727],[15.435,54.629726],[15.44,54.634725],[15.46,54.634725],[15.465,54.639722],[15.48,54.639723],[15.485,54.64472],[15.505,54.644721],[15.51,54.649718],[15.525,54.649719],[15.53,54.654717],[15.545,54.654717],[15.55,54.659715],[15.555001,54.659715]]}},{"type":"Feature","properties":{"depth":5,"source":"DDM 2024 coarse contour","resolution":"0.005 degree sampled grid","scope":"denmark","tileSource":"contours-denmark-coarse.geojson"},"geometry":{"type":"LineString","coordinates":[[15.079999,54.569798],[15.155,54.569793],[15.16,54.57479],[15.225,54.574789],[15.23,54.579787],[15.255,54.579781],[15.26,54.584777],[15.285,54.584776],[15.29,54.589772],[15.305,54.589772],[15.31,54.594767],[15.32,54.594767],[15.325,54.599763],[15.335,54.599763],[15.34,54.604758],[15.355,54.604758],[15.36,54.609754],[15.37,54.609754],[15.375,54.614749],[15.39,54.614749],[15.395,54.619745],[15.42,54.62474],[15.425,54.629737],[15.435,54.629736],[15.44,54.634734],[15.46,54.634734],[15.465,54.639732],[15.48,54.639732],[15.485,54.64473],[15.505,54.64473],[15.51,54.649728],[15.525,54.649729],[15.53,54.654726],[15.545,54.654726],[15.55,54.659724],[15.555001,54.659724]]}},{"type":"Feature","properties":{"depth":10,"source":"DDM 2024 coarse contour","resolution":"0.005 degree sampled grid","scope":"denmark","tileSource":"contours-denmark-coarse.geojson"},"geometry":{"type":"LineString","coordinates":[[15.079999,54.569822],[15.155,54.569817],[15.16,54.574814],[15.225,54.574813],[15.23,54.579811],[15.255,54.579805],[15.26,54.584801],[15.305,54.589796],[15.34,54.604782],[15.355,54.604782],[15.375,54.614773],[15.39,54.614772],[15.425,54.62976],[15.435,54.629759],[15.44,54.634758],[15.46,54.634758],[15.485,54.644753],[15.505,54.644754],[15.53,54.65475],[15.545,54.65475],[15.55,54.659748],[15.555001,54.659748]]}},{"type":"Feature","properties":{"depth":15,"source":"DDM 2024 coarse contour","resolution":"0.005 degree sampled grid","scope":"denmark","tileSource":"contours-denmark-coarse.geojson"},"geometry":{"type":"LineString","coordinates":[[15.079999,54.569846],[15.155,54.569841],[15.16,54.574838],[15.225,54.574836],[15.23,54.579835],[15.255,54.579829],[15.26,54.584824],[15.305,54.589819],[15.34,54.604806],[15.355,54.604806],[15.375,54.614797],[15.39,54.614796],[15.425,54.629784],[15.435,54.629783],[15.44,54.634781],[15.46,54.634781],[15.485,54.644777],[15.505,54.644778],[15.53,54.654773],[15.545,54.654774],[15.55,54.659771],[15.555001,54.659771]]}},{"type":"Feature","properties":{"depth":20,"source":"DDM 2024 coarse contour","resolution":"0.005 degree sampled grid","scope":"denmark","tileSource":"contours-denmark-coarse.geojson"},"geometry":{"type":"LineString","coordinates":[[15.079999,54.56987],[15.155,54.569865],[15.16,54.574862],[15.225,54.57486],[15.23,54.579859],[15.255,54.579852],[15.26,54.584848],[15.305,54.589843],[15.34,54.604829],[15.355,54.604829],[15.375,54.61482],[15.39,54.61482],[15.425,54.629808],[15.435,54.629807],[15.44,54.634805],[15.46,54.634805],[15.485,54.6448],[15.505,54.644801],[15.53,54.654797],[15.545,54.654797],[15.55,54.659795],[15.555001,54.659795]]}},{"type":"Feature","properties":{"depth":30,"source":"DDM 2024 coarse contour","resolution":"0.005 degree sampled grid","scope":"denmark","tileSource":"contours-denmark-coarse.geojson"},"geometry":{"type":"LineString","coordinates":[[15.079999,54.569918],[15.155,54.569913],[15.16,54.574909],[15.225,54.574908],[15.23,54.579907],[15.255,54.5799],[15.26,54.584896],[15.305,54.589891],[15.34,54.604877],[15.355,54.604877],[15.375,54.614868],[15.39,54.614867],[15.425,54.629855],[15.435,54.629854],[15.44,54.634852],[15.46,54.634852],[15.485,54.644847],[15.505,54.644848],[15.53,54.654844],[15.545,54.654844],[15.55,54.659842],[15.555001,54.659842]]}},{"type":"Feature","properties":{"depth":50,"source":"DDM 2024 coarse contour","resolution":"0.005 degree sampled grid","scope":"denmark","tileSource":"contours-denmark-coarse.geojson"},"geometry":{"type":"LineString","coordinates":[[15.079999,54.588883],[15.22,54.578462],[15.285,54.58499],[15.29,54.589986],[15.305,54.589986],[15.34,54.604972],[15.37,54.609967],[15.375,54.614962],[15.39,54.614962],[15.44,54.634946],[15.46,54.634946],[15.485,54.644942],[15.505,54.644943],[15.53,54.654938],[15.545,54.654938],[15.55,54.659936],[15.555001,54.659936]]}}]}