{"type":"FeatureCollection","name":"DDM contour tile r00_c07","bbox":[10.76,54.35,11.235,54.825],"metadata":{"schema":"waternav-ddm-contour-tile-v1","version":"v45.5","tileId":"r00_c07","source":"Danmarks Dybdemodel 2024 ddm_50m.dybde.tiff via bundled DDM contour GeoJSON files"},"features":[{"type":"Feature","properties":{"depth":1,"source":"DDM 2024 coarse contour","resolution":"0.005 degree sampled grid","scope":"denmark","tileSource":"contours-denmark-coarse.geojson"},"geometry":{"type":"LineString","coordinates":[[10.759999,54.564888],[10.76,54.564889],[10.765,54.564889],[10.77,54.569888],[10.805,54.584899],[10.81,54.589901],[10.815,54.589902],[10.82,54.594904],[10.825,54.594904],[10.83,54.599907],[10.845,54.604903],[10.855,54.6149],[10.89,54.629886],[10.9,54.639897],[10.985,54.639908],[10.99,54.644912],[11.02,54.644916],[11.025,54.639913],[11.085,54.6399],[11.09,54.634893],[11.11,54.634891],[11.115,54.629888],[11.135,54.629888],[11.14,54.624885],[11.16,54.624885],[11.165,54.619882],[11.18,54.619885],[11.185,54.614881],[11.2,54.61488],[11.205,54.609878],[11.215,54.609877],[11.23,54.59987],[11.235,54.599871],[11.235001,54.59987]]}},{"type":"Feature","properties":{"depth":1,"source":"DDM 2024 coarse contour","resolution":"0.005 degree sampled grid","scope":"denmark","tileSource":"contours-denmark-coarse.geojson"},"geometry":{"type":"LineString","coordinates":[[11.235001,54.70501],[11.225,54.705016],[11.208333,54.715],[11.19,54.715014],[11.185,54.72],[11.17,54.720017],[11.165,54.72501],[11.15,54.725018],[11.145,54.730006],[11.13,54.730015],[11.125,54.735],[11.105,54.735016],[11.1,54.74],[11.07,54.740013],[11.065,54.745003],[11.05,54.74502],[11.045,54.750005],[11.035,54.75001],[11.029762,54.755],[11.015,54.755015],[11.01,54.760006],[11.005,54.760009],[10.955006,54.81],[10.953846,54.82],[10.9565,54.825],[10.956499,54.825001]]}},{"type":"Feature","properties":{"depth":1,"source":"DDM 2024 coarse contour","resolution":"0.005 degree sampled grid","scope":"denmark","tileSource":"contours-denmark-coarse.geojson"},"geometry":{"type":"LineString","coordinates":[[10.970714,54.825001],[10.970714,54.825],[10.961,54.825],[10.96175,54.82],[10.97,54.811458],[10.9825,54.815],[10.978182,54.81],[10.985,54.801739],[10.993654,54.805],[10.988333,54.81],[10.996538,54.815],[10.99,54.815002],[10.985003,54.82],[10.985001,54.825001]]}},{"type":"Feature","properties":{"depth":1,"source":"DDM 2024 coarse contour","resolution":"0.005 degree sampled grid","scope":"denmark","tileSource":"contours-denmark-coarse.geojson"},"geometry":{"type":"LineString","coordinates":[[10.986666,54.825001],[10.986667,54.825],[11.000833,54.825],[11.000834,54.825001]]}},{"type":"Feature","properties":{"depth":1,"source":"DDM 2024 coarse contour","resolution":"0.005 degree sampled grid","scope":"denmark","tileSource":"contours-denmark-coarse.geojson"},"geometry":{"type":"LineString","coordinates":[[11.010999,54.825001],[11.011,54.825],[11.008462,54.82],[11.02,54.819997],[11.027647,54.815],[11.033636,54.815],[11.035,54.81875],[11.041579,54.815],[11.047273,54.805],[11.055,54.801111],[11.0575,54.805],[11.051111,54.81],[11.053889,54.815],[11.049375,54.825],[11.049375,54.825001]]}},{"type":"Feature","properties":{"depth":1,"source":"DDM 2024 coarse contour","resolution":"0.005 degree sampled grid","scope":"denmark","tileSource":"contours-denmark-coarse.geojson"},"geometry":{"type":"LineString","coordinates":[[11.050456,54.825001],[11.050455,54.825],[11.065,54.817059],[11.069133,54.825001]]}},{"type":"Feature","properties":{"depth":1,"source":"DDM 2024 coarse contour","resolution":"0.005 degree sampled grid","scope":"denmark","tileSource":"contours-denmark-coarse.geojson"},"geometry":{"type":"LineString","coordinates":[[10.777694,54.825001],[10.774987,54.815],[10.759999,54.792516]]}},{"type":"Feature","properties":{"depth":1,"source":"DDM 2024 coarse contour","resolution":"0.005 degree sampled grid","scope":"denmark","tileSource":"contours-denmark-coarse.geojson"},"geometry":{"type":"LineString","coordinates":[[11.092749,54.825001],[11.095,54.822857],[11.1075,54.825],[11.1075,54.825001]]}},{"type":"Feature","properties":{"depth":2,"source":"DDM 2024 coarse contour","resolution":"0.005 degree sampled grid","scope":"denmark","tileSource":"contours-denmark-coarse.geojson"},"geometry":{"type":"LineString","coordinates":[[10.759999,54.564893],[10.76,54.564894],[10.765,54.564894],[10.77,54.569893],[10.805,54.584904],[10.81,54.589905],[10.815,54.589907],[10.82,54.594909],[10.825,54.594909],[10.83,54.599912],[10.845,54.604908],[10.855,54.614904],[10.89,54.629891],[10.9,54.639902],[10.985,54.639913],[10.99,54.644917],[11.02,54.644921],[11.025,54.639918],[11.085,54.639905],[11.09,54.634898],[11.11,54.634896],[11.115,54.629893],[11.135,54.629893],[11.14,54.62489],[11.16,54.62489],[11.165,54.619887],[11.18,54.61989],[11.185,54.614886],[11.2,54.614885],[11.205,54.609882],[11.215,54.609882],[11.23,54.599875],[11.235,54.599876],[11.235001,54.599875]]}},{"type":"Feature","properties":{"depth":2,"source":"DDM 2024 coarse contour","resolution":"0.005 degree sampled grid","scope":"denmark","tileSource":"contours-denmark-coarse.geojson"},"geometry":{"type":"LineString","coordinates":[[11.235001,54.705006],[11.225,54.705011],[11.22,54.710002],[11.205556,54.715],[11.19,54.715009],[11.183043,54.72],[11.17,54.720012],[11.165,54.725005],[11.15,54.725013],[11.145,54.730001],[11.13,54.73001],[11.122059,54.735],[11.105,54.735011],[11.096875,54.74],[11.07,54.740008],[11.064,54.745],[11.05,54.745015],[11.045,54.75],[11.035,54.750005],[11.027381,54.755],[11.015,54.75501],[11.01,54.760001],[11.005,54.760004],[10.995002,54.77],[10.955001,54.81],[10.945,54.825],[10.944998,54.825001]]}},{"type":"Feature","properties":{"depth":2,"source":"DDM 2024 coarse contour","resolution":"0.005 degree sampled grid","scope":"denmark","tileSource":"contours-denmark-coarse.geojson"},"geometry":{"type":"LineString","coordinates":[[10.937144,54.825001],[10.935,54.8225],[10.934333,54.825],[10.934334,54.825001]]}},{"type":"Feature","properties":{"depth":2,"source":"DDM 2024 coarse contour","resolution":"0.005 degree sampled grid","scope":"denmark","tileSource":"contours-denmark-coarse.geojson"},"geometry":{"type":"LineString","coordinates":[[10.991999,54.825001],[10.992,54.825],[10.992002,54.825001]]}},{"type":"Feature","properties":{"depth":2,"source":"DDM 2024 coarse contour","resolution":"0.005 degree sampled grid","scope":"denmark","tileSource":"contours-denmark-coarse.geojson"},"geometry":{"type":"LineString","coordinates":[[10.777595,54.825001],[10.769985,54.805],[10.759999,54.791677]]}},{"type":"Feature","properties":{"depth":2,"source":"DDM 2024 coarse contour","resolution":"0.005 degree sampled grid","scope":"denmark","tileSource":"contours-denmark-coarse.geojson"},"geometry":{"type":"LineString","coordinates":[[10.985,54.811538],[10.983864,54.805],[10.99,54.803393],[10.991731,54.805],[10.985,54.811538]]}},{"type":"Feature","properties":{"depth":2,"source":"DDM 2024 coarse contour","resolution":"0.005 degree sampled grid","scope":"denmark","tileSource":"contours-denmark-coarse.geojson"},"geometry":{"type":"LineString","coordinates":[[10.978715,54.825001],[10.97,54.820769],[10.968103,54.825],[10.962429,54.825],[10.97,54.813542],[10.983824,54.82],[10.980424,54.825001]]}},{"type":"Feature","properties":{"depth":2,"source":"DDM 2024 coarse contour","resolution":"0.005 degree sampled grid","scope":"denmark","tileSource":"contours-denmark-coarse.geojson"},"geometry":{"type":"LineString","coordinates":[[11.015,54.825001],[11.015,54.823],[11.03,54.815625],[11.035,54.822143],[11.05,54.812105],[11.052037,54.815],[11.0425,54.825],[11.0425,54.825001]]}},{"type":"Feature","properties":{"depth":3,"source":"DDM 2024 coarse contour","resolution":"0.005 degree sampled grid","scope":"denmark","tileSource":"contours-denmark-coarse.geojson"},"geometry":{"type":"LineString","coordinates":[[10.759999,54.564898],[10.76,54.564899],[10.765,54.564899],[10.77,54.569898],[10.805,54.584909],[10.81,54.58991],[10.815,54.589912],[10.82,54.594914],[10.825,54.594914],[10.83,54.599917],[10.845,54.604913],[10.855,54.614909],[10.89,54.629895],[10.9,54.639907],[10.985,54.639918],[10.99,54.644922],[11.02,54.644926],[11.025,54.639923],[11.085,54.63991],[11.09,54.634903],[11.11,54.634901],[11.115,54.629898],[11.135,54.629898],[11.14,54.624895],[11.16,54.624894],[11.165,54.619892],[11.18,54.619895],[11.185,54.614891],[11.2,54.61489],[11.205,54.609887],[11.215,54.609887],[11.23,54.59988],[11.235,54.599881],[11.235001,54.59988]]}},{"type":"Feature","properties":{"depth":3,"source":"DDM 2024 coarse contour","resolution":"0.005 degree sampled grid","scope":"denmark","tileSource":"contours-denmark-coarse.geojson"},"geometry":{"type":"LineString","coordinates":[[11.235001,54.705003],[11.225,54.705006],[11.2025,54.715],[11.17,54.720007],[11.165,54.725],[11.15,54.725008],[11.138889,54.73],[11.095,54.738889],[11.07,54.740003],[11.060667,54.745],[11.03,54.7508],[11.025,54.755],[11.015,54.755005],[11.003889,54.76],[10.97,54.795001],[10.949,54.81],[10.950278,54.815],[10.945,54.815833],[10.94,54.825],[10.938333,54.82],[10.933125,54.82],[10.932667,54.825],[10.932668,54.825001]]}},{"type":"Feature","properties":{"depth":3,"source":"DDM 2024 coarse contour","resolution":"0.005 degree sampled grid","scope":"denmark","tileSource":"contours-denmark-coarse.geojson"},"geometry":{"type":"LineString","coordinates":[[10.780303,54.825001],[10.778378,54.82],[10.764219,54.795],[10.759999,54.790423]]}},{"type":"Feature","properties":{"depth":3,"source":"DDM 2024 coarse contour","resolution":"0.005 degree sampled grid","scope":"denmark","tileSource":"contours-denmark-coarse.geojson"},"geometry":{"type":"LineString","coordinates":[[11.020002,54.825001],[11.02,54.825],[11.023824,54.82],[11.03,54.81875],[11.029063,54.825],[11.029061,54.825001]]}},{"type":"Feature","properties":{"depth":5,"source":"DDM 2024 coarse contour","resolution":"0.005 degree sampled grid","scope":"denmark","tileSource":"contours-denmark-coarse.geojson"},"geometry":{"type":"LineString","coordinates":[[10.759999,54.564908],[10.76,54.564909],[10.765,54.564909],[10.77,54.569908],[10.805,54.584919],[10.81,54.58992],[10.815,54.589922],[10.82,54.594923],[10.825,54.594924],[10.83,54.599927],[10.845,54.604923],[10.855,54.614919],[10.89,54.629905],[10.9,54.639917],[10.985,54.639927],[10.99,54.644932],[11.02,54.644936],[11.025,54.639933],[11.085,54.63992],[11.09,54.634913],[11.11,54.634911],[11.115,54.629908],[11.135,54.629908],[11.14,54.624905],[11.16,54.624904],[11.165,54.619902],[11.18,54.619905],[11.185,54.6149],[11.2,54.6149],[11.205,54.609897],[11.215,54.609897],[11.23,54.59989],[11.235,54.59989],[11.235001,54.599889]]}},{"type":"Feature","properties":{"depth":5,"source":"DDM 2024 coarse contour","resolution":"0.005 degree sampled grid","scope":"denmark","tileSource":"contours-denmark-coarse.geojson"},"geometry":{"type":"LineString","coordinates":[[11.235001,54.701537],[11.17,54.716875],[11.16,54.722368],[11.155,54.720556],[11.11,54.732692],[11.06,54.73725],[11.05,54.745],[11.045,54.741154],[11.01,54.745],[10.985,54.7625],[10.971875,54.785],[10.9525,54.795],[10.944,54.795],[10.925,54.808077],[10.918571,54.82],[10.925,54.818636],[10.9275,54.825],[10.927501,54.825001]]}},{"type":"Feature","properties":{"depth":5,"source":"DDM 2024 coarse contour","resolution":"0.005 degree sampled grid","scope":"denmark","tileSource":"contours-denmark-coarse.geojson"},"geometry":{"type":"LineString","coordinates":[[10.780509,54.825001],[10.780508,54.825],[10.780111,54.815],[10.77,54.805185],[10.768261,54.795],[10.759999,54.787157]]}},{"type":"Feature","properties":{"depth":10,"source":"DDM 2024 coarse contour","resolution":"0.005 degree sampled grid","scope":"denmark","tileSource":"contours-denmark-coarse.geojson"},"geometry":{"type":"LineString","coordinates":[[10.759999,54.562441],[10.845,54.604948],[10.855,54.614944],[10.89,54.62993],[10.9,54.639941],[10.985,54.639952],[10.99,54.644956],[11.02,54.64496],[11.025,54.639957],[11.085,54.639944],[11.09,54.634937],[11.11,54.634935],[11.115,54.629932],[11.16,54.624929],[11.165,54.619926],[11.215,54.609921],[11.235001,54.599917]]}},{"type":"Feature","properties":{"depth":10,"source":"DDM 2024 coarse contour","resolution":"0.005 degree sampled grid","scope":"denmark","tileSource":"contours-denmark-coarse.geojson"},"geometry":{"type":"LineString","coordinates":[[11.235001,54.671667],[11.235,54.671667],[11.19,54.692222],[11.185,54.7],[11.165,54.699167],[11.12,54.714524],[11.055,54.722679],[11.027857,54.715],[11.03,54.706667],[11.02,54.702692],[11,54.70375],[10.97,54.7225],[10.96,54.720556],[10.95375,54.725],[10.950833,54.73],[10.95875,54.735],[10.95,54.741471],[10.925,54.751429],[10.92,54.744643],[10.906833,54.75],[10.906111,54.76],[10.895,54.77],[10.9,54.767222],[10.915,54.774412],[10.92375,54.785],[10.92,54.788529],[10.905,54.785455],[10.89625,54.8],[10.900217,54.81],[10.8925,54.82],[10.894445,54.825001]]}},{"type":"Feature","properties":{"depth":10,"source":"DDM 2024 coarse contour","resolution":"0.005 degree sampled grid","scope":"denmark","tileSource":"contours-denmark-coarse.geojson"},"geometry":{"type":"LineString","coordinates":[[10.790001,54.825001],[10.79,54.825],[10.784746,54.825],[10.785,54.816875],[10.79,54.825],[10.7905,54.82],[10.780227,54.81],[10.775294,54.785],[10.768659,54.78],[10.759999,54.758085]]}},{"type":"Feature","properties":{"depth":15,"source":"DDM 2024 coarse contour","resolution":"0.005 degree sampled grid","scope":"denmark","tileSource":"contours-denmark-coarse.geojson"},"geometry":{"type":"LineString","coordinates":[[10.805395,54.825001],[10.792586,54.815],[10.763038,54.755],[10.76,54.740333],[10.759999,54.740332]]}},{"type":"Feature","properties":{"depth":15,"source":"DDM 2024 coarse contour","resolution":"0.005 degree sampled grid","scope":"denmark","tileSource":"contours-denmark-coarse.geojson"},"geometry":{"type":"LineString","coordinates":[[10.759999,54.562465],[10.845,54.604972],[10.855,54.614968],[10.89,54.629954],[10.9,54.639966],[10.985,54.639976],[10.99,54.644981],[11.02,54.644985],[11.025,54.639982],[11.085,54.639969],[11.09,54.634962],[11.11,54.63496],[11.115,54.629956],[11.16,54.624953],[11.165,54.619951],[11.215,54.609945],[11.235001,54.599942]]}},{"type":"Feature","properties":{"depth":15,"source":"DDM 2024 coarse contour","resolution":"0.005 degree sampled grid","scope":"denmark","tileSource":"contours-denmark-coarse.geojson"},"geometry":{"type":"LineString","coordinates":[[11.235001,54.655372],[11.22,54.662368],[11.13,54.695682],[11.11,54.69875],[11.095,54.693333],[11.085,54.685],[11.09,54.68],[11.088571,54.675],[11.075,54.654231],[11.07,54.658913],[11.065,54.655833],[11.005,54.674],[10.965,54.67875],[10.945,54.689286],[10.94,54.685],[10.895,54.696667],[10.86,54.72],[10.86,54.727222],[10.875714,54.725],[10.874375,54.735],[10.88,54.735],[10.882,54.74],[10.8725,54.75],[10.88,54.755],[10.864048,54.775],[10.87,54.779167],[10.875,54.770714],[10.88,54.779],[10.890833,54.78],[10.885,54.78],[10.884167,54.79],[10.873833,54.805],[10.878824,54.815],[10.877627,54.825001]]}},{"type":"Feature","properties":{"depth":20,"source":"DDM 2024 coarse contour","resolution":"0.005 degree sampled grid","scope":"denmark","tileSource":"contours-denmark-coarse.geojson"},"geometry":{"type":"LineString","coordinates":[[11.185,54.655833],[11.165,54.655],[11.16,54.65],[11.163,54.645],[11.14,54.639138],[11.125,54.646071],[11.048333,54.645],[11.2,54.614973],[11.235001,54.598813]]}},{"type":"Feature","properties":{"depth":20,"source":"DDM 2024 coarse contour","resolution":"0.005 degree sampled grid","scope":"denmark","tileSource":"contours-denmark-coarse.geojson"},"geometry":{"type":"LineString","coordinates":[[11.235001,54.632231],[11.216667,54.645],[11.19,54.645],[11.185,54.655833]]}},{"type":"Feature","properties":{"depth":20,"source":"DDM 2024 coarse contour","resolution":"0.005 degree sampled grid","scope":"denmark","tileSource":"contours-denmark-coarse.geojson"},"geometry":{"type":"LineString","coordinates":[[10.819616,54.825001],[10.817308,54.82],[10.821786,54.815],[10.795366,54.795],[10.767375,54.755],[10.765355,54.735],[10.759999,54.730413]]}},{"type":"Feature","properties":{"depth":20,"source":"DDM 2024 coarse contour","resolution":"0.005 degree sampled grid","scope":"denmark","tileSource":"contours-denmark-coarse.geojson"},"geometry":{"type":"LineString","coordinates":[[10.759999,54.56249],[10.845,54.604997],[10.855,54.614993],[10.89,54.629979],[10.9,54.63999],[10.935,54.64],[10.945,54.650909],[10.94,54.64],[10.981667,54.64],[10.991,54.655],[10.92,54.675294],[10.9,54.678333],[10.885,54.672727],[10.835,54.681429],[10.827273,54.69],[10.839286,54.695],[10.83,54.702105],[10.823333,54.7],[10.825,54.705],[10.805,54.71625],[10.803043,54.725],[10.833333,54.765],[10.8375,54.78],[10.83125,54.785],[10.833864,54.795],[10.845714,54.805],[10.84,54.811111],[10.866,54.825],[10.865998,54.825001]]}},{"type":"Feature","properties":{"depth":20,"source":"DDM 2024 coarse contour","resolution":"0.005 degree sampled grid","scope":"denmark","tileSource":"contours-denmark-coarse.geojson"},"geometry":{"type":"LineString","coordinates":[[10.771,54.635],[10.775,54.63],[10.78,54.635],[10.78,54.63],[10.76,54.621667],[10.759999,54.621668]]}},{"type":"Feature","properties":{"depth":20,"source":"DDM 2024 coarse contour","resolution":"0.005 degree sampled grid","scope":"denmark","tileSource":"contours-denmark-coarse.geojson"},"geometry":{"type":"LineString","coordinates":[[10.759999,54.637273],[10.76,54.637273],[10.771,54.635]]}},{"type":"Feature","properties":{"depth":20,"source":"DDM 2024 coarse contour","resolution":"0.005 degree sampled grid","scope":"denmark","tileSource":"contours-denmark-coarse.geojson"},"geometry":{"type":"LineString","coordinates":[[10.825657,54.805],[10.818548,54.8],[10.825,54.809333],[10.825657,54.805]]}},{"type":"Feature","properties":{"depth":30,"source":"DDM 2024 coarse contour","resolution":"0.005 degree sampled grid","scope":"denmark","tileSource":"contours-denmark-coarse.geojson"},"geometry":{"type":"LineString","coordinates":[[10.77,54.745205],[10.761964,54.72],[10.765,54.713312],[10.771901,54.73],[10.77,54.745205]]}},{"type":"Feature","properties":{"depth":30,"source":"DDM 2024 coarse contour","resolution":"0.005 degree sampled grid","scope":"denmark","tileSource":"contours-denmark-coarse.geojson"},"geometry":{"type":"LineString","coordinates":[[10.83013,54.825001],[10.827463,54.82],[10.835,54.801875],[10.83757,54.825001]]}}]}