{"type":"FeatureCollection","name":"DDM contour tile r01_c09","bbox":[11.72,54.83,12.195,55.305],"metadata":{"schema":"waternav-ddm-contour-tile-v1","version":"v45.5","tileId":"r01_c09","source":"Danmarks Dybdemodel 2024 ddm_50m.dybde.tiff via bundled DDM contour GeoJSON files"},"features":[{"type":"Feature","properties":{"depth":1,"source":"DDM 2024 coarse contour","resolution":"0.005 degree sampled grid","scope":"denmark","tileSource":"contours-denmark-coarse.geojson"},"geometry":{"type":"LineString","coordinates":[[11.825114,54.975],[11.845,54.960263],[11.855,54.959988],[11.875,54.949993],[11.88125,54.945],[11.880714,54.94],[11.8925,54.935],[11.890833,54.925],[11.903182,54.92],[11.915002,54.92],[11.912222,54.925],[11.919583,54.935],[11.92,54.944],[11.925,54.945],[11.935,54.940238],[11.95,54.94075],[11.96,54.944959],[11.965,54.939998],[11.975,54.939903],[11.984927,54.93],[11.980195,54.925],[11.980606,54.92],[11.996875,54.9],[12.01,54.899994],[12.02,54.895104],[12.05,54.89496],[12.055,54.890488],[12.06,54.894969],[12.09,54.894922],[12.095,54.890229],[12.12,54.88992],[12.124964,54.885],[12.124993,54.875],[12.13,54.866739],[12.145,54.854998],[12.15,54.854993],[12.164992,54.84],[12.164988,54.83],[12.164987,54.829999]]}},{"type":"Feature","properties":{"depth":1,"source":"DDM 2024 coarse contour","resolution":"0.005 degree sampled grid","scope":"denmark","tileSource":"contours-denmark-coarse.geojson"},"geometry":{"type":"LineString","coordinates":[[11.719999,54.875038],[11.745,54.876],[11.747222,54.87],[11.740403,54.865],[11.739999,54.86],[11.75,54.842812],[11.755714,54.84],[11.765,54.844167],[11.7875,54.84],[11.790556,54.835],[11.790264,54.829999]]}},{"type":"Feature","properties":{"depth":1,"source":"DDM 2024 coarse contour","resolution":"0.005 degree sampled grid","scope":"denmark","tileSource":"contours-denmark-coarse.geojson"},"geometry":{"type":"LineString","coordinates":[[11.807083,54.829999],[11.807083,54.83],[11.8,54.830002],[11.795004,54.835],[11.799138,54.84],[11.7975,54.845],[11.79,54.845011],[11.784333,54.85],[11.77,54.85001],[11.755,54.85875],[11.750002,54.87],[11.750057,54.875],[11.755001,54.88],[11.740001,54.89],[11.74,54.90375],[11.749643,54.915],[11.747222,54.92],[11.73,54.927353],[11.725,54.925006],[11.72,54.928939],[11.719999,54.928939]]}},{"type":"Feature","properties":{"depth":1,"source":"DDM 2024 coarse contour","resolution":"0.005 degree sampled grid","scope":"denmark","tileSource":"contours-denmark-coarse.geojson"},"geometry":{"type":"LineString","coordinates":[[11.719999,54.950451],[11.725,54.950217],[11.745,54.965],[11.77,54.965],[11.787222,54.955],[11.8,54.942778],[11.81,54.939999],[11.8175,54.945],[11.822955,54.96],[11.817,54.965],[11.818235,54.97],[11.812,54.975],[11.825114,54.975]]}},{"type":"Feature","properties":{"depth":1,"source":"DDM 2024 coarse contour","resolution":"0.005 degree sampled grid","scope":"denmark","tileSource":"contours-denmark-coarse.geojson"},"geometry":{"type":"LineString","coordinates":[[12.195001,54.879042],[12.19,54.878718],[12.185,54.875013],[12.175,54.875015],[12.17,54.878529],[12.165,54.875],[12.165833,54.88],[12.165,54.875],[12.159048,54.88],[12.14,54.880084],[12.125,54.894784],[12.12,54.895045],[12.115,54.899882],[12.105,54.900021],[12.096,54.905],[12.095,54.91],[12.07,54.905057],[12.065,54.909673],[12.05,54.910002],[12.045,54.913696],[12.01,54.915033],[11.990135,54.93],[11.990095,54.935],[11.995001,54.94],[11.980008,54.95],[11.980007,54.955],[11.985,54.959965],[11.995,54.959951],[11.999994,54.955],[11.999999,54.945],[12.015,54.935625],[12.025,54.9358],[12.03,54.939993],[12.07,54.93999],[12.08,54.929995],[12.0925,54.925],[12.0895,54.92],[12.095,54.91],[12.1,54.907222],[12.115,54.91],[12.102143,54.92],[12.121667,54.94],[12.132941,54.945],[12.125,54.945006],[12.1195,54.95],[12.12,54.956818],[12.14,54.969992],[12.15,54.970385],[12.155,54.97499],[12.17,54.972812],[12.173889,54.975],[12.16501,54.98],[12.165013,54.985],[12.17,54.989984],[12.195,54.984994],[12.195001,54.984993]]}},{"type":"Feature","properties":{"depth":1,"source":"DDM 2024 coarse contour","resolution":"0.005 degree sampled grid","scope":"denmark","tileSource":"contours-denmark-coarse.geojson"},"geometry":{"type":"LineString","coordinates":[[12.195001,55.037006],[12.185,55.040009],[12.18,55.04875],[12.174583,55.045],[12.18,55.05375],[12.185,55.051],[12.19,55.053125],[12.193182,55.065],[12.195001,55.066334]]}},{"type":"Feature","properties":{"depth":1,"source":"DDM 2024 coarse contour","resolution":"0.005 degree sampled grid","scope":"denmark","tileSource":"contours-denmark-coarse.geojson"},"geometry":{"type":"LineString","coordinates":[[12.195001,55.077813],[12.185,55.075625],[12.181429,55.07],[12.175,55.0675],[12.166667,55.07],[12.175,55.072222],[12.185,55.0835],[12.195001,55.083288]]}},{"type":"Feature","properties":{"depth":1,"source":"DDM 2024 coarse contour","resolution":"0.005 degree sampled grid","scope":"denmark","tileSource":"contours-denmark-coarse.geojson"},"geometry":{"type":"LineString","coordinates":[[12.105462,54.96],[12.095,54.950005],[12.083571,54.95],[12.075,54.945005],[12.063214,54.95],[12.0625,54.955],[12.075,54.959991],[12.085,54.959998],[12.09,54.964997],[12.1,54.964979],[12.105462,54.96]]}},{"type":"Feature","properties":{"depth":1,"source":"DDM 2024 coarse contour","resolution":"0.005 degree sampled grid","scope":"denmark","tileSource":"contours-denmark-coarse.geojson"},"geometry":{"type":"LineString","coordinates":[[12.053333,54.955],[12.045,54.950009],[12.04,54.953182],[12.019667,54.955],[12.04,54.9554],[12.045,54.959968],[12.053333,54.955]]}},{"type":"Feature","properties":{"depth":1,"source":"DDM 2024 coarse contour","resolution":"0.005 degree sampled grid","scope":"denmark","tileSource":"contours-denmark-coarse.geojson"},"geometry":{"type":"LineString","coordinates":[[12.195001,55.221209],[12.186316,55.22],[12.17,55.210014],[12.155,55.210005],[12.13,55.185007],[12.12,55.184565],[12.115,55.180007],[12.11,55.175],[12.10999,55.165],[12.110746,55.15],[12.115,55.140566],[12.125,55.135128],[12.135,55.138],[12.14,55.129985],[12.17,55.13],[12.1695,55.125],[12.175,55.12],[12.1825,55.12],[12.175,55.12],[12.177,55.125],[12.185,55.128125],[12.195001,55.125625]]}},{"type":"Feature","properties":{"depth":1,"source":"DDM 2024 coarse contour","resolution":"0.005 degree sampled grid","scope":"denmark","tileSource":"contours-denmark-coarse.geojson"},"geometry":{"type":"LineString","coordinates":[[12.195001,55.118077],[12.195,55.118077],[12.185,55.103929],[12.177857,55.1],[12.176667,55.09],[12.155,55.072667],[12.145,55.074],[12.125,55.068571],[12.126875,55.06],[12.14,55.0512],[12.1475,55.05],[12.150556,55.045],[12.145,55.041538],[12.145,55.037143],[12.169992,55.01],[12.174995,55],[12.17,54.995009],[12.1525,54.995],[12.135,54.9895],[12.115714,54.97],[12.11,54.97],[12.105,54.965024],[12.1,54.97],[12.102667,54.975],[12.1,54.979444],[12.095,54.98],[12.075,54.965005],[12.061538,54.965],[12.055,54.960034],[12.015,54.960714],[12.01461,54.965],[12,54.965018],[11.995,54.970001],[11.985,54.970005],[11.98,54.975004],[11.965,54.980011],[11.955005,54.99],[11.954565,54.995],[11.935,54.995009],[11.92881,55],[11.92,55],[11.9275,54.99],[11.92,54.989474],[11.915,54.994182],[11.91,54.990026],[11.901071,54.99],[11.9,54.98],[11.895,54.975026],[11.889597,54.98],[11.885,54.980028],[11.87,54.995],[11.875,54.999979],[11.885,55.000017],[11.875,55.000021],[11.84,55.020001],[11.83,55.020017],[11.81,55.035006],[11.8,55.035014],[11.795,55.040005],[11.785,55.040018],[11.78,55.045005],[11.77,55.04501],[11.7625,55.05],[11.735,55.050022],[11.729,55.055],[11.719999,55.055019]]}},{"type":"Feature","properties":{"depth":1,"source":"DDM 2024 coarse contour","resolution":"0.005 degree sampled grid","scope":"denmark","tileSource":"contours-denmark-coarse.geojson"},"geometry":{"type":"LineString","coordinates":[[11.719999,55.070178],[11.725,55.069999],[11.73,55.066184],[11.735,55.0685],[11.75,55.066429],[11.754167,55.07],[11.74,55.076923],[11.735,55.088636],[11.72,55.083816],[11.719999,55.083816]]}},{"type":"Feature","properties":{"depth":1,"source":"DDM 2024 coarse contour","resolution":"0.005 degree sampled grid","scope":"denmark","tileSource":"contours-denmark-coarse.geojson"},"geometry":{"type":"LineString","coordinates":[[11.719999,55.086],[11.72,55.086],[11.736667,55.095],[11.719999,55.110396]]}},{"type":"Feature","properties":{"depth":1,"source":"DDM 2024 coarse contour","resolution":"0.005 degree sampled grid","scope":"denmark","tileSource":"contours-denmark-coarse.geojson"},"geometry":{"type":"LineString","coordinates":[[11.795,55.075002],[11.781786,55.075],[11.775,55.070009],[11.77,55.0734],[11.76,55.068462],[11.755,55.069474],[11.750952,55.065],[11.765,55.064993],[11.77,55.0615],[11.775,55.065],[11.770714,55.06],[11.801786,55.055],[11.8075,55.05],[11.827,55.045],[11.825,55.052353],[11.815,55.053077],[11.804783,55.065],[11.805,55.07],[11.795,55.075002]]}},{"type":"Feature","properties":{"depth":1,"source":"DDM 2024 coarse contour","resolution":"0.005 degree sampled grid","scope":"denmark","tileSource":"contours-denmark-coarse.geojson"},"geometry":{"type":"LineString","coordinates":[[12.115,55.1388],[12.11,55.135007],[12.100508,55.135],[12.11,55.134993],[12.115,55.131724],[12.1188,55.135],[12.115,55.1388]]}},{"type":"Feature","properties":{"depth":1,"source":"DDM 2024 coarse contour","resolution":"0.005 degree sampled grid","scope":"denmark","tileSource":"contours-denmark-coarse.geojson"},"geometry":{"type":"LineString","coordinates":[[12.065,55.175002],[12.06,55.170008],[12.043462,55.17],[12.031667,55.165],[12.016471,55.15],[12.02,55.145],[12.035,55.144999],[12.045,55.136875],[12.05,55.140556],[12.055,55.136071],[12.06,55.139997],[12.06625,55.14],[12.080001,55.15],[12.078529,55.165],[12.09,55.169995],[12.09,55.175],[12.065,55.175002]]}},{"type":"Feature","properties":{"depth":2,"source":"DDM 2024 coarse contour","resolution":"0.005 degree sampled grid","scope":"denmark","tileSource":"contours-denmark-coarse.geojson"},"geometry":{"type":"LineString","coordinates":[[11.810091,54.98],[11.815,54.97597],[11.825,54.9775],[11.845,54.962895],[11.885,54.945714],[11.915,54.95],[11.93,54.943333],[11.96,54.944964],[11.965,54.940172],[11.975,54.939908],[11.984932,54.93],[11.980844,54.925],[11.99,54.906056],[12,54.9],[12.015,54.89925],[12.02,54.895625],[12.05,54.894965],[12.055,54.891098],[12.06,54.894974],[12.09,54.894927],[12.095,54.890514],[12.12,54.889925],[12.124969,54.885],[12.124998,54.875],[12.13,54.868913],[12.1572,54.85],[12.167237,54.835],[12.16361,54.829999]]}},{"type":"Feature","properties":{"depth":2,"source":"DDM 2024 coarse contour","resolution":"0.005 degree sampled grid","scope":"denmark","tileSource":"contours-denmark-coarse.geojson"},"geometry":{"type":"LineString","coordinates":[[11.719999,54.876875],[11.72,54.876875],[11.745,54.878],[11.75,54.870225],[11.754386,54.88],[11.739239,54.89],[11.7325,54.91],[11.745,54.913929],[11.745,54.918],[11.735,54.9196],[11.72,54.927424],[11.719999,54.927424]]}},{"type":"Feature","properties":{"depth":2,"source":"DDM 2024 coarse contour","resolution":"0.005 degree sampled grid","scope":"denmark","tileSource":"contours-denmark-coarse.geojson"},"geometry":{"type":"LineString","coordinates":[[11.719999,54.953043],[11.725,54.952391],[11.73,54.9625],[11.735,54.961786],[11.74,54.9685],[11.745,54.969091],[11.775,54.965833],[11.795,54.952692],[11.81,54.9475],[11.81375,54.95],[11.81375,54.955],[11.795,54.965],[11.792857,54.97],[11.795,54.980625],[11.810091,54.98]]}},{"type":"Feature","properties":{"depth":2,"source":"DDM 2024 coarse contour","resolution":"0.005 degree sampled grid","scope":"denmark","tileSource":"contours-denmark-coarse.geojson"},"geometry":{"type":"LineString","coordinates":[[11.75,54.867917],[11.745,54.868852],[11.740795,54.86],[11.75,54.846071],[11.775,54.846765],[11.79,54.841579],[11.792955,54.845],[11.75325,54.855],[11.75,54.867917]]}},{"type":"Feature","properties":{"depth":2,"source":"DDM 2024 coarse contour","resolution":"0.005 degree sampled grid","scope":"denmark","tileSource":"contours-denmark-coarse.geojson"},"geometry":{"type":"LineString","coordinates":[[12.195001,54.854495],[12.19,54.854062],[12.18,54.86],[12.19,54.857727],[12.195,54.860775],[12.195001,54.860775]]}},{"type":"Feature","properties":{"depth":2,"source":"DDM 2024 coarse contour","resolution":"0.005 degree sampled grid","scope":"denmark","tileSource":"contours-denmark-coarse.geojson"},"geometry":{"type":"LineString","coordinates":[[12.195001,55.219461],[12.188947,55.22],[12.17,55.210009],[12.155,55.21],[12.14,55.1925],[12.13,55.185002],[12.12,55.183478],[12.110909,55.175],[12.111493,55.15],[12.115,55.141509],[12.125,55.13641],[12.14,55.146],[12.143,55.145],[12.137955,55.135],[12.14,55.12999],[12.18,55.131111],[12.185,55.14],[12.18,55.143333],[12.18,55.1475],[12.185,55.14875],[12.19,55.143333],[12.195001,55.144722]]}},{"type":"Feature","properties":{"depth":2,"source":"DDM 2024 coarse contour","resolution":"0.005 degree sampled grid","scope":"denmark","tileSource":"contours-denmark-coarse.geojson"},"geometry":{"type":"LineString","coordinates":[[12.195001,55.130015],[12.195,55.13],[12.195001,55.13]]}},{"type":"Feature","properties":{"depth":2,"source":"DDM 2024 coarse contour","resolution":"0.005 degree sampled grid","scope":"denmark","tileSource":"contours-denmark-coarse.geojson"},"geometry":{"type":"LineString","coordinates":[[12.195001,54.877008],[12.185,54.875008],[12.165,54.874686],[12.156667,54.88],[12.14,54.880079],[12.125,54.894475],[12.115,54.899488],[12.105,54.900016],[12.1,54.904247],[12.085,54.907857],[12.07,54.905052],[12.065,54.909206],[12.01,54.915028],[11.99013,54.93],[11.9915,54.94],[11.980003,54.95],[11.980002,54.955],[11.985,54.95997],[11.995,54.959956],[12,54.954167],[12.013961,54.965],[12,54.965013],[11.994437,54.97],[11.985,54.97],[11.979643,54.975],[11.965,54.980006],[11.952391,54.995],[11.9275,54.995],[11.933462,54.99],[11.92,54.986842],[11.915,54.993273],[11.904643,54.99],[11.9005,54.975],[11.895,54.975021],[11.88879,54.98],[11.88,54.98],[11.880016,54.985],[11.865833,54.995],[11.875,54.999984],[11.885,55.000012],[11.875,55.000016],[11.837647,55.02],[11.83,55.020012],[11.81,55.035001],[11.8,55.035009],[11.795,55.04],[11.785,55.040013],[11.78,55.045],[11.77,55.045005],[11.76,55.049545],[11.735,55.050017],[11.727333,55.055],[11.719999,55.055014]]}},{"type":"Feature","properties":{"depth":2,"source":"DDM 2024 coarse contour","resolution":"0.005 degree sampled grid","scope":"denmark","tileSource":"contours-denmark-coarse.geojson"},"geometry":{"type":"LineString","coordinates":[[11.719999,55.07],[11.72,55.07],[11.725,55.073077],[11.73,55.0675],[11.739576,55.075],[11.735,55.086364],[11.72,55.0825],[11.719999,55.0825]]}},{"type":"Feature","properties":{"depth":2,"source":"DDM 2024 coarse contour","resolution":"0.005 degree sampled grid","scope":"denmark","tileSource":"contours-denmark-coarse.geojson"},"geometry":{"type":"LineString","coordinates":[[11.719999,55.097867],[11.725,55.095333],[11.728684,55.1],[11.719999,55.109527]]}},{"type":"Feature","properties":{"depth":2,"source":"DDM 2024 coarse contour","resolution":"0.005 degree sampled grid","scope":"denmark","tileSource":"contours-denmark-coarse.geojson"},"geometry":{"type":"LineString","coordinates":[[12.015,54.956538],[12.01,54.957333],[12.003125,54.95],[12.006429,54.945],[12.02,54.938235],[12.04,54.942368],[12.074231,54.94],[12.075,54.945],[12.08,54.93],[12.085,54.933],[12.09,54.929333],[12.095,54.93],[12.1,54.924375],[12.105,54.935],[12.113,54.935],[12.114375,54.94],[12.11375,54.945],[12.105,54.95],[12.1,54.947143],[12.095,54.95],[12.07,54.945003],[12.06,54.949722],[12.02,54.951944],[12.015,54.956538]]}},{"type":"Feature","properties":{"depth":2,"source":"DDM 2024 coarse contour","resolution":"0.005 degree sampled grid","scope":"denmark","tileSource":"contours-denmark-coarse.geojson"},"geometry":{"type":"LineString","coordinates":[[11.915,54.94],[11.905,54.939211],[11.9,54.933333],[11.915,54.932143],[11.9175,54.935],[11.915,54.94]]}},{"type":"Feature","properties":{"depth":2,"source":"DDM 2024 coarse contour","resolution":"0.005 degree sampled grid","scope":"denmark","tileSource":"contours-denmark-coarse.geojson"},"geometry":{"type":"LineString","coordinates":[[12.15,55.0675],[12.145,55.064545],[12.14,55.068],[12.125,55.06619],[12.125,55.063958],[12.14,55.0532],[12.15,55.051667],[12.155417,55.045],[12.1525,55.035],[12.156875,55.03],[12.156702,55.025],[12.175,55],[12.17,54.995004],[12.16,54.994286],[12.145,54.985],[12.135,54.984],[12.119286,54.97],[12.11,54.969351],[12.105,54.965019],[12.1,54.968929],[12.095658,54.965],[12.106231,54.96],[12.1032,54.955],[12.105,54.95],[12.115,54.950167],[12.118372,54.955],[12.115,54.960068],[12.155,54.974995],[12.1625,54.975],[12.165008,54.985],[12.17,54.989989],[12.19,54.988056],[12.195001,54.985954]]}},{"type":"Feature","properties":{"depth":2,"source":"DDM 2024 coarse contour","resolution":"0.005 degree sampled grid","scope":"denmark","tileSource":"contours-denmark-coarse.geojson"},"geometry":{"type":"LineString","coordinates":[[12.195001,55.036607],[12.195,55.036607],[12.19,55.035556],[12.18,55.044375],[12.170081,55.04],[12.176429,55.035],[12.175,55.032],[12.17,55.0395],[12.165,55.037143],[12.162143,55.04],[12.17,55.040385],[12.1725,55.045],[12.15,55.0675]]}},{"type":"Feature","properties":{"depth":2,"source":"DDM 2024 coarse contour","resolution":"0.005 degree sampled grid","scope":"denmark","tileSource":"contours-denmark-coarse.geojson"},"geometry":{"type":"LineString","coordinates":[[12.085,54.971316],[12.075,54.965],[12.063462,54.965],[12.055,54.960029],[12.016154,54.96],[12.025,54.955625],[12.04,54.9559],[12.045,54.959973],[12.06,54.955673],[12.07,54.96],[12.085,54.961],[12.089286,54.965],[12.089167,54.97],[12.085,54.971316]]}},{"type":"Feature","properties":{"depth":2,"source":"DDM 2024 coarse contour","resolution":"0.005 degree sampled grid","scope":"denmark","tileSource":"contours-denmark-coarse.geojson"},"geometry":{"type":"LineString","coordinates":[[11.815,54.970357],[11.805,54.973182],[11.796364,54.97],[11.81,54.966591],[11.815,54.970357]]}},{"type":"Feature","properties":{"depth":2,"source":"DDM 2024 coarse contour","resolution":"0.005 degree sampled grid","scope":"denmark","tileSource":"contours-denmark-coarse.geojson"},"geometry":{"type":"LineString","coordinates":[[12.18,55.06375],[12.1625,55.06],[12.175,55.052222],[12.184286,55.06],[12.18,55.06375]]}},{"type":"Feature","properties":{"depth":2,"source":"DDM 2024 coarse contour","resolution":"0.005 degree sampled grid","scope":"denmark","tileSource":"contours-denmark-coarse.geojson"},"geometry":{"type":"LineString","coordinates":[[11.795,55.072727],[11.785,55.074545],[11.7675,55.07],[11.77,55.0665],[11.779545,55.065],[11.773095,55.06],[11.805,55.055217],[11.808793,55.06],[11.795,55.072727]]}},{"type":"Feature","properties":{"depth":2,"source":"DDM 2024 coarse contour","resolution":"0.005 degree sampled grid","scope":"denmark","tileSource":"contours-denmark-coarse.geojson"},"geometry":{"type":"LineString","coordinates":[[12.185,55.100357],[12.17875,55.095],[12.18,55.09],[12.185,55.091667],[12.19,55.1],[12.185,55.100357]]}},{"type":"Feature","properties":{"depth":2,"source":"DDM 2024 coarse contour","resolution":"0.005 degree sampled grid","scope":"denmark","tileSource":"contours-denmark-coarse.geojson"},"geometry":{"type":"LineString","coordinates":[[12.195001,55.113889],[12.195,55.113889],[12.189333,55.105],[12.19,55.1],[12.195,55.1],[12.195,55.095],[12.195001,55.095]]}},{"type":"Feature","properties":{"depth":2,"source":"DDM 2024 coarse contour","resolution":"0.005 degree sampled grid","scope":"denmark","tileSource":"contours-denmark-coarse.geojson"},"geometry":{"type":"LineString","coordinates":[[12.195001,55.100001],[12.195,55.1],[12.195001,55.100001]]}},{"type":"Feature","properties":{"depth":2,"source":"DDM 2024 coarse contour","resolution":"0.005 degree sampled grid","scope":"denmark","tileSource":"contours-denmark-coarse.geojson"},"geometry":{"type":"LineString","coordinates":[[12.115,55.1368],[12.101356,55.135],[12.115,55.133448],[12.115,55.1368]]}},{"type":"Feature","properties":{"depth":2,"source":"DDM 2024 coarse contour","resolution":"0.005 degree sampled grid","scope":"denmark","tileSource":"contours-denmark-coarse.geojson"},"geometry":{"type":"LineString","coordinates":[[12.085,55.171667],[12.065,55.173333],[12.06,55.170003],[12.04,55.167625],[12.019412,55.15],[12.025,55.14625],[12.035,55.146538],[12.04,55.139999],[12.045,55.14],[12.045,55.145],[12.05,55.143333],[12.055,55.137857],[12.05875,55.14],[12.06,55.15],[12.07,55.145833],[12.078571,55.155],[12.075588,55.165],[12.09,55.17],[12.085,55.171667]]}},{"type":"Feature","properties":{"depth":3,"source":"DDM 2024 coarse contour","resolution":"0.005 degree sampled grid","scope":"denmark","tileSource":"contours-denmark-coarse.geojson"},"geometry":{"type":"LineString","coordinates":[[11.719999,54.879317],[11.725,54.877714],[11.745,54.88],[11.75,54.870676],[11.753509,54.88],[11.75,54.882941],[11.745,54.88],[11.747846,54.885],[11.74,54.8875],[11.728864,54.905],[11.73,54.911111],[11.744103,54.915],[11.72,54.925909],[11.719999,54.925909]]}},{"type":"Feature","properties":{"depth":3,"source":"DDM 2024 coarse contour","resolution":"0.005 degree sampled grid","scope":"denmark","tileSource":"contours-denmark-coarse.geojson"},"geometry":{"type":"LineString","coordinates":[[11.719999,54.955195],[11.725,54.954565],[11.719999,54.958642]]}},{"type":"Feature","properties":{"depth":3,"source":"DDM 2024 coarse contour","resolution":"0.005 degree sampled grid","scope":"denmark","tileSource":"contours-denmark-coarse.geojson"},"geometry":{"type":"LineString","coordinates":[[11.719999,54.960853],[11.728095,54.965],[11.72,54.975],[11.725,54.97625],[11.75,54.974375],[11.755,54.968333],[11.775,54.967222],[11.79,54.960833],[11.793,54.965],[11.787273,54.97],[11.790833,54.975],[11.79,54.988333],[11.795,54.98375],[11.8,54.990455],[11.800769,54.985],[11.805,54.982885],[11.81,54.981447],[11.815,54.985],[11.811,54.98],[11.815,54.976716],[11.825,54.979773],[11.83,54.9727],[11.843571,54.97],[11.853889,54.96],[11.86,54.96006],[11.875,54.952083],[11.915,54.950311],[11.93,54.945205],[11.96,54.944969],[11.965,54.940517],[11.975,54.939913],[11.984937,54.93],[11.981494,54.925],[11.99,54.906761],[12,54.905206],[12.005,54.900652],[12.015,54.90034],[12.02,54.896146],[12.05,54.89497],[12.055,54.891707],[12.06,54.894979],[12.075,54.89543],[12.09,54.894932],[12.095,54.8908],[12.12,54.88993],[12.124974,54.885],[12.125,54.8775],[12.13,54.8725],[12.136765,54.875],[12.132273,54.87],[12.1592,54.85],[12.160714,54.845],[12.167857,54.84],[12.168553,54.835],[12.164269,54.829999]]}},{"type":"Feature","properties":{"depth":3,"source":"DDM 2024 coarse contour","resolution":"0.005 degree sampled grid","scope":"denmark","tileSource":"contours-denmark-coarse.geojson"},"geometry":{"type":"LineString","coordinates":[[11.745,54.868033],[11.741932,54.86],[11.745,54.851746],[11.755,54.846765],[11.76375,54.85],[11.75075,54.855],[11.749625,54.865],[11.745,54.868033]]}},{"type":"Feature","properties":{"depth":3,"source":"DDM 2024 coarse contour","resolution":"0.005 degree sampled grid","scope":"denmark","tileSource":"contours-denmark-coarse.geojson"},"geometry":{"type":"LineString","coordinates":[[12.195001,54.852308],[12.195,54.852308],[12.18,54.855],[12.177222,54.86],[12.195001,54.861136]]}},{"type":"Feature","properties":{"depth":3,"source":"DDM 2024 coarse contour","resolution":"0.005 degree sampled grid","scope":"denmark","tileSource":"contours-denmark-coarse.geojson"},"geometry":{"type":"LineString","coordinates":[[12.195001,55.218437],[12.195,55.218437],[12.16,55.208889],[12.135,55.1875],[12.115,55.179375],[12.11,55.165],[12.112239,55.15],[12.115,55.142453],[12.125,55.137692],[12.14,55.149333],[12.145,55.149],[12.149,55.145],[12.140333,55.135],[12.145,55.133056],[12.178333,55.135],[12.176071,55.145],[12.156071,55.16],[12.148611,55.17],[12.15,55.172778],[12.16,55.171154],[12.17,55.165],[12.16625,55.16],[12.185,55.1565],[12.195001,55.150651]]}},{"type":"Feature","properties":{"depth":3,"source":"DDM 2024 coarse contour","resolution":"0.005 degree sampled grid","scope":"denmark","tileSource":"contours-denmark-coarse.geojson"},"geometry":{"type":"LineString","coordinates":[[12.195001,54.878016],[12.172222,54.875],[12.195,54.87],[12.175,54.867738],[12.1704,54.865],[12.17,54.856],[12.165,54.86],[12.174167,54.87],[12.17,54.874612],[12.155,54.879903],[12.14,54.880074],[12.123608,54.895],[12.1,54.90371],[12.085,54.906429],[12.07,54.905047],[12.065,54.908738],[12.01,54.915023],[11.990125,54.93],[11.99,54.939807],[11.98,54.949444],[11.974474,54.95],[11.97,54.954928],[11.963333,54.955],[11.965,54.96],[11.97,54.955455],[11.975,54.958],[11.98,54.955714],[11.985,54.959975],[11.995,54.959961],[12,54.955889],[12.013312,54.965],[11.995,54.9655],[11.993732,54.97],[11.99,54.970026],[11.985726,54.97],[11.985,54.965],[11.97625,54.965],[11.9675,54.97],[11.96,54.98],[11.95,54.98],[11.945,54.984565],[11.94,54.983611],[11.93,54.988061],[11.915,54.98],[11.92,54.975],[11.93,54.98],[11.945,54.975227],[11.95,54.98],[11.9452,54.975],[11.955,54.966667],[11.955,54.9625],[11.945,54.969],[11.94,54.966],[11.935,54.974911],[11.93,54.974808],[11.925,54.969286],[11.92,54.975],[11.9,54.974214],[11.887984,54.98],[11.88,54.97918],[11.877917,54.98],[11.88,54.985011],[11.862333,54.995],[11.875,54.999989],[11.885,55.000007],[11.875,55.000011],[11.852308,55.01],[11.819286,55.025],[11.806111,55.035],[11.785,55.040008],[11.78,55.044],[11.73,55.050806],[11.725667,55.055],[11.719999,55.05501]]}},{"type":"Feature","properties":{"depth":3,"source":"DDM 2024 coarse contour","resolution":"0.005 degree sampled grid","scope":"denmark","tileSource":"contours-denmark-coarse.geojson"},"geometry":{"type":"LineString","coordinates":[[11.719999,55.074862],[11.728235,55.08],[11.719999,55.081391]]}},{"type":"Feature","properties":{"depth":3,"source":"DDM 2024 coarse contour","resolution":"0.005 degree sampled grid","scope":"denmark","tileSource":"contours-denmark-coarse.geojson"},"geometry":{"type":"LineString","coordinates":[[11.719999,55.109993],[11.72,55.11],[11.719999,55.110001]]}},{"type":"Feature","properties":{"depth":3,"source":"DDM 2024 coarse contour","resolution":"0.005 degree sampled grid","scope":"denmark","tileSource":"contours-denmark-coarse.geojson"},"geometry":{"type":"LineString","coordinates":[[12.065,54.946622],[12.04,54.945],[12.069,54.945],[12.065,54.946622]]}},{"type":"Feature","properties":{"depth":3,"source":"DDM 2024 coarse contour","resolution":"0.005 degree sampled grid","scope":"denmark","tileSource":"contours-denmark-coarse.geojson"},"geometry":{"type":"LineString","coordinates":[[12.155,54.989426],[12.14,54.979224],[12.125,54.974274],[12.12,54.968],[12.11,54.968701],[12.105,54.965014],[12.1,54.967738],[12.096974,54.965],[12.105,54.962364],[12.105625,54.955],[12.115,54.951833],[12.117209,54.955],[12.115,54.960753],[12.15625,54.975],[12.159286,54.985],[12.155,54.989426]]}},{"type":"Feature","properties":{"depth":3,"source":"DDM 2024 coarse contour","resolution":"0.005 degree sampled grid","scope":"denmark","tileSource":"contours-denmark-coarse.geojson"},"geometry":{"type":"LineString","coordinates":[[12.045,54.960022],[12.017436,54.96],[12.025,54.956193],[12.035,54.95604],[12.049891,54.96],[12.045,54.960022]]}},{"type":"Feature","properties":{"depth":3,"source":"DDM 2024 coarse contour","resolution":"0.005 degree sampled grid","scope":"denmark","tileSource":"contours-denmark-coarse.geojson"},"geometry":{"type":"LineString","coordinates":[[12.065,54.964286],[12.0501,54.96],[12.06,54.956635],[12.067727,54.96],[12.065,54.964286]]}},{"type":"Feature","properties":{"depth":3,"source":"DDM 2024 coarse contour","resolution":"0.005 degree sampled grid","scope":"denmark","tileSource":"contours-denmark-coarse.geojson"},"geometry":{"type":"LineString","coordinates":[[12.08,54.970028],[12.077632,54.965],[12.08,54.96125],[12.0875,54.965],[12.08459,54.97],[12.08,54.970028]]}},{"type":"Feature","properties":{"depth":3,"source":"DDM 2024 coarse contour","resolution":"0.005 degree sampled grid","scope":"denmark","tileSource":"contours-denmark-coarse.geojson"},"geometry":{"type":"LineString","coordinates":[[11.96,54.985],[11.96,54.98],[11.965,54.976667],[11.965714,54.98],[11.96,54.98],[11.96,54.985]]}},{"type":"Feature","properties":{"depth":3,"source":"DDM 2024 coarse contour","resolution":"0.005 degree sampled grid","scope":"denmark","tileSource":"contours-denmark-coarse.geojson"},"geometry":{"type":"LineString","coordinates":[[12.195001,54.994444],[12.195,54.994444],[12.191364,54.99],[12.195001,54.988927]]}},{"type":"Feature","properties":{"depth":3,"source":"DDM 2024 coarse contour","resolution":"0.005 degree sampled grid","scope":"denmark","tileSource":"contours-denmark-coarse.geojson"},"geometry":{"type":"LineString","coordinates":[[12.18,55.013871],[12.171538,55.01],[12.175746,55],[12.17,54.994333],[12.16,54.993866],[12.155354,54.99],[12.163,54.985],[12.165,54.98],[12.165003,54.985],[12.17,54.989994],[12.180556,54.99],[12.194,54.995],[12.183529,55.005],[12.18,55.013871]]}},{"type":"Feature","properties":{"depth":3,"source":"DDM 2024 coarse contour","resolution":"0.005 degree sampled grid","scope":"denmark","tileSource":"contours-denmark-coarse.geojson"},"geometry":{"type":"LineString","coordinates":[[11.95,54.995],[11.937,54.995],[11.945,54.987],[11.95,54.995]]}},{"type":"Feature","properties":{"depth":3,"source":"DDM 2024 coarse contour","resolution":"0.005 degree sampled grid","scope":"denmark","tileSource":"contours-denmark-coarse.geojson"},"geometry":{"type":"LineString","coordinates":[[12.17,55.0455],[12.165,55.049726],[12.1575,55.045],[12.16,55.04125],[12.165,55.041034],[12.17,55.0455]]}},{"type":"Feature","properties":{"depth":3,"source":"DDM 2024 coarse contour","resolution":"0.005 degree sampled grid","scope":"denmark","tileSource":"contours-denmark-coarse.geojson"},"geometry":{"type":"LineString","coordinates":[[11.8,55.065833],[11.785,55.065],[11.776667,55.06],[11.79,55.056667],[11.805,55.057391],[11.807069,55.06],[11.8,55.065833]]}},{"type":"Feature","properties":{"depth":3,"source":"DDM 2024 coarse contour","resolution":"0.005 degree sampled grid","scope":"denmark","tileSource":"contours-denmark-coarse.geojson"},"geometry":{"type":"LineString","coordinates":[[12.065,55.170556],[12.037105,55.165],[12.0225,55.15],[12.035,55.148462],[12.04,55.152222],[12.052857,55.145],[12.055,55.139643],[12.055455,55.15],[12.075,55.155],[12.072333,55.165],[12.065,55.170556]]}},{"type":"Feature","properties":{"depth":5,"source":"DDM 2024 coarse contour","resolution":"0.005 degree sampled grid","scope":"denmark","tileSource":"contours-denmark-coarse.geojson"},"geometry":{"type":"LineString","coordinates":[[12.195001,55.21143],[12.19,55.210882],[12.155,55.19],[12.115,55.176875],[12.111852,55.165],[12.116667,55.155],[12.113731,55.15],[12.115,55.14434],[12.125,55.140769],[12.135,55.150694],[12.155,55.154],[12.15,55.155],[12.149091,55.16],[12.14,55.168235],[12.14,55.176042],[12.165,55.178929],[12.17,55.17875],[12.175,55.17375],[12.18125,55.175],[12.18625,55.17],[12.175,55.164722],[12.19,55.163333],[12.195,55.155],[12.195001,55.155]]}},{"type":"Feature","properties":{"depth":5,"source":"DDM 2024 coarse contour","resolution":"0.005 degree sampled grid","scope":"denmark","tileSource":"contours-denmark-coarse.geojson"},"geometry":{"type":"LineString","coordinates":[[12.195001,54.83803],[12.19,54.834808],[12.175,54.841389],[12.17038,54.829999]]}},{"type":"Feature","properties":{"depth":5,"source":"DDM 2024 coarse contour","resolution":"0.005 degree sampled grid","scope":"denmark","tileSource":"contours-denmark-coarse.geojson"},"geometry":{"type":"LineString","coordinates":[[11.719999,54.891598],[11.725,54.888333],[11.735,54.88625],[11.735978,54.89],[11.730323,54.9],[11.719999,54.909029]]}},{"type":"Feature","properties":{"depth":5,"source":"DDM 2024 coarse contour","resolution":"0.005 degree sampled grid","scope":"denmark","tileSource":"contours-denmark-coarse.geojson"},"geometry":{"type":"LineString","coordinates":[[11.719999,54.911446],[11.722727,54.915],[11.72,54.919286],[11.719999,54.919286]]}},{"type":"Feature","properties":{"depth":5,"source":"DDM 2024 coarse contour","resolution":"0.005 degree sampled grid","scope":"denmark","tileSource":"contours-denmark-coarse.geojson"},"geometry":{"type":"LineString","coordinates":[[11.719999,54.98923],[11.72,54.989231],[11.73,54.990217],[11.745,54.981071],[11.75,54.9812],[11.7538,54.985],[11.74625,54.99],[11.75,54.993462],[11.755,54.995],[11.76,54.991136],[11.765,54.994167],[11.775,54.989118],[11.778182,54.995],[11.77,55],[11.78,55.001129],[11.785,55.0006],[11.795,54.99225],[11.8,54.995],[11.82,54.988611],[11.826,54.985],[11.83,54.9747],[11.845,54.971324],[11.855,54.962857],[11.88,54.956316],[11.885,54.952264],[11.96,54.944979],[11.975,54.939923],[11.984947,54.93],[11.982792,54.925],[11.989737,54.915],[11.99,54.908169],[12,54.906237],[12.005,54.901739],[12.055,54.892927],[12.075,54.896093],[12.12,54.88994],[12.125,54.881562],[12.140563,54.875],[12.15,54.8655],[12.17,54.866134],[12.173289,54.87],[12.17,54.873641],[12.155,54.879253],[12.14,54.880064],[12.13,54.890044],[12.115,54.898307],[12.065,54.907804],[12.035,54.9076],[12.01,54.915013],[11.990115,54.93],[11.99,54.939254],[11.985,54.944239],[11.97,54.953478],[11.94,54.959623],[11.935,54.963966],[11.925,54.964293],[11.92,54.96877],[11.91,54.969167],[11.886371,54.98],[11.88,54.977541],[11.865,54.979657],[11.859595,54.985],[11.86878,54.99],[11.858952,54.995],[11.864032,55.005],[11.85,55.006818],[11.845,55.013061],[11.835,55.017766],[11.807143,55.025],[11.78,55.041778],[11.74,55.048676],[11.735,55.04391],[11.72,55.044113],[11.719999,55.044113]]}},{"type":"Feature","properties":{"depth":5,"source":"DDM 2024 coarse contour","resolution":"0.005 degree sampled grid","scope":"denmark","tileSource":"contours-denmark-coarse.geojson"},"geometry":{"type":"LineString","coordinates":[[11.745,54.866393],[11.745,54.853333],[11.747763,54.855],[11.745,54.866393]]}},{"type":"Feature","properties":{"depth":5,"source":"DDM 2024 coarse contour","resolution":"0.005 degree sampled grid","scope":"denmark","tileSource":"contours-denmark-coarse.geojson"},"geometry":{"type":"LineString","coordinates":[[12.195001,54.867504],[12.18,54.868759],[12.1744,54.865],[12.18,54.861079],[12.195001,54.862367]]}},{"type":"Feature","properties":{"depth":5,"source":"DDM 2024 coarse contour","resolution":"0.005 degree sampled grid","scope":"denmark","tileSource":"contours-denmark-coarse.geojson"},"geometry":{"type":"LineString","coordinates":[[11.74,54.882857],[11.728333,54.88],[11.74,54.87963],[11.74,54.882857]]}},{"type":"Feature","properties":{"depth":5,"source":"DDM 2024 coarse contour","resolution":"0.005 degree sampled grid","scope":"denmark","tileSource":"contours-denmark-coarse.geojson"},"geometry":{"type":"LineString","coordinates":[[12,54.964048],[11.9775,54.96],[12,54.958111],[12,54.964048]]}},{"type":"Feature","properties":{"depth":5,"source":"DDM 2024 coarse contour","resolution":"0.005 degree sampled grid","scope":"denmark","tileSource":"contours-denmark-coarse.geojson"},"geometry":{"type":"LineString","coordinates":[[12.045,54.960012],[12.02,54.96],[12.035,54.95684],[12.047717,54.96],[12.045,54.960012]]}},{"type":"Feature","properties":{"depth":5,"source":"DDM 2024 coarse contour","resolution":"0.005 degree sampled grid","scope":"denmark","tileSource":"contours-denmark-coarse.geojson"},"geometry":{"type":"LineString","coordinates":[[12.115,54.9675],[12.099605,54.965],[12.105,54.964182],[12.11,54.957031],[12.1192,54.965],[12.115,54.9675]]}},{"type":"Feature","properties":{"depth":5,"source":"DDM 2024 coarse contour","resolution":"0.005 degree sampled grid","scope":"denmark","tileSource":"contours-denmark-coarse.geojson"},"geometry":{"type":"LineString","coordinates":[[11.96,54.973173],[11.956633,54.97],[11.958667,54.965],[11.965,54.964348],[11.96,54.973173]]}},{"type":"Feature","properties":{"depth":5,"source":"DDM 2024 coarse contour","resolution":"0.005 degree sampled grid","scope":"denmark","tileSource":"contours-denmark-coarse.geojson"},"geometry":{"type":"LineString","coordinates":[[12.15,54.983],[12.122295,54.97],[12.125,54.966633],[12.135,54.968308],[12.154286,54.98],[12.15,54.983]]}},{"type":"Feature","properties":{"depth":5,"source":"DDM 2024 coarse contour","resolution":"0.005 degree sampled grid","scope":"denmark","tileSource":"contours-denmark-coarse.geojson"},"geometry":{"type":"LineString","coordinates":[[12.18,55.004111],[12.170932,54.995],[12.175,54.990714],[12.182778,54.995],[12.184625,55],[12.18,55.004111]]}},{"type":"Feature","properties":{"depth":5,"source":"DDM 2024 coarse contour","resolution":"0.005 degree sampled grid","scope":"denmark","tileSource":"contours-denmark-coarse.geojson"},"geometry":{"type":"LineString","coordinates":[[11.788333,55.02],[11.8025,55.015],[11.79,55.014459],[11.785,55.019524],[11.778889,55.02],[11.788333,55.02]]}},{"type":"Feature","properties":{"depth":5,"source":"DDM 2024 coarse contour","resolution":"0.005 degree sampled grid","scope":"denmark","tileSource":"contours-denmark-coarse.geojson"},"geometry":{"type":"LineString","coordinates":[[11.8,55.061538],[11.79,55.062619],[11.785417,55.06],[11.8025,55.06],[11.8,55.061538]]}},{"type":"Feature","properties":{"depth":5,"source":"DDM 2024 coarse contour","resolution":"0.005 degree sampled grid","scope":"denmark","tileSource":"contours-denmark-coarse.geojson"},"geometry":{"type":"LineString","coordinates":[[12.16,55.153214],[12.156538,55.15],[12.157812,55.145],[12.15,55.142632],[12.1475,55.135],[12.16,55.135],[12.170625,55.14],[12.171964,55.145],[12.16,55.153214]]}},{"type":"Feature","properties":{"depth":10,"source":"DDM 2024 coarse contour","resolution":"0.005 degree sampled grid","scope":"denmark","tileSource":"contours-denmark-coarse.geojson"},"geometry":{"type":"LineString","coordinates":[[12.195001,55.195227],[12.192308,55.195],[12.195001,55.193811]]}},{"type":"Feature","properties":{"depth":10,"source":"DDM 2024 coarse contour","resolution":"0.005 degree sampled grid","scope":"denmark","tileSource":"contours-denmark-coarse.geojson"},"geometry":{"type":"LineString","coordinates":[[11.719999,55.020499],[11.725,55.021471],[11.73,55.016667],[11.7525,55.025],[11.75,55.031429],[11.719999,55.03449]]}},{"type":"Feature","properties":{"depth":10,"source":"DDM 2024 coarse contour","resolution":"0.005 degree sampled grid","scope":"denmark","tileSource":"contours-denmark-coarse.geojson"},"geometry":{"type":"LineString","coordinates":[[11.719999,55.035],[11.72,55.035],[11.72125,55.04],[11.719999,55.039927]]}},{"type":"Feature","properties":{"depth":10,"source":"DDM 2024 coarse contour","resolution":"0.005 degree sampled grid","scope":"denmark","tileSource":"contours-denmark-coarse.geojson"},"geometry":{"type":"LineString","coordinates":[[12.145,54.880009],[12.136262,54.88],[12.15,54.871424],[12.16,54.875],[12.145,54.880009]]}},{"type":"Feature","properties":{"depth":10,"source":"DDM 2024 coarse contour","resolution":"0.005 degree sampled grid","scope":"denmark","tileSource":"contours-denmark-coarse.geojson"},"geometry":{"type":"LineString","coordinates":[[11.915,54.965154],[11.9,54.965417],[11.913571,54.96],[11.902019,54.955],[11.975,54.939948],[12.005,54.904457],[12.05,54.8955],[12.08,54.897629],[12.12,54.889965],[12.135,54.881144],[12.13,54.890019],[12.095,54.902319],[12.035,54.902944],[12.015,54.909062],[11.975,54.948465],[11.915,54.965154]]}},{"type":"Feature","properties":{"depth":10,"source":"DDM 2024 coarse contour","resolution":"0.005 degree sampled grid","scope":"denmark","tileSource":"contours-denmark-coarse.geojson"},"geometry":{"type":"LineString","coordinates":[[11.895,54.963519],[11.881897,54.96],[11.895,54.955],[11.898016,54.96],[11.895,54.963519]]}},{"type":"Feature","properties":{"depth":10,"source":"DDM 2024 coarse contour","resolution":"0.005 degree sampled grid","scope":"denmark","tileSource":"contours-denmark-coarse.geojson"},"geometry":{"type":"LineString","coordinates":[[11.84,54.992059],[11.835625,54.99],[11.837273,54.985],[11.858725,54.965],[11.87,54.961455],[11.87725,54.965],[11.867727,54.97],[11.876481,54.975],[11.84,54.992059]]}},{"type":"Feature","properties":{"depth":10,"source":"DDM 2024 coarse contour","resolution":"0.005 degree sampled grid","scope":"denmark","tileSource":"contours-denmark-coarse.geojson"},"geometry":{"type":"LineString","coordinates":[[11.845,55.005238],[11.84,55.009655],[11.83686,55.005],[11.845,54.997193],[11.849571,55],[11.845,55.005238]]}},{"type":"Feature","properties":{"depth":10,"source":"DDM 2024 coarse contour","resolution":"0.005 degree sampled grid","scope":"denmark","tileSource":"contours-denmark-coarse.geojson"},"geometry":{"type":"LineString","coordinates":[[11.74,55.005769],[11.725,55.008667],[11.719999,55.007619]]}},{"type":"Feature","properties":{"depth":10,"source":"DDM 2024 coarse contour","resolution":"0.005 degree sampled grid","scope":"denmark","tileSource":"contours-denmark-coarse.geojson"},"geometry":{"type":"LineString","coordinates":[[11.719999,55.005296],[11.74,55.005769]]}},{"type":"Feature","properties":{"depth":10,"source":"DDM 2024 coarse contour","resolution":"0.005 degree sampled grid","scope":"denmark","tileSource":"contours-denmark-coarse.geojson"},"geometry":{"type":"LineString","coordinates":[[11.815,55.021484],[11.801818,55.02],[11.815,55.015781],[11.818214,55.02],[11.815,55.021484]]}},{"type":"Feature","properties":{"depth":10,"source":"DDM 2024 coarse contour","resolution":"0.005 degree sampled grid","scope":"denmark","tileSource":"contours-denmark-coarse.geojson"},"geometry":{"type":"LineString","coordinates":[[11.76,55.040192],[11.726,55.04],[11.73,55.035385],[11.755,55.036818],[11.8,55.021364],[11.802192,55.025],[11.76,55.040192]]}},{"type":"Feature","properties":{"depth":10,"source":"DDM 2024 coarse contour","resolution":"0.005 degree sampled grid","scope":"denmark","tileSource":"contours-denmark-coarse.geojson"},"geometry":{"type":"LineString","coordinates":[[12.165,55.188596],[12.131471,55.18],[12.119423,55.17],[12.135,55.162143],[12.14,55.178646],[12.169556,55.185],[12.165,55.188596]]}},{"type":"Feature","properties":{"depth":15,"source":"DDM 2024 coarse contour","resolution":"0.005 degree sampled grid","scope":"denmark","tileSource":"contours-denmark-coarse.geojson"},"geometry":{"type":"LineString","coordinates":[[12.095,54.900813],[12.081429,54.9],[12.09,54.9],[12.088393,54.895],[12.111522,54.895],[12.1,54.89582],[12.095,54.900813]]}},{"type":"Feature","properties":{"depth":15,"source":"DDM 2024 coarse contour","resolution":"0.005 degree sampled grid","scope":"denmark","tileSource":"contours-denmark-coarse.geojson"},"geometry":{"type":"LineString","coordinates":[[12.05,54.901818],[12.028929,54.9],[12.053448,54.9],[12.05,54.901818]]}},{"type":"Feature","properties":{"depth":15,"source":"DDM 2024 coarse contour","resolution":"0.005 degree sampled grid","scope":"denmark","tileSource":"contours-denmark-coarse.geojson"},"geometry":{"type":"LineString","coordinates":[[11.95,54.956176],[11.907879,54.955],[11.935,54.955],[11.94,54.949529],[11.96,54.947395],[11.98,54.937407],[11.995,54.915353],[12.005,54.912642],[11.985,54.940616],[11.95,54.956176]]}},{"type":"Feature","properties":{"depth":20,"source":"DDM 2024 coarse contour","resolution":"0.005 degree sampled grid","scope":"denmark","tileSource":"contours-denmark-coarse.geojson"},"geometry":{"type":"LineString","coordinates":[[11.99,54.93511],[11.985,54.938956],[11.982752,54.935],[12.001429,54.915],[11.99,54.93511]]}},{"type":"Feature","properties":{"depth":20,"source":"DDM 2024 coarse contour","resolution":"0.005 degree sampled grid","scope":"denmark","tileSource":"contours-denmark-coarse.geojson"},"geometry":{"type":"LineString","coordinates":[[11.975,54.946496],[11.966399,54.945],[11.983245,54.94],[11.975,54.946496]]}}]}