{"type":"FeatureCollection","name":"DDM contour tile r05_c00","bbox":[7.4,56.75,7.875,57.225],"metadata":{"schema":"waternav-ddm-contour-tile-v1","version":"v45.5","tileId":"r05_c00","source":"Danmarks Dybdemodel 2024 ddm_50m.dybde.tiff via bundled DDM contour GeoJSON files"},"features":[{"type":"Feature","properties":{"depth":20,"source":"DDM 2024 coarse contour","resolution":"0.005 degree sampled grid","scope":"denmark","tileSource":"contours-denmark-coarse.geojson"},"geometry":{"type":"LineString","coordinates":[[7.456923,56.805],[7.457812,56.8],[7.45,56.796023],[7.4375,56.8],[7.445,56.807973],[7.456923,56.805]]}},{"type":"Feature","properties":{"depth":20,"source":"DDM 2024 coarse contour","resolution":"0.005 degree sampled grid","scope":"denmark","tileSource":"contours-denmark-coarse.geojson"},"geometry":{"type":"LineString","coordinates":[[7.641429,56.96],[7.641111,56.95],[7.636,56.95],[7.633333,56.96],[7.64,56.963333],[7.641429,56.96]]}},{"type":"Feature","properties":{"depth":20,"source":"DDM 2024 coarse contour","resolution":"0.005 degree sampled grid","scope":"denmark","tileSource":"contours-denmark-coarse.geojson"},"geometry":{"type":"LineString","coordinates":[[7.691538,57.05],[7.665,57.03875],[7.645,57.04],[7.644167,57.045],[7.665,57.051304],[7.691538,57.05]]}},{"type":"Feature","properties":{"depth":30,"source":"DDM 2024 coarse contour","resolution":"0.005 degree sampled grid","scope":"denmark","tileSource":"contours-denmark-coarse.geojson"},"geometry":{"type":"LineString","coordinates":[[7.819323,56.749999],[7.826304,56.76],[7.825,56.765],[7.841923,56.785],[7.835,56.795],[7.825,56.787143],[7.8155,56.795],[7.814444,56.805],[7.83,56.796842],[7.839,56.805],[7.82413,56.815],[7.83375,56.82],[7.796667,56.835],[7.78625,56.85],[7.78,56.87],[7.795,56.89],[7.793333,56.9],[7.8,56.905],[7.875,56.888333],[7.875001,56.888333]]}},{"type":"Feature","properties":{"depth":30,"source":"DDM 2024 coarse contour","resolution":"0.005 degree sampled grid","scope":"denmark","tileSource":"contours-denmark-coarse.geojson"},"geometry":{"type":"LineString","coordinates":[[7.4,56.921667],[7.406471,56.94],[7.443889,56.965],[7.46,56.97],[7.475,56.960476],[7.482368,56.965],[7.480227,56.975],[7.485,56.977561],[7.5125,56.975],[7.535,56.983793],[7.523636,56.995],[7.525882,57.005],[7.56,57.013235],[7.563929,57.02],[7.56,57.025],[7.57,57.031],[7.577778,57.045],[7.535,57.0485],[7.51,57.036538],[7.495,57.04],[7.547,57.065],[7.59,57.077596],[7.63,57.081406],[7.65,57.090976],[7.7,57.094808],[7.705806,57.09],[7.710192,57.065],[7.705,57.054868],[7.715,57.049103],[7.735,57.047281],[7.744375,57.04],[7.731875,57],[7.713437,56.98],[7.68,56.963871],[7.662143,56.945],[7.614412,56.915],[7.586944,56.89],[7.575,56.871071],[7.533,56.845],[7.523333,56.835],[7.527812,56.815],[7.5255,56.805],[7.505,56.79],[7.466738,56.749999]]}},{"type":"Feature","properties":{"depth":30,"source":"DDM 2024 coarse contour","resolution":"0.005 degree sampled grid","scope":"denmark","tileSource":"contours-denmark-coarse.geojson"},"geometry":{"type":"LineString","coordinates":[[7.865,56.792727],[7.85875,56.79],[7.858571,56.785],[7.866765,56.79],[7.865,56.792727]]}},{"type":"Feature","properties":{"depth":30,"source":"DDM 2024 coarse contour","resolution":"0.005 degree sampled grid","scope":"denmark","tileSource":"contours-denmark-coarse.geojson"},"geometry":{"type":"LineString","coordinates":[[7.672,56.815],[7.678636,56.81],[7.6775,56.805],[7.665,56.79598],[7.65,56.795758],[7.634412,56.805],[7.645,56.817222],[7.672,56.815]]}},{"type":"Feature","properties":{"depth":30,"source":"DDM 2024 coarse contour","resolution":"0.005 degree sampled grid","scope":"denmark","tileSource":"contours-denmark-coarse.geojson"},"geometry":{"type":"LineString","coordinates":[[7.845,56.801111],[7.837222,56.8],[7.835,56.795],[7.84,56.79],[7.8475,56.795],[7.845,56.801111]]}},{"type":"Feature","properties":{"depth":30,"source":"DDM 2024 coarse contour","resolution":"0.005 degree sampled grid","scope":"denmark","tileSource":"contours-denmark-coarse.geojson"},"geometry":{"type":"LineString","coordinates":[[7.4,56.823571],[7.41,56.8225],[7.418846,56.835],[7.415,56.845],[7.4325,56.855],[7.423333,56.86],[7.424615,56.865],[7.455,56.868462],[7.455,56.880625],[7.475,56.899375],[7.5,56.912],[7.536875,56.95],[7.537222,56.955],[7.532,56.96],[7.52125,56.96],[7.515,56.949091],[7.485,56.933929],[7.461364,56.915],[7.458571,56.905],[7.44,56.892143],[7.4,56.878947]]}},{"type":"Feature","properties":{"depth":30,"source":"DDM 2024 coarse contour","resolution":"0.005 degree sampled grid","scope":"denmark","tileSource":"contours-denmark-coarse.geojson"},"geometry":{"type":"LineString","coordinates":[[7.74,56.86],[7.735,56.848333],[7.72125,56.845],[7.72125,56.855],[7.74,56.86]]}},{"type":"Feature","properties":{"depth":30,"source":"DDM 2024 coarse contour","resolution":"0.005 degree sampled grid","scope":"denmark","tileSource":"contours-denmark-coarse.geojson"},"geometry":{"type":"LineString","coordinates":[[7.866833,56.965],[7.855,56.940556],[7.84,56.939091],[7.823182,56.93],[7.841875,56.96],[7.855,56.9675],[7.866833,56.965]]}},{"type":"Feature","properties":{"depth":30,"source":"DDM 2024 coarse contour","resolution":"0.005 degree sampled grid","scope":"denmark","tileSource":"contours-denmark-coarse.geojson"},"geometry":{"type":"LineString","coordinates":[[7.47,57.03],[7.465,57.024211],[7.455556,57.025],[7.47,57.03]]}},{"type":"Feature","properties":{"depth":30,"source":"DDM 2024 coarse contour","resolution":"0.005 degree sampled grid","scope":"denmark","tileSource":"contours-denmark-coarse.geojson"},"geometry":{"type":"LineString","coordinates":[[7.48119,57.035],[7.47,57.03],[7.48,57.04],[7.48119,57.035]]}},{"type":"Feature","properties":{"depth":30,"source":"DDM 2024 coarse contour","resolution":"0.005 degree sampled grid","scope":"denmark","tileSource":"contours-denmark-coarse.geojson"},"geometry":{"type":"LineString","coordinates":[[7.6,57.062222],[7.591667,57.06],[7.595,57.055],[7.6025,57.055],[7.605,57.06],[7.6,57.062222]]}},{"type":"Feature","properties":{"depth":30,"source":"DDM 2024 coarse contour","resolution":"0.005 degree sampled grid","scope":"denmark","tileSource":"contours-denmark-coarse.geojson"},"geometry":{"type":"LineString","coordinates":[[7.4,57.101744],[7.43,57.103289],[7.46,57.096591],[7.466,57.09],[7.445,57.082727],[7.425,57.083],[7.4,57.061042]]}},{"type":"Feature","properties":{"depth":50,"source":"DDM 2024 coarse contour","resolution":"0.005 degree sampled grid","scope":"denmark","tileSource":"contours-denmark-coarse.geojson"},"geometry":{"type":"LineString","coordinates":[[7.4,57.155],[7.455,57.16],[7.51,57.157857],[7.52,57.143889],[7.535,57.138421],[7.55,57.151154],[7.58,57.149583],[7.605,57.15425],[7.66,57.1745],[7.72,57.18],[7.74,57.169722],[7.733889,57.19],[7.723636,57.2],[7.73,57.204091],[7.735,57.198462],[7.74125,57.2],[7.745,57.207813],[7.76,57.207581],[7.773571,57.2],[7.76,57.186667],[7.749167,57.185],[7.755,57.179231],[7.775,57.182273],[7.81,57.170952],[7.821667,57.18],[7.812857,57.195],[7.833437,57.185],[7.831667,57.18],[7.841818,57.17],[7.822,57.16],[7.817692,57.145],[7.803125,57.135],[7.806667,57.13],[7.801667,57.12],[7.812143,57.12],[7.82,57.135357],[7.849375,57.14],[7.86,57.152083],[7.875001,57.158802]]}},{"type":"Feature","properties":{"depth":50,"source":"DDM 2024 coarse contour","resolution":"0.005 degree sampled grid","scope":"denmark","tileSource":"contours-denmark-coarse.geojson"},"geometry":{"type":"LineString","coordinates":[[7.875001,57.182143],[7.85,57.194286],[7.851667,57.21],[7.837727,57.215],[7.83875,57.22],[7.845901,57.225001]]}},{"type":"Feature","properties":{"depth":50,"source":"DDM 2024 coarse contour","resolution":"0.005 degree sampled grid","scope":"denmark","tileSource":"contours-denmark-coarse.geojson"},"geometry":{"type":"LineString","coordinates":[[7.859623,57.225001],[7.863256,57.22],[7.857273,57.215],[7.858333,57.21],[7.875,57.205],[7.875001,57.204999]]}},{"type":"Feature","properties":{"depth":50,"source":"DDM 2024 coarse contour","resolution":"0.005 degree sampled grid","scope":"denmark","tileSource":"contours-denmark-coarse.geojson"},"geometry":{"type":"LineString","coordinates":[[7.6205,57.2],[7.623571,57.195],[7.62,57.190833],[7.61,57.189412],[7.60125,57.195],[7.605,57.200385],[7.6205,57.2]]}},{"type":"Feature","properties":{"depth":50,"source":"DDM 2024 coarse contour","resolution":"0.005 degree sampled grid","scope":"denmark","tileSource":"contours-denmark-coarse.geojson"},"geometry":{"type":"LineString","coordinates":[[7.875001,57.215974],[7.87,57.211],[7.865714,57.215],[7.87,57.221486],[7.875001,57.220665]]}},{"type":"Feature","properties":{"depth":50,"source":"DDM 2024 coarse contour","resolution":"0.005 degree sampled grid","scope":"denmark","tileSource":"contours-denmark-coarse.geojson"},"geometry":{"type":"LineString","coordinates":[[7.671,57.225],[7.65,57.218163],[7.6275,57.225],[7.671,57.225]]}}]}