{"type":"FeatureCollection","name":"DDM contour tile r01_c02","bbox":[8.36,54.83,8.835,55.305],"metadata":{"schema":"waternav-ddm-contour-tile-v1","version":"v45.8","tileId":"r01_c02","source":"Danmarks Dybdemodel 2024 ddm_50m.dybde.tiff via bundled DDM contour GeoJSON files"},"features":[{"type":"Feature","properties":{"depth":1,"source":"DDM 2024 coarse contour","resolution":"0.005 degree sampled grid","scope":"denmark","tileSource":"contours-denmark-coarse.geojson"},"geometry":{"type":"LineString","coordinates":[[8.359999,55.069976],[8.36,55.069977],[8.415,55.06992],[8.42,55.064895],[8.44,55.064866],[8.445,55.059898],[8.465,55.059844],[8.47,55.054909],[8.475,55.054855],[8.479866,55.05],[8.479979,55.04],[8.474969,55.035],[8.474981,55.025],[8.49,55.009946],[8.499608,55.01],[8.494659,55.015],[8.498,55.025],[8.518333,55.045],[8.5,55.052],[8.499872,55.06],[8.495,55.065002],[8.482,55.065],[8.49,55.065278],[8.490008,55.07],[8.46,55.09418],[8.445,55.095],[8.46,55.098333],[8.465003,55.12],[8.470004,55.125],[8.473056,55.17],[8.464,55.175],[8.475,55.177381],[8.475,55.183056],[8.467,55.185],[8.475,55.19],[8.48,55.189444],[8.494,55.205],[8.49,55.21],[8.505,55.210298],[8.51,55.214956],[8.53,55.214972],[8.535,55.21],[8.55,55.209971],[8.559167,55.205],[8.58,55.205714],[8.585,55.21],[8.578333,55.2],[8.595,55.195102],[8.6,55.190181],[8.61,55.199375],[8.617222,55.2],[8.615,55.205],[8.61,55.20125],[8.595,55.204615],[8.575,55.214643],[8.530714,55.22],[8.528125,55.225],[8.535,55.230347],[8.545,55.23],[8.55,55.235],[8.555,55.23],[8.565,55.235],[8.56,55.23625],[8.56,55.240273],[8.57,55.238333],[8.585,55.2425],[8.595,55.25],[8.6025,55.25],[8.59,55.251],[8.58,55.257],[8.5785,55.265],[8.588864,55.27],[8.585,55.273864],[8.575,55.27275],[8.565833,55.265],[8.57,55.26],[8.560735,55.25],[8.545,55.244583],[8.54,55.239821],[8.525,55.238333],[8.523,55.235],[8.51625,55.235],[8.5175,55.24],[8.505,55.25],[8.495,55.2525],[8.475,55.25],[8.47,55.245],[8.466667,55.23],[8.486875,55.22],[8.4675,55.22],[8.46,55.2295],[8.4475,55.235],[8.453214,55.24],[8.455,55.25],[8.47,55.251667],[8.475,55.255],[8.469,55.26],[8.481111,55.275],[8.487188,55.305],[8.497083,55.305],[8.494167,55.295],[8.505,55.28625],[8.53,55.288182],[8.54,55.2925],[8.547222,55.3],[8.546423,55.305001]]}},{"type":"Feature","properties":{"depth":1,"source":"DDM 2024 coarse contour","resolution":"0.005 degree sampled grid","scope":"denmark","tileSource":"contours-denmark-coarse.geojson"},"geometry":{"type":"LineString","coordinates":[[8.56,54.979286],[8.559998,54.95],[8.5575,54.945],[8.559999,54.94],[8.554995,54.935],[8.555,54.925],[8.565,54.92625],[8.57,54.9325],[8.575,54.926667],[8.59,54.925],[8.594,54.92],[8.605,54.919994],[8.61,54.914999],[8.625,54.91537],[8.635001,54.92],[8.635014,54.925],[8.640002,54.93],[8.640625,54.945],[8.649231,54.955],[8.652143,54.965],[8.635,54.969],[8.608333,54.96],[8.608333,54.95],[8.6,54.945],[8.585,54.945],[8.58,54.94],[8.575,54.94],[8.58,54.945],[8.58,54.95],[8.562,54.96],[8.56375,54.975],[8.56,54.979286]]}},{"type":"Feature","properties":{"depth":1,"source":"DDM 2024 coarse contour","resolution":"0.005 degree sampled grid","scope":"denmark","tileSource":"contours-denmark-coarse.geojson"},"geometry":{"type":"LineString","coordinates":[[8.58,54.997],[8.55,54.998333],[8.545,54.995],[8.54,55],[8.515,54.999811],[8.515,54.994975],[8.555,54.994999],[8.57,54.993125],[8.575,54.988636],[8.581667,54.995],[8.58,54.997]]}},{"type":"Feature","properties":{"depth":1,"source":"DDM 2024 coarse contour","resolution":"0.005 degree sampled grid","scope":"denmark","tileSource":"contours-denmark-coarse.geojson"},"geometry":{"type":"LineString","coordinates":[[8.59,55.093333],[8.575,55.093793],[8.571562,55.09],[8.575,55.080833],[8.585,55.0765],[8.590556,55.085],[8.59,55.093333]]}},{"type":"Feature","properties":{"depth":1,"source":"DDM 2024 coarse contour","resolution":"0.005 degree sampled grid","scope":"denmark","tileSource":"contours-denmark-coarse.geojson"},"geometry":{"type":"LineString","coordinates":[[8.56,55.113095],[8.555882,55.1],[8.56,55.096957],[8.5665,55.1],[8.561667,55.105],[8.564643,55.11],[8.56,55.113095]]}},{"type":"Feature","properties":{"depth":1,"source":"DDM 2024 coarse contour","resolution":"0.005 degree sampled grid","scope":"denmark","tileSource":"contours-denmark-coarse.geojson"},"geometry":{"type":"LineString","coordinates":[[8.57,55.126],[8.564,55.125],[8.564375,55.12],[8.57,55.117174],[8.581,55.12],[8.57,55.126]]}},{"type":"Feature","properties":{"depth":1,"source":"DDM 2024 coarse contour","resolution":"0.005 degree sampled grid","scope":"denmark","tileSource":"contours-denmark-coarse.geojson"},"geometry":{"type":"LineString","coordinates":[[8.63,55.16625],[8.62,55.168333],[8.607857,55.165],[8.615,55.165],[8.613571,55.16],[8.625,55.153333],[8.62875,55.155],[8.6275,55.16],[8.632,55.165],[8.63,55.16625]]}},{"type":"Feature","properties":{"depth":1,"source":"DDM 2024 coarse contour","resolution":"0.005 degree sampled grid","scope":"denmark","tileSource":"contours-denmark-coarse.geojson"},"geometry":{"type":"LineString","coordinates":[[8.58,55.175009],[8.574994,55.17],[8.575,55.164286],[8.58,55.163333],[8.584286,55.17],[8.5836,55.175],[8.58,55.175009]]}},{"type":"Feature","properties":{"depth":1,"source":"DDM 2024 coarse contour","resolution":"0.005 degree sampled grid","scope":"denmark","tileSource":"contours-denmark-coarse.geojson"},"geometry":{"type":"LineString","coordinates":[[8.61,55.193158],[8.605,55.1949],[8.600288,55.19],[8.61,55.175909],[8.614737,55.18],[8.615,55.185],[8.61,55.193158]]}},{"type":"Feature","properties":{"depth":1,"source":"DDM 2024 coarse contour","resolution":"0.005 degree sampled grid","scope":"denmark","tileSource":"contours-denmark-coarse.geojson"},"geometry":{"type":"LineString","coordinates":[[8.63,55.188824],[8.624286,55.185],[8.63,55.178333],[8.635,55.18],[8.634643,55.185],[8.63,55.188824]]}},{"type":"Feature","properties":{"depth":1,"source":"DDM 2024 coarse contour","resolution":"0.005 degree sampled grid","scope":"denmark","tileSource":"contours-denmark-coarse.geojson"},"geometry":{"type":"LineString","coordinates":[[8.51,55.277],[8.5,55.279167],[8.495833,55.275],[8.51,55.2675],[8.515,55.27],[8.51,55.277]]}},{"type":"Feature","properties":{"depth":1,"source":"DDM 2024 coarse contour","resolution":"0.005 degree sampled grid","scope":"denmark","tileSource":"contours-denmark-coarse.geojson"},"geometry":{"type":"LineString","coordinates":[[8.475455,55.3],[8.43,55.289189],[8.415714,55.29],[8.43,55.300163],[8.475455,55.3]]}},{"type":"Feature","properties":{"depth":2,"source":"DDM 2024 coarse contour","resolution":"0.005 degree sampled grid","scope":"denmark","tileSource":"contours-denmark-coarse.geojson"},"geometry":{"type":"LineString","coordinates":[[8.359999,55.069981],[8.36,55.069982],[8.415,55.069925],[8.42,55.0649],[8.44,55.064871],[8.445,55.059903],[8.465,55.059849],[8.47,55.054914],[8.475,55.05486],[8.479871,55.05],[8.479984,55.04],[8.474974,55.035],[8.474986,55.025],[8.49,55.009951],[8.498627,55.01],[8.489737,55.025],[8.498929,55.035],[8.503077,55.045],[8.499189,55.05],[8.49859,55.06],[8.495,55.064118],[8.472273,55.065],[8.485,55.066327],[8.490003,55.07],[8.48,55.0748],[8.47,55.072391],[8.467857,55.075],[8.476136,55.08],[8.47,55.083778],[8.455,55.082632],[8.45,55.085],[8.465,55.0865],[8.465007,55.09],[8.46,55.093361],[8.4375,55.095],[8.458077,55.1],[8.442857,55.105],[8.455,55.107083],[8.469091,55.125],[8.465333,55.13],[8.47,55.135],[8.466471,55.14],[8.469706,55.145],[8.468333,55.155],[8.46375,55.16],[8.470278,55.17],[8.458,55.175],[8.475,55.180278],[8.456875,55.185],[8.471154,55.19],[8.46,55.193],[8.445714,55.19],[8.453,55.185],[8.445,55.182115],[8.426875,55.185],[8.435,55.189444],[8.44,55.1876],[8.444286,55.19],[8.44,55.193158],[8.43,55.191818],[8.427667,55.195],[8.435,55.2],[8.44,55.196667],[8.46,55.1966],[8.465,55.2],[8.48,55.200714],[8.487222,55.21],[8.505,55.210893],[8.51,55.214961],[8.53,55.214977],[8.536724,55.21],[8.55,55.209976],[8.555,55.206087],[8.575,55.205854],[8.579722,55.21],[8.575,55.214048],[8.55,55.214712],[8.526538,55.22],[8.523214,55.225],[8.531875,55.23],[8.545,55.232273],[8.57,55.24575],[8.577143,55.255],[8.576,55.265],[8.586591,55.27],[8.575,55.27025],[8.568611,55.265],[8.573125,55.26],[8.569333,55.255],[8.54,55.238929],[8.53,55.238429],[8.515,55.232188],[8.505,55.234545],[8.49,55.233],[8.485833,55.225],[8.490833,55.22],[8.475,55.216481],[8.462813,55.22],[8.455,55.228462],[8.445,55.228182],[8.441786,55.235],[8.45,55.2425],[8.450455,55.25],[8.463571,55.255],[8.4525,55.26],[8.47,55.263438],[8.47,55.267778],[8.465,55.27],[8.477333,55.275],[8.475,55.279375],[8.462857,55.28],[8.468889,55.285],[8.463,55.29],[8.468333,55.295],[8.405,55.283871],[8.380357,55.29],[8.395,55.290909],[8.405,55.297586],[8.42,55.294706],[8.43,55.300569],[8.475,55.302619],[8.48092,55.305001]]}},{"type":"Feature","properties":{"depth":2,"source":"DDM 2024 coarse contour","resolution":"0.005 degree sampled grid","scope":"denmark","tileSource":"contours-denmark-coarse.geojson"},"geometry":{"type":"LineString","coordinates":[[8.501251,55.305001],[8.50125,55.305],[8.500714,55.3],[8.51,55.293125],[8.525,55.291538],[8.5375,55.295],[8.543462,55.305],[8.543461,55.305001]]}},{"type":"Feature","properties":{"depth":2,"source":"DDM 2024 coarse contour","resolution":"0.005 degree sampled grid","scope":"denmark","tileSource":"contours-denmark-coarse.geojson"},"geometry":{"type":"LineString","coordinates":[[8.63,54.946667],[8.62,54.947143],[8.605,54.942],[8.596818,54.935],[8.594444,54.93],[8.5965,54.925],[8.61,54.917333],[8.625,54.917222],[8.635,54.9214],[8.64,54.938636],[8.63,54.946667]]}},{"type":"Feature","properties":{"depth":2,"source":"DDM 2024 coarse contour","resolution":"0.005 degree sampled grid","scope":"denmark","tileSource":"contours-denmark-coarse.geojson"},"geometry":{"type":"LineString","coordinates":[[8.64,54.965667],[8.62375,54.96],[8.63,54.953333],[8.645,54.9545],[8.648214,54.96],[8.64,54.965667]]}},{"type":"Feature","properties":{"depth":2,"source":"DDM 2024 coarse contour","resolution":"0.005 degree sampled grid","scope":"denmark","tileSource":"contours-denmark-coarse.geojson"},"geometry":{"type":"LineString","coordinates":[[8.416111,55.075],[8.409643,55.075],[8.405,55.08],[8.416111,55.075]]}},{"type":"Feature","properties":{"depth":2,"source":"DDM 2024 coarse contour","resolution":"0.005 degree sampled grid","scope":"denmark","tileSource":"contours-denmark-coarse.geojson"},"geometry":{"type":"LineString","coordinates":[[8.585,55.091667],[8.575,55.092069],[8.575,55.083611],[8.585,55.0806],[8.588548,55.085],[8.585,55.091667]]}},{"type":"Feature","properties":{"depth":2,"source":"DDM 2024 coarse contour","resolution":"0.005 degree sampled grid","scope":"denmark","tileSource":"contours-denmark-coarse.geojson"},"geometry":{"type":"LineString","coordinates":[[8.61,55.190526],[8.605,55.1939],[8.60125,55.19],[8.60775,55.185],[8.61,55.178182],[8.612368,55.185],[8.61,55.190526]]}},{"type":"Feature","properties":{"depth":2,"source":"DDM 2024 coarse contour","resolution":"0.005 degree sampled grid","scope":"denmark","tileSource":"contours-denmark-coarse.geojson"},"geometry":{"type":"LineString","coordinates":[[8.6,55.202083],[8.595,55.203654],[8.59025,55.2],[8.6,55.190783],[8.604321,55.195],[8.603846,55.2],[8.6,55.202083]]}},{"type":"Feature","properties":{"depth":2,"source":"DDM 2024 coarse contour","resolution":"0.005 degree sampled grid","scope":"denmark","tileSource":"contours-denmark-coarse.geojson"},"geometry":{"type":"LineString","coordinates":[[8.432059,55.21],[8.43,55.205],[8.419091,55.21],[8.432059,55.21]]}},{"type":"Feature","properties":{"depth":3,"source":"DDM 2024 coarse contour","resolution":"0.005 degree sampled grid","scope":"denmark","tileSource":"contours-denmark-coarse.geojson"},"geometry":{"type":"LineString","coordinates":[[8.359999,55.069986],[8.36,55.069987],[8.415,55.06993],[8.42,55.064905],[8.44,55.064875],[8.445,55.059907],[8.465,55.059854],[8.47,55.054919],[8.475,55.054865],[8.479876,55.05],[8.479989,55.04],[8.474979,55.035],[8.474991,55.025],[8.49,55.009956],[8.497647,55.01],[8.487105,55.025],[8.499351,55.04],[8.497308,55.06],[8.49,55.06396],[8.468958,55.065],[8.460833,55.07],[8.474138,55.08],[8.47,55.082667],[8.455,55.08],[8.45,55.083837],[8.445769,55.08],[8.45,55.075541],[8.455,55.08],[8.451333,55.075],[8.453929,55.07],[8.45,55.069613],[8.444923,55.07],[8.44,55.075],[8.429286,55.07],[8.425,55.075],[8.368077,55.08],[8.385,55.086786],[8.405,55.086429],[8.41,55.083],[8.4175,55.085],[8.416364,55.08],[8.42,55.076364],[8.424444,55.08],[8.421667,55.085],[8.425,55.086],[8.44,55.075],[8.44375,55.08],[8.443,55.085],[8.465,55.089],[8.455,55.093272],[8.42,55.0925],[8.415625,55.095],[8.44,55.096228],[8.4465,55.1],[8.44,55.104388],[8.43,55.105],[8.445,55.10825],[8.464444,55.125],[8.453333,55.13],[8.465,55.131731],[8.468148,55.135],[8.465,55.138864],[8.453333,55.14],[8.466765,55.145],[8.463182,55.155],[8.457083,55.16],[8.463571,55.17],[8.441875,55.175],[8.445,55.179167],[8.45,55.175323],[8.463846,55.18],[8.455,55.183462],[8.445,55.180192],[8.425,55.181111],[8.418333,55.185],[8.428636,55.19],[8.425,55.194444],[8.415,55.192093],[8.398636,55.195],[8.415,55.198472],[8.425,55.195227],[8.43,55.197429],[8.433214,55.2],[8.43,55.203214],[8.414286,55.21],[8.425,55.215],[8.435,55.21],[8.44,55.199048],[8.475,55.200612],[8.4825,55.205],[8.48,55.208684],[8.468333,55.21],[8.473,55.215],[8.465,55.217167],[8.45,55.217692],[8.446818,55.215],[8.451071,55.21],[8.445,55.2125],[8.435,55.21],[8.438396,55.215],[8.435,55.225],[8.439808,55.23],[8.435,55.2375],[8.4275,55.235],[8.424167,55.23],[8.417222,55.23],[8.424688,55.235],[8.425,55.241667],[8.435,55.241111],[8.442143,55.25],[8.456429,55.255],[8.447813,55.26],[8.458333,55.265],[8.452,55.275],[8.457273,55.28],[8.455,55.284167],[8.43,55.286486],[8.395,55.283261],[8.375,55.289038],[8.366,55.295],[8.375,55.3],[8.37,55.304286],[8.36,55.3025],[8.359999,55.302504]]}},{"type":"Feature","properties":{"depth":3,"source":"DDM 2024 coarse contour","resolution":"0.005 degree sampled grid","scope":"denmark","tileSource":"contours-denmark-coarse.geojson"},"geometry":{"type":"LineString","coordinates":[[8.359999,55.305],[8.370625,55.305],[8.375,55.3],[8.38,55.3],[8.38125,55.295],[8.39,55.293704],[8.405,55.29931],[8.42,55.295643],[8.43,55.300976],[8.453386,55.305001]]}},{"type":"Feature","properties":{"depth":3,"source":"DDM 2024 coarse contour","resolution":"0.005 degree sampled grid","scope":"denmark","tileSource":"contours-denmark-coarse.geojson"},"geometry":{"type":"LineString","coordinates":[[8.474995,55.305001],[8.475,55.305],[8.475002,55.305001]]}},{"type":"Feature","properties":{"depth":3,"source":"DDM 2024 coarse contour","resolution":"0.005 degree sampled grid","scope":"denmark","tileSource":"contours-denmark-coarse.geojson"},"geometry":{"type":"LineString","coordinates":[[8.63,54.942],[8.615,54.942187],[8.605,54.938],[8.5995,54.93],[8.601667,54.925],[8.615,54.9195],[8.63,54.92027],[8.635,54.9234],[8.639615,54.935],[8.63,54.942]]}},{"type":"Feature","properties":{"depth":3,"source":"DDM 2024 coarse contour","resolution":"0.005 degree sampled grid","scope":"denmark","tileSource":"contours-denmark-coarse.geojson"},"geometry":{"type":"LineString","coordinates":[[8.485,55.072549],[8.48,55.0738],[8.469167,55.07],[8.48,55.066607],[8.489483,55.07],[8.485,55.072549]]}},{"type":"Feature","properties":{"depth":3,"source":"DDM 2024 coarse contour","resolution":"0.005 degree sampled grid","scope":"denmark","tileSource":"contours-denmark-coarse.geojson"},"geometry":{"type":"LineString","coordinates":[[8.58,55.090435],[8.574687,55.09],[8.575962,55.085],[8.585,55.0826],[8.585,55.089615],[8.58,55.090435]]}},{"type":"Feature","properties":{"depth":3,"source":"DDM 2024 coarse contour","resolution":"0.005 degree sampled grid","scope":"denmark","tileSource":"contours-denmark-coarse.geojson"},"geometry":{"type":"LineString","coordinates":[[8.412143,55.185],[8.405,55.183],[8.398333,55.185],[8.412143,55.185]]}},{"type":"Feature","properties":{"depth":3,"source":"DDM 2024 coarse contour","resolution":"0.005 degree sampled grid","scope":"denmark","tileSource":"contours-denmark-coarse.geojson"},"geometry":{"type":"LineString","coordinates":[[8.595,55.202692],[8.5915,55.2],[8.595,55.197143],[8.6,55.2],[8.596296,55.195],[8.6,55.191386],[8.603704,55.195],[8.595,55.202692]]}},{"type":"Feature","properties":{"depth":3,"source":"DDM 2024 coarse contour","resolution":"0.005 degree sampled grid","scope":"denmark","tileSource":"contours-denmark-coarse.geojson"},"geometry":{"type":"LineString","coordinates":[[8.515,55.229375],[8.5,55.229474],[8.493125,55.225],[8.4925,55.22],[8.477,55.215],[8.485,55.210333],[8.505,55.211488],[8.51,55.214966],[8.53,55.214982],[8.538448,55.21],[8.565,55.205979],[8.575,55.206463],[8.579028,55.21],[8.575,55.213452],[8.55,55.21375],[8.522692,55.22],[8.515,55.229375]]}},{"type":"Feature","properties":{"depth":3,"source":"DDM 2024 coarse contour","resolution":"0.005 degree sampled grid","scope":"denmark","tileSource":"contours-denmark-coarse.geojson"},"geometry":{"type":"LineString","coordinates":[[8.413056,55.24],[8.405278,55.235],[8.403333,55.23],[8.4075,55.225],[8.405,55.221818],[8.395,55.225],[8.406562,55.24],[8.41,55.242391],[8.413056,55.24]]}},{"type":"Feature","properties":{"depth":3,"source":"DDM 2024 coarse contour","resolution":"0.005 degree sampled grid","scope":"denmark","tileSource":"contours-denmark-coarse.geojson"},"geometry":{"type":"LineString","coordinates":[[8.56,55.247807],[8.545,55.242917],[8.54,55.238036],[8.53,55.237],[8.527812,55.235],[8.53,55.230333],[8.54,55.232069],[8.56,55.242091],[8.563902,55.245],[8.56,55.247807]]}},{"type":"Feature","properties":{"depth":3,"source":"DDM 2024 coarse contour","resolution":"0.005 degree sampled grid","scope":"denmark","tileSource":"contours-denmark-coarse.geojson"},"geometry":{"type":"LineString","coordinates":[[8.505385,55.305001],[8.505385,55.305],[8.515,55.296538],[8.53,55.295769],[8.5375,55.3],[8.539643,55.305],[8.539642,55.305001]]}},{"type":"Feature","properties":{"depth":5,"source":"DDM 2024 coarse contour","resolution":"0.005 degree sampled grid","scope":"denmark","tileSource":"contours-denmark-coarse.geojson"},"geometry":{"type":"LineString","coordinates":[[8.359999,55.069996],[8.36,55.069997],[8.415,55.069939],[8.42,55.064915],[8.44,55.064885],[8.445,55.059917],[8.465,55.059864],[8.47,55.054929],[8.475,55.054875],[8.479886,55.05],[8.479999,55.04],[8.474989,55.035],[8.475,55.025159],[8.478333,55.025],[8.49,55.009966],[8.495686,55.01],[8.480385,55.025],[8.498052,55.04],[8.494839,55.06],[8.49,55.06297],[8.46,55.064783],[8.44,55.073437],[8.425,55.069617],[8.42,55.073487],[8.405,55.074167],[8.395,55.078214],[8.375,55.074167],[8.37,55.077945],[8.365,55.076],[8.364231,55.08],[8.368148,55.085],[8.366667,55.09],[8.38,55.095],[8.37,55.099375],[8.365,55.096667],[8.361,55.105],[8.415,55.108793],[8.425,55.106136],[8.437353,55.11],[8.425,55.113864],[8.415,55.111842],[8.3915,55.115],[8.41,55.119231],[8.42,55.116667],[8.426538,55.12],[8.425,55.122857],[8.415,55.124318],[8.41,55.121],[8.38,55.125],[8.39,55.125],[8.402,55.13],[8.4,55.133333],[8.39,55.135],[8.395,55.14],[8.4,55.135833],[8.405,55.142308],[8.429583,55.145],[8.425,55.148056],[8.395714,55.15],[8.448182,55.155],[8.445,55.158182],[8.429167,55.16],[8.436667,55.165],[8.435,55.1675],[8.415,55.17125],[8.411111,55.18],[8.405,55.177083],[8.395455,55.18],[8.392333,55.19],[8.386667,55.195],[8.3985,55.2],[8.379643,55.215],[8.381579,55.225],[8.3775,55.23],[8.38,55.235],[8.374,55.24],[8.386667,55.24],[8.388125,55.245],[8.38375,55.25],[8.39,55.24625],[8.395,55.255526],[8.4,55.2525],[8.42,55.261364],[8.425,55.25875],[8.442143,55.27],[8.425,55.277917],[8.42,55.274643],[8.42,55.28],[8.38,55.278966],[8.377,55.28],[8.38,55.284286],[8.385333,55.285],[8.3625,55.285],[8.366,55.29],[8.359999,55.294118]]}},{"type":"Feature","properties":{"depth":5,"source":"DDM 2024 coarse contour","resolution":"0.005 degree sampled grid","scope":"denmark","tileSource":"contours-denmark-coarse.geojson"},"geometry":{"type":"LineString","coordinates":[[8.635,54.935769],[8.62,54.938036],[8.610556,54.935],[8.608333,54.93],[8.615,54.924091],[8.63,54.922973],[8.6365,54.93],[8.635,54.935769]]}},{"type":"Feature","properties":{"depth":5,"source":"DDM 2024 coarse contour","resolution":"0.005 degree sampled grid","scope":"denmark","tileSource":"contours-denmark-coarse.geojson"},"geometry":{"type":"LineString","coordinates":[[8.46,55.090902],[8.436591,55.09],[8.45,55.087083],[8.462037,55.09],[8.46,55.090902]]}},{"type":"Feature","properties":{"depth":5,"source":"DDM 2024 coarse contour","resolution":"0.005 degree sampled grid","scope":"denmark","tileSource":"contours-denmark-coarse.geojson"},"geometry":{"type":"LineString","coordinates":[[8.44,55.102347],[8.41,55.1],[8.435,55.097167],[8.442875,55.1],[8.44,55.102347]]}},{"type":"Feature","properties":{"depth":5,"source":"DDM 2024 coarse contour","resolution":"0.005 degree sampled grid","scope":"denmark","tileSource":"contours-denmark-coarse.geojson"},"geometry":{"type":"LineString","coordinates":[[8.42,55.135294],[8.4075,55.135],[8.41,55.1325],[8.42,55.135294]]}},{"type":"Feature","properties":{"depth":5,"source":"DDM 2024 coarse contour","resolution":"0.005 degree sampled grid","scope":"denmark","tileSource":"contours-denmark-coarse.geojson"},"geometry":{"type":"LineString","coordinates":[[8.46,55.212564],[8.443333,55.205],[8.46,55.200793],[8.475,55.201633],[8.479583,55.205],[8.46,55.212564]]}},{"type":"Feature","properties":{"depth":5,"source":"DDM 2024 coarse contour","resolution":"0.005 degree sampled grid","scope":"denmark","tileSource":"contours-denmark-coarse.geojson"},"geometry":{"type":"LineString","coordinates":[[8.575,55.212262],[8.545682,55.21],[8.575,55.207683],[8.577639,55.21],[8.575,55.212262]]}},{"type":"Feature","properties":{"depth":5,"source":"DDM 2024 coarse contour","resolution":"0.005 degree sampled grid","scope":"denmark","tileSource":"contours-denmark-coarse.geojson"},"geometry":{"type":"LineString","coordinates":[[8.515,55.225208],[8.51,55.223194],[8.505,55.226154],[8.4975,55.22],[8.4834,55.215],[8.49,55.211242],[8.51,55.214976],[8.53,55.214992],[8.54,55.211719],[8.543088,55.215],[8.52,55.218333],[8.515,55.225208]]}},{"type":"Feature","properties":{"depth":5,"source":"DDM 2024 coarse contour","resolution":"0.005 degree sampled grid","scope":"denmark","tileSource":"contours-denmark-coarse.geojson"},"geometry":{"type":"LineString","coordinates":[[8.42,55.226429],[8.413611,55.225],[8.415,55.21825],[8.42,55.216935],[8.424524,55.22],[8.424167,55.225],[8.42,55.226429]]}},{"type":"Feature","properties":{"depth":5,"source":"DDM 2024 coarse contour","resolution":"0.005 degree sampled grid","scope":"denmark","tileSource":"contours-denmark-coarse.geojson"},"geometry":{"type":"LineString","coordinates":[[8.412502,55.305001],[8.4125,55.305],[8.41119,55.3],[8.42,55.297071],[8.443185,55.305001]]}},{"type":"Feature","properties":{"depth":5,"source":"DDM 2024 coarse contour","resolution":"0.005 degree sampled grid","scope":"denmark","tileSource":"contours-denmark-coarse.geojson"},"geometry":{"type":"LineString","coordinates":[[8.377616,55.305001],[8.39,55.301032],[8.405,55.305],[8.404996,55.305001]]}},{"type":"Feature","properties":{"depth":5,"source":"DDM 2024 coarse contour","resolution":"0.005 degree sampled grid","scope":"denmark","tileSource":"contours-denmark-coarse.geojson"},"geometry":{"type":"LineString","coordinates":[[8.512857,55.305001],[8.512857,55.305],[8.52,55.301579],[8.53,55.303],[8.532308,55.305],[8.532308,55.305001]]}},{"type":"Feature","properties":{"depth":10,"source":"DDM 2024 coarse contour","resolution":"0.005 degree sampled grid","scope":"denmark","tileSource":"contours-denmark-coarse.geojson"},"geometry":{"type":"LineString","coordinates":[[8.395,55.075238],[8.38625,55.07],[8.415,55.069964],[8.42,55.064939],[8.44,55.064909],[8.445,55.059942],[8.465,55.059888],[8.475,55.054899],[8.481589,55.04],[8.475,55.029127],[8.494805,55.04],[8.49,55.060495],[8.395,55.075238]]}},{"type":"Feature","properties":{"depth":10,"source":"DDM 2024 coarse contour","resolution":"0.005 degree sampled grid","scope":"denmark","tileSource":"contours-denmark-coarse.geojson"},"geometry":{"type":"LineString","coordinates":[[8.421255,55.305001],[8.42125,55.305],[8.436765,55.305],[8.436764,55.305001]]}},{"type":"Feature","properties":{"depth":15,"source":"DDM 2024 coarse contour","resolution":"0.005 degree sampled grid","scope":"denmark","tileSource":"contours-denmark-coarse.geojson"},"geometry":{"type":"LineString","coordinates":[[8.45,55.065387],[8.42,55.068058],[8.42,55.064964],[8.44,55.064934],[8.445,55.059966],[8.465,55.059912],[8.479934,55.05],[8.485,55.035093],[8.491558,55.04],[8.49,55.055745],[8.45,55.065387]]}},{"type":"Feature","properties":{"depth":20,"source":"DDM 2024 coarse contour","resolution":"0.005 degree sampled grid","scope":"denmark","tileSource":"contours-denmark-coarse.geojson"},"geometry":{"type":"LineString","coordinates":[[8.49,55.045426],[8.485,55.048947],[8.485,55.039722],[8.49,55.045426]]}},{"type":"Feature","properties":{"depth":20,"source":"DDM 2024 coarse contour","resolution":"0.005 degree sampled grid","scope":"denmark","tileSource":"contours-denmark-coarse.geojson"},"geometry":{"type":"LineString","coordinates":[[8.445,55.06557],[8.419988,55.065],[8.44,55.064958],[8.447969,55.06],[8.445,55.06557]]}},{"type":"Feature","properties":{"depth":20,"source":"DDM 2024 coarse contour","resolution":"0.005 degree sampled grid","scope":"denmark","tileSource":"contours-denmark-coarse.geojson"},"geometry":{"type":"LineString","coordinates":[[8.47,55.061472],[8.451413,55.06],[8.465,55.059937],[8.47,55.055321],[8.47351,55.06],[8.47,55.061472]]}}]}