{"type":"FeatureCollection","name":"DDM contour tile r02_c09","bbox":[11.72,55.31,12.195,55.785],"metadata":{"schema":"waternav-ddm-contour-tile-v1","version":"v45.8","tileId":"r02_c09","source":"Danmarks Dybdemodel 2024 ddm_50m.dybde.tiff via bundled DDM contour GeoJSON files"},"features":[{"type":"Feature","properties":{"depth":1,"source":"DDM 2024 coarse contour","resolution":"0.005 degree sampled grid","scope":"denmark","tileSource":"contours-denmark-coarse.geojson"},"geometry":{"type":"LineString","coordinates":[[11.749985,55.785001],[11.749986,55.785],[11.751129,55.775],[11.765177,55.77],[11.755217,55.76],[11.76,55.754999],[11.765,55.755595],[11.770361,55.75],[11.770595,55.745],[11.76,55.740009],[11.75,55.739535],[11.745,55.735016],[11.726364,55.735],[11.72,55.729659],[11.719999,55.729659]]}},{"type":"Feature","properties":{"depth":1,"source":"DDM 2024 coarse contour","resolution":"0.005 degree sampled grid","scope":"denmark","tileSource":"contours-denmark-coarse.geojson"},"geometry":{"type":"LineString","coordinates":[[11.719999,55.725441],[11.755,55.727045],[11.765,55.735435],[11.78,55.730889],[11.79497,55.715],[11.795,55.7018],[11.805,55.700096],[11.814984,55.685],[11.805,55.670015],[11.800004,55.675],[11.8,55.680002],[11.791071,55.67],[11.805,55.665156],[11.815,55.679981],[11.82,55.679991],[11.825017,55.685],[11.825024,55.69],[11.83,55.694996],[11.834996,55.69],[11.835,55.685],[11.835029,55.705],[11.845006,55.715],[11.845035,55.72],[11.86,55.734976],[11.870004,55.735],[11.855,55.735034],[11.850029,55.74],[11.855014,55.75],[11.85,55.750023],[11.845022,55.755],[11.855014,55.765],[11.855024,55.775],[11.859322,55.78],[11.859548,55.785001]]}},{"type":"Feature","properties":{"depth":1,"source":"DDM 2024 coarse contour","resolution":"0.005 degree sampled grid","scope":"denmark","tileSource":"contours-denmark-coarse.geojson"},"geometry":{"type":"LineString","coordinates":[[11.99,55.738519],[11.985,55.73],[11.984991,55.72],[11.969996,55.7],[11.961957,55.695],[11.966667,55.685],[11.963649,55.685],[11.96,55.692857],[11.935,55.665],[11.94,55.661765],[11.948,55.665],[11.945007,55.67],[11.955,55.679967],[11.992353,55.68],[11.984706,55.685],[11.99,55.685714],[11.990009,55.69],[11.985,55.690004],[11.979333,55.695],[11.985,55.700968],[11.99,55.699988],[11.995,55.705909],[12.005,55.709982],[12.010741,55.705],[12.004994,55.7],[12.005,55.695714],[12.01,55.69999],[12.015,55.699995],[12.02,55.695625],[12.03,55.699986],[12.035,55.694995],[12.045,55.695455],[12.045,55.689091],[12.060806,55.675],[12.06075,55.66],[12.071607,55.655],[12.083611,55.655],[12.085,55.66875],[12.075,55.670012],[12.065012,55.68],[12.075,55.689994],[12.079286,55.69],[12.0795,55.695],[12.085,55.699995],[12.099516,55.7],[12.094306,55.705],[12.1,55.705156],[12.1,55.714429],[12.097778,55.715],[12.1075,55.73],[12.100833,55.73],[12.095,55.722917],[12.07,55.72501],[12.065,55.733478],[12.06,55.729706],[12.035,55.730004],[12.03,55.725011],[12.015833,55.72],[12.015,55.715],[12.005,55.725],[12.005,55.733276],[11.995,55.730015],[11.99,55.738519]]}},{"type":"Feature","properties":{"depth":1,"source":"DDM 2024 coarse contour","resolution":"0.005 degree sampled grid","scope":"denmark","tileSource":"contours-denmark-coarse.geojson"},"geometry":{"type":"LineString","coordinates":[[12.015,55.685005],[12.009994,55.685],[12.009996,55.68],[12.025,55.669998],[12.03,55.669989],[12.035,55.674986],[12.04,55.671286],[12.045,55.674986],[12.052273,55.675],[12.045,55.675014],[12.04,55.68],[12.030952,55.68],[12.03,55.676],[12.029231,55.68],[12.02,55.680012],[12.015,55.685005]]}},{"type":"Feature","properties":{"depth":1,"source":"DDM 2024 coarse contour","resolution":"0.005 degree sampled grid","scope":"denmark","tileSource":"contours-denmark-coarse.geojson"},"geometry":{"type":"LineString","coordinates":[[11.849721,55.785001],[11.847857,55.775],[11.835,55.757857],[11.835,55.750556],[11.840213,55.745],[11.835,55.740021],[11.825,55.749062],[11.82,55.748871],[11.816364,55.745],[11.820263,55.735],[11.813,55.735],[11.794831,55.745],[11.80125,55.755],[11.782812,55.76],[11.783158,55.765],[11.77,55.777143],[11.77,55.782353],[11.77347,55.785001]]}},{"type":"Feature","properties":{"depth":1,"source":"DDM 2024 coarse contour","resolution":"0.005 degree sampled grid","scope":"denmark","tileSource":"contours-denmark-coarse.geojson"},"geometry":{"type":"LineString","coordinates":[[12.055418,55.785001],[12.055417,55.785],[12.069998,55.765],[12.06125,55.755],[12.07,55.739997],[12.075,55.751739],[12.09,55.7525],[12.094074,55.76],[12.084,55.76],[12.083235,55.775],[12.074209,55.785001]]}},{"type":"Feature","properties":{"depth":2,"source":"DDM 2024 coarse contour","resolution":"0.005 degree sampled grid","scope":"denmark","tileSource":"contours-denmark-coarse.geojson"},"geometry":{"type":"LineString","coordinates":[[11.74999,55.785001],[11.749991,55.785],[11.752742,55.775],[11.765,55.770467],[11.769857,55.775],[11.769998,55.785001]]}},{"type":"Feature","properties":{"depth":2,"source":"DDM 2024 coarse contour","resolution":"0.005 degree sampled grid","scope":"denmark","tileSource":"contours-denmark-coarse.geojson"},"geometry":{"type":"LineString","coordinates":[[11.851522,55.785001],[11.851522,55.785],[11.85,55.773333],[11.84,55.765],[11.840441,55.76],[11.835556,55.755],[11.841277,55.745],[11.835,55.740016],[11.825,55.7475],[11.817879,55.745],[11.821111,55.74],[11.82,55.733929],[11.8,55.739762],[11.793983,55.745],[11.79375,55.75],[11.798478,55.755],[11.78,55.759889],[11.780526,55.765],[11.77,55.774806],[11.757391,55.76],[11.770964,55.75],[11.77,55.74375],[11.745,55.735011],[11.728636,55.735],[11.72,55.728523],[11.719999,55.728523]]}},{"type":"Feature","properties":{"depth":2,"source":"DDM 2024 coarse contour","resolution":"0.005 degree sampled grid","scope":"denmark","tileSource":"contours-denmark-coarse.geojson"},"geometry":{"type":"LineString","coordinates":[[11.719999,55.724376],[11.737059,55.725],[11.755,55.729318],[11.765,55.737609],[11.78,55.732],[11.794975,55.715],[11.795,55.7038],[11.805,55.701058],[11.814989,55.685],[11.805,55.67001],[11.8,55.674687],[11.794643,55.67],[11.805,55.666719],[11.810012,55.67],[11.810019,55.675],[11.815,55.679986],[11.82,55.679996],[11.825012,55.685],[11.825019,55.69],[11.83,55.695217],[11.835,55.690128],[11.835024,55.705],[11.854403,55.73],[11.86,55.734981],[11.869767,55.735],[11.855,55.735029],[11.850024,55.74],[11.855009,55.75],[11.85,55.750018],[11.845017,55.755],[11.855009,55.765],[11.855019,55.775],[11.859134,55.785001]]}},{"type":"Feature","properties":{"depth":2,"source":"DDM 2024 coarse contour","resolution":"0.005 degree sampled grid","scope":"denmark","tileSource":"contours-denmark-coarse.geojson"},"geometry":{"type":"LineString","coordinates":[[11.99,55.736667],[11.984996,55.72],[11.96413,55.695],[11.968333,55.685],[11.962297,55.685],[11.96,55.690476],[11.95,55.68],[11.986667,55.68],[11.983235,55.685],[11.984773,55.69],[11.977667,55.695],[11.985,55.702581],[11.99,55.699993],[11.995,55.707424],[12.005,55.709987],[12.012593,55.705],[12.005,55.699286],[12.025,55.697778],[12.03,55.699991],[12.035,55.695],[12.045,55.69697],[12.047222,55.69],[12.055,55.683182],[12.06,55.689444],[12.064706,55.685],[12.056842,55.68],[12.062419,55.675],[12.06325,55.66],[12.073393,55.655],[12.080833,55.655],[12.085,55.666964],[12.07,55.673864],[12.065007,55.68],[12.066,55.685],[12.075714,55.69],[12.085,55.7],[12.097903,55.7],[12.092917,55.705],[12.1,55.706719],[12.1,55.713],[12.089167,55.715],[12.098333,55.72],[12.0875,55.725],[12.075,55.722917],[12.065,55.725],[12.065,55.731304],[12.065,55.725],[12.05,55.730003],[12.04,55.725],[12.027,55.725],[12.017222,55.72],[12.021667,55.715],[12.015,55.713148],[12.008696,55.715],[12.005,55.722353],[12,55.723393],[11.995,55.7134],[11.993333,55.72],[12,55.728],[12.005,55.7275],[12.005,55.731552],[11.995,55.73001],[11.99,55.736667]]}},{"type":"Feature","properties":{"depth":2,"source":"DDM 2024 coarse contour","resolution":"0.005 degree sampled grid","scope":"denmark","tileSource":"contours-denmark-coarse.geojson"},"geometry":{"type":"LineString","coordinates":[[11.95,55.68],[11.945,55.676724],[11.939545,55.665],[11.9455,55.665],[11.95,55.68]]}},{"type":"Feature","properties":{"depth":2,"source":"DDM 2024 coarse contour","resolution":"0.005 degree sampled grid","scope":"denmark","tileSource":"contours-denmark-coarse.geojson"},"geometry":{"type":"LineString","coordinates":[[12.015,55.685],[12.009999,55.685],[12.0104,55.68],[12.025,55.671071],[12.028548,55.675],[12.027308,55.68],[12.02,55.680007],[12.015,55.685]]}},{"type":"Feature","properties":{"depth":2,"source":"DDM 2024 coarse contour","resolution":"0.005 degree sampled grid","scope":"denmark","tileSource":"contours-denmark-coarse.geojson"},"geometry":{"type":"LineString","coordinates":[[12.035,55.680003],[12.031667,55.675],[12.04,55.672714],[12.048913,55.675],[12.035,55.680003]]}},{"type":"Feature","properties":{"depth":2,"source":"DDM 2024 coarse contour","resolution":"0.005 degree sampled grid","scope":"denmark","tileSource":"contours-denmark-coarse.geojson"},"geometry":{"type":"LineString","coordinates":[[12.065,55.755714],[12.065,55.749688],[12.07,55.745],[12.07,55.754],[12.065,55.755714]]}},{"type":"Feature","properties":{"depth":2,"source":"DDM 2024 coarse contour","resolution":"0.005 degree sampled grid","scope":"denmark","tileSource":"contours-denmark-coarse.geojson"},"geometry":{"type":"LineString","coordinates":[[12.0575,55.785001],[12.0575,55.785],[12.07119,55.765],[12.066935,55.76],[12.075,55.753913],[12.08,55.7575],[12.079444,55.765],[12.082963,55.77],[12.075,55.785],[12.074999,55.785001]]}},{"type":"Feature","properties":{"depth":3,"source":"DDM 2024 coarse contour","resolution":"0.005 degree sampled grid","scope":"denmark","tileSource":"contours-denmark-coarse.geojson"},"geometry":{"type":"LineString","coordinates":[[11.748351,55.785001],[11.754355,55.775],[11.765,55.7708],[11.7695,55.775],[11.76992,55.785001]]}},{"type":"Feature","properties":{"depth":3,"source":"DDM 2024 coarse contour","resolution":"0.005 degree sampled grid","scope":"denmark","tileSource":"contours-denmark-coarse.geojson"},"geometry":{"type":"LineString","coordinates":[[11.85237,55.785001],[11.851,55.77],[11.838333,55.755],[11.842778,55.75],[11.84,55.741857],[11.835,55.740011],[11.825,55.745937],[11.82,55.745645],[11.822895,55.735],[11.81,55.734035],[11.793136,55.745],[11.791667,55.75],[11.796304,55.755],[11.78,55.758778],[11.77,55.77432],[11.759565,55.76],[11.765,55.757976],[11.772976,55.745],[11.7625,55.74],[11.78,55.733111],[11.79498,55.715],[11.796111,55.705],[11.805,55.702019],[11.813,55.69],[11.814994,55.685],[11.809999,55.68],[11.809986,55.675],[11.805,55.670005],[11.798214,55.67],[11.805,55.668281],[11.810007,55.67],[11.810014,55.675],[11.815,55.679991],[11.819737,55.68],[11.825007,55.685],[11.825014,55.69],[11.83,55.696304],[11.835,55.69141],[11.835019,55.705],[11.853657,55.73],[11.86,55.734986],[11.868605,55.735],[11.855,55.735024],[11.850019,55.74],[11.855004,55.75],[11.85,55.750013],[11.845012,55.755],[11.855004,55.765],[11.859043,55.785001]]}},{"type":"Feature","properties":{"depth":3,"source":"DDM 2024 coarse contour","resolution":"0.005 degree sampled grid","scope":"denmark","tileSource":"contours-denmark-coarse.geojson"},"geometry":{"type":"LineString","coordinates":[[12.065,55.681538],[12.059474,55.68],[12.064032,55.675],[12.065,55.6625],[12.07,55.6665],[12.071875,55.665],[12.06875,55.66],[12.075,55.65625],[12.08,55.657333],[12.085,55.665179],[12.07,55.671591],[12.065,55.681538]]}},{"type":"Feature","properties":{"depth":3,"source":"DDM 2024 coarse contour","resolution":"0.005 degree sampled grid","scope":"denmark","tileSource":"contours-denmark-coarse.geojson"},"geometry":{"type":"LineString","coordinates":[[12.025,55.680001],[12.015,55.682955],[12.0124,55.68],[12.015,55.67499],[12.025,55.672857],[12.025,55.680001]]}},{"type":"Feature","properties":{"depth":3,"source":"DDM 2024 coarse contour","resolution":"0.005 degree sampled grid","scope":"denmark","tileSource":"contours-denmark-coarse.geojson"},"geometry":{"type":"LineString","coordinates":[[12.045,55.675004],[12.035,55.678636],[12.033519,55.675],[12.045,55.675004]]}},{"type":"Feature","properties":{"depth":3,"source":"DDM 2024 coarse contour","resolution":"0.005 degree sampled grid","scope":"denmark","tileSource":"contours-denmark-coarse.geojson"},"geometry":{"type":"LineString","coordinates":[[11.995,55.730005],[11.99,55.7325],[11.988571,55.725],[11.9665,55.695],[11.97,55.685],[11.960946,55.685],[11.96,55.687333],[11.950893,55.68],[11.9805,55.68],[11.9825,55.69],[11.976,55.695],[11.985,55.704194],[11.995,55.708939],[12.005,55.709992],[12.02,55.699792],[12.045,55.698485],[12.05,55.69],[12.055,55.688],[12.06,55.6925],[12.065,55.688214],[12.07,55.688333],[12.072333,55.69],[12.068077,55.695],[12.075,55.692667],[12.085,55.702],[12.09629,55.7],[12.091528,55.705],[12.1,55.708281],[12.1,55.711571],[12.083684,55.715],[12.092857,55.72],[12.085,55.724545],[12.08,55.720455],[12.075,55.720833],[12.070238,55.725],[12.065,55.723],[12.05,55.728333],[12.04,55.722368],[12.0295,55.725],[12.018611,55.72],[12.026538,55.715],[12.015,55.711296],[12,55.721607],[11.995,55.7114],[11.991818,55.72],[11.998571,55.73],[11.995,55.730005]]}},{"type":"Feature","properties":{"depth":3,"source":"DDM 2024 coarse contour","resolution":"0.005 degree sampled grid","scope":"denmark","tileSource":"contours-denmark-coarse.geojson"},"geometry":{"type":"LineString","coordinates":[[11.76,55.73875],[11.734,55.735],[11.72,55.727386],[11.719999,55.727386]]}},{"type":"Feature","properties":{"depth":3,"source":"DDM 2024 coarse contour","resolution":"0.005 degree sampled grid","scope":"denmark","tileSource":"contours-denmark-coarse.geojson"},"geometry":{"type":"LineString","coordinates":[[11.719999,55.725],[11.733846,55.725],[11.76,55.7344],[11.76,55.73875]]}},{"type":"Feature","properties":{"depth":3,"source":"DDM 2024 coarse contour","resolution":"0.005 degree sampled grid","scope":"denmark","tileSource":"contours-denmark-coarse.geojson"},"geometry":{"type":"LineString","coordinates":[[12.06,55.785001],[12.06,55.779286],[12.065,55.778571],[12.075,55.762857],[12.081111,55.77],[12.07109,55.785001]]}},{"type":"Feature","properties":{"depth":5,"source":"DDM 2024 coarse contour","resolution":"0.005 degree sampled grid","scope":"denmark","tileSource":"contours-denmark-coarse.geojson"},"geometry":{"type":"LineString","coordinates":[[11.97,55.681154],[11.965,55.683864],[11.952679,55.68],[11.97,55.681154]]}},{"type":"Feature","properties":{"depth":5,"source":"DDM 2024 coarse contour","resolution":"0.005 degree sampled grid","scope":"denmark","tileSource":"contours-denmark-coarse.geojson"},"geometry":{"type":"LineString","coordinates":[[11.77,55.77335],[11.765167,55.76],[11.775455,55.745],[11.767794,55.74],[11.781154,55.735],[11.793293,55.72],[11.795,55.712308],[11.82,55.685],[11.825,55.687],[11.83,55.698478],[11.835,55.693974],[11.835009,55.705],[11.852164,55.73],[11.86,55.734996],[11.866279,55.735],[11.855,55.735014],[11.850009,55.74],[11.851667,55.75],[11.848333,55.75],[11.84,55.738654],[11.826429,55.74],[11.831905,55.735],[11.83,55.732778],[11.81,55.732281],[11.795,55.741316],[11.787391,55.75],[11.787037,55.755],[11.776395,55.76],[11.77,55.77335]]}},{"type":"Feature","properties":{"depth":5,"source":"DDM 2024 coarse contour","resolution":"0.005 degree sampled grid","scope":"denmark","tileSource":"contours-denmark-coarse.geojson"},"geometry":{"type":"LineString","coordinates":[[11.750309,55.785001],[11.756509,55.775],[11.765,55.771467],[11.768786,55.775],[11.769578,55.785001]]}}]}