{"type":"FeatureCollection","name":"DDM contour tile r02_c17","bbox":[15.56,55.31,16.035,55.785],"metadata":{"schema":"waternav-ddm-contour-tile-v1","version":"v45.8","tileId":"r02_c17","source":"Danmarks Dybdemodel 2024 ddm_50m.dybde.tiff via bundled DDM contour GeoJSON files"},"features":[{"type":"Feature","properties":{"depth":1,"source":"DDM 2024 coarse contour","resolution":"0.005 degree sampled grid","scope":"denmark","tileSource":"contours-denmark-coarse.geojson"},"geometry":{"type":"LineString","coordinates":[[16.035001,55.460374],[16.03,55.460375],[16.025,55.465374],[16.01,55.465377],[16.005,55.470376],[15.99,55.470379],[15.985,55.475377],[15.965,55.47538],[15.96,55.480379],[15.945,55.480381],[15.94,55.48538],[15.92,55.485384],[15.915,55.490382],[15.9,55.490385],[15.895,55.495384],[15.875,55.495387],[15.87,55.500385],[15.855,55.500387],[15.85,55.505382],[15.835,55.505382],[15.83,55.510376],[15.81,55.510382],[15.805,55.515378],[15.79,55.515377],[15.785,55.520372],[15.77,55.520368],[15.765,55.525363],[15.745,55.525358],[15.74,55.530354],[15.725,55.530351],[15.72,55.535347],[15.705,55.535345],[15.7,55.540341],[15.685,55.540341],[15.68,55.545338],[15.66,55.545338],[15.655,55.550335],[15.64,55.550337],[15.635,55.555334],[15.62,55.555336],[15.615,55.560332],[15.595,55.560335],[15.59,55.56533],[15.575,55.565331],[15.57,55.570327],[15.559999,55.570326]]}},{"type":"Feature","properties":{"depth":2,"source":"DDM 2024 coarse contour","resolution":"0.005 degree sampled grid","scope":"denmark","tileSource":"contours-denmark-coarse.geojson"},"geometry":{"type":"LineString","coordinates":[[16.035001,55.46037],[16.03,55.46037],[16.025,55.465369],[16.01,55.465373],[16.005,55.470372],[15.99,55.470374],[15.985,55.475372],[15.965,55.475376],[15.96,55.480374],[15.945,55.480377],[15.94,55.485375],[15.92,55.485379],[15.915,55.490378],[15.9,55.490381],[15.895,55.495379],[15.875,55.495383],[15.87,55.500381],[15.855,55.500382],[15.85,55.505377],[15.835,55.505377],[15.83,55.510371],[15.81,55.510377],[15.805,55.515373],[15.79,55.515372],[15.785,55.520367],[15.77,55.520364],[15.765,55.525358],[15.745,55.525353],[15.74,55.530349],[15.725,55.530346],[15.72,55.535342],[15.705,55.53534],[15.7,55.540337],[15.685,55.540336],[15.68,55.545334],[15.66,55.545333],[15.655,55.55033],[15.64,55.550332],[15.635,55.555329],[15.62,55.555332],[15.615,55.560327],[15.595,55.560331],[15.59,55.565325],[15.575,55.565326],[15.57,55.570322],[15.559999,55.570321]]}},{"type":"Feature","properties":{"depth":3,"source":"DDM 2024 coarse contour","resolution":"0.005 degree sampled grid","scope":"denmark","tileSource":"contours-denmark-coarse.geojson"},"geometry":{"type":"LineString","coordinates":[[16.035001,55.460365],[16.03,55.460366],[16.025,55.465365],[16.01,55.465368],[16.005,55.470367],[15.99,55.47037],[15.985,55.475368],[15.965,55.475371],[15.96,55.48037],[15.945,55.480372],[15.94,55.485371],[15.92,55.485374],[15.915,55.490373],[15.9,55.490376],[15.895,55.495375],[15.875,55.495378],[15.87,55.500376],[15.855,55.500378],[15.85,55.505373],[15.835,55.505373],[15.83,55.510366],[15.81,55.510373],[15.805,55.515368],[15.79,55.515368],[15.785,55.520363],[15.77,55.520359],[15.765,55.525354],[15.745,55.525349],[15.74,55.530344],[15.725,55.530342],[15.72,55.535338],[15.705,55.535335],[15.7,55.540332],[15.685,55.540332],[15.68,55.545329],[15.66,55.545328],[15.655,55.550326],[15.64,55.550327],[15.635,55.555324],[15.62,55.555327],[15.615,55.560323],[15.595,55.560326],[15.59,55.56532],[15.575,55.565322],[15.57,55.570317],[15.559999,55.570316]]}},{"type":"Feature","properties":{"depth":5,"source":"DDM 2024 coarse contour","resolution":"0.005 degree sampled grid","scope":"denmark","tileSource":"contours-denmark-coarse.geojson"},"geometry":{"type":"LineString","coordinates":[[16.035001,55.460356],[16.03,55.460357],[16.025,55.465355],[16.01,55.465359],[16.005,55.470358],[15.99,55.47036],[15.985,55.475358],[15.965,55.475362],[15.96,55.48036],[15.945,55.480363],[15.94,55.485361],[15.92,55.485365],[15.915,55.490364],[15.9,55.490367],[15.895,55.495366],[15.875,55.495369],[15.87,55.500367],[15.855,55.500369],[15.85,55.505363],[15.835,55.505363],[15.83,55.510357],[15.81,55.510363],[15.805,55.515359],[15.79,55.515358],[15.785,55.520354],[15.77,55.52035],[15.765,55.525345],[15.745,55.525339],[15.74,55.530335],[15.725,55.530332],[15.72,55.535328],[15.705,55.535326],[15.7,55.540323],[15.685,55.540322],[15.68,55.54532],[15.66,55.545319],[15.655,55.550316],[15.64,55.550318],[15.635,55.555315],[15.62,55.555318],[15.615,55.560313],[15.595,55.560317],[15.59,55.565311],[15.575,55.565312],[15.57,55.570308],[15.559999,55.570307]]}},{"type":"Feature","properties":{"depth":10,"source":"DDM 2024 coarse contour","resolution":"0.005 degree sampled grid","scope":"denmark","tileSource":"contours-denmark-coarse.geojson"},"geometry":{"type":"LineString","coordinates":[[16.035001,55.460333],[16.03,55.460333],[16.025,55.465332],[16.01,55.465336],[15.985,55.475335],[15.965,55.475339],[15.94,55.485338],[15.92,55.485342],[15.895,55.495343],[15.875,55.495346],[15.87,55.500344],[15.835,55.50534],[15.83,55.510334],[15.81,55.51034],[15.805,55.515336],[15.77,55.520327],[15.765,55.525321],[15.745,55.525316],[15.74,55.530312],[15.685,55.540299],[15.68,55.545296],[15.66,55.545296],[15.655,55.550293],[15.64,55.550295],[15.615,55.56029],[15.595,55.560293],[15.57,55.570285],[15.559999,55.570284]]}},{"type":"Feature","properties":{"depth":15,"source":"DDM 2024 coarse contour","resolution":"0.005 degree sampled grid","scope":"denmark","tileSource":"contours-denmark-coarse.geojson"},"geometry":{"type":"LineString","coordinates":[[16.035001,55.46031],[16.03,55.46031],[16.025,55.465309],[16.01,55.465312],[15.985,55.475312],[15.965,55.475316],[15.94,55.485315],[15.92,55.485319],[15.895,55.495319],[15.875,55.495323],[15.87,55.500321],[15.835,55.505317],[15.83,55.510311],[15.81,55.510317],[15.805,55.515313],[15.77,55.520303],[15.765,55.525298],[15.745,55.525293],[15.74,55.530289],[15.685,55.540276],[15.68,55.545273],[15.66,55.545272],[15.655,55.55027],[15.64,55.550271],[15.615,55.560267],[15.595,55.56027],[15.57,55.570261],[15.559999,55.57026]]}},{"type":"Feature","properties":{"depth":20,"source":"DDM 2024 coarse contour","resolution":"0.005 degree sampled grid","scope":"denmark","tileSource":"contours-denmark-coarse.geojson"},"geometry":{"type":"LineString","coordinates":[[16.035001,55.460286],[16.03,55.460287],[16.025,55.465286],[16.01,55.465289],[15.985,55.475289],[15.965,55.475292],[15.94,55.485292],[15.92,55.485296],[15.895,55.495296],[15.875,55.4953],[15.87,55.500298],[15.835,55.505294],[15.83,55.510288],[15.81,55.510294],[15.805,55.51529],[15.77,55.52028],[15.765,55.525275],[15.745,55.52527],[15.74,55.530265],[15.685,55.540253],[15.68,55.54525],[15.66,55.545249],[15.655,55.550246],[15.64,55.550248],[15.615,55.560243],[15.595,55.560247],[15.57,55.570238],[15.559999,55.570237]]}},{"type":"Feature","properties":{"depth":30,"source":"DDM 2024 coarse contour","resolution":"0.005 degree sampled grid","scope":"denmark","tileSource":"contours-denmark-coarse.geojson"},"geometry":{"type":"LineString","coordinates":[[16.035001,55.46024],[16.03,55.460241],[16.025,55.46524],[16.01,55.465243],[15.985,55.475243],[15.965,55.475246],[15.94,55.485246],[15.92,55.48525],[15.895,55.49525],[15.875,55.495254],[15.87,55.500251],[15.835,55.505248],[15.83,55.510241],[15.81,55.510248],[15.805,55.515244],[15.77,55.520234],[15.765,55.525229],[15.745,55.525223],[15.74,55.530219],[15.685,55.540206],[15.68,55.545203],[15.66,55.545202],[15.655,55.5502],[15.64,55.550201],[15.615,55.560197],[15.595,55.5602],[15.57,55.570191],[15.559999,55.57019]]}},{"type":"Feature","properties":{"depth":50,"source":"DDM 2024 coarse contour","resolution":"0.005 degree sampled grid","scope":"denmark","tileSource":"contours-denmark-coarse.geojson"},"geometry":{"type":"LineString","coordinates":[[16.035001,55.460148],[16.03,55.460148],[16.025,55.465147],[16.01,55.465151],[15.985,55.47515],[15.965,55.475154],[15.94,55.485153],[15.92,55.485157],[15.895,55.495158],[15.875,55.495161],[15.87,55.500159],[15.835,55.505156],[15.83,55.510149],[15.81,55.510156],[15.805,55.515151],[15.77,55.520141],[15.765,55.525136],[15.745,55.52513],[15.74,55.530126],[15.685,55.540113],[15.68,55.54511],[15.66,55.545109],[15.655,55.550106],[15.64,55.550108],[15.615,55.560103],[15.595,55.560107],[15.57,55.570098],[15.559999,55.570097]]}}]}