{"type":"FeatureCollection","name":"DDM contour tile r04_c09","bbox":[11.72,56.27,12.195,56.745],"metadata":{"schema":"waternav-ddm-contour-tile-v1","version":"v45.8","tileId":"r04_c09","source":"Danmarks Dybdemodel 2024 ddm_50m.dybde.tiff via bundled DDM contour GeoJSON files"},"features":[{"type":"Feature","properties":{"depth":1,"source":"DDM 2024 coarse contour","resolution":"0.005 degree sampled grid","scope":"denmark","tileSource":"contours-denmark-coarse.geojson"},"geometry":{"type":"LineString","coordinates":[[12.190136,56.269999],[12.19,56.270135],[12.18,56.270136],[12.175,56.275138],[12.165,56.275139],[12.16,56.28014],[12.145,56.28014],[12.14,56.285143],[12.13,56.285143],[12.125,56.290145],[12.1,56.295152],[12.08515,56.305],[12.08515,56.315],[12.090151,56.32],[12.09015,56.335],[12.095146,56.34],[12.095144,56.35],[12.100147,56.355],[12.100151,56.365],[12.10515,56.37],[12.105144,56.385],[12.110141,56.39],[12.115136,56.415],[12.12014,56.42],[12.120148,56.435],[12.125151,56.44],[12.125151,56.45],[12.130151,56.455],[12.130141,56.47],[12.135138,56.475],[12.13514,56.485],[12.140144,56.49],[12.140153,56.5],[12.145165,56.505],[12.140161,56.51],[12.140164,56.515],[12.125129,56.53],[12.125121,56.535],[12.110079,56.55],[12.110057,56.555],[12.070116,56.6],[12.070123,56.605],[12.055112,56.62],[12.055116,56.625],[12.040129,56.64],[12.040135,56.645],[12.020146,56.665],[12.020157,56.67],[12.005157,56.685],[12.005157,56.69],[11.965158,56.735],[11.965156,56.74],[11.96017,56.745001]]}},{"type":"Feature","properties":{"depth":2,"source":"DDM 2024 coarse contour","resolution":"0.005 degree sampled grid","scope":"denmark","tileSource":"contours-denmark-coarse.geojson"},"geometry":{"type":"LineString","coordinates":[[12.190131,56.269999],[12.19,56.27013],[12.18,56.270131],[12.175,56.275133],[12.165,56.275134],[12.16,56.280135],[12.145,56.280136],[12.14,56.285138],[12.13,56.285138],[12.125,56.29014],[12.1,56.295147],[12.085145,56.305],[12.085145,56.315],[12.090146,56.32],[12.090145,56.335],[12.095141,56.34],[12.095139,56.35],[12.100142,56.355],[12.100146,56.365],[12.105145,56.37],[12.105139,56.385],[12.110137,56.39],[12.115131,56.415],[12.120136,56.42],[12.120143,56.435],[12.125146,56.44],[12.125146,56.45],[12.130146,56.455],[12.130137,56.47],[12.135133,56.475],[12.135135,56.485],[12.140139,56.49],[12.140148,56.5],[12.14516,56.505],[12.140156,56.51],[12.140159,56.515],[12.125124,56.53],[12.125116,56.535],[12.110074,56.55],[12.110052,56.555],[12.070111,56.6],[12.070118,56.605],[12.055107,56.62],[12.055111,56.625],[12.040124,56.64],[12.04013,56.645],[12.020141,56.665],[12.020152,56.67],[12.005152,56.685],[12.005153,56.69],[11.965153,56.735],[11.965151,56.74],[11.960165,56.745001]]}},{"type":"Feature","properties":{"depth":3,"source":"DDM 2024 coarse contour","resolution":"0.005 degree sampled grid","scope":"denmark","tileSource":"contours-denmark-coarse.geojson"},"geometry":{"type":"LineString","coordinates":[[12.190127,56.269999],[12.19,56.270126],[12.18,56.270126],[12.175,56.275128],[12.165,56.275129],[12.16,56.28013],[12.145,56.280131],[12.14,56.285133],[12.13,56.285134],[12.125,56.290135],[12.1,56.295143],[12.085141,56.305],[12.08514,56.315],[12.090141,56.32],[12.090141,56.335],[12.095136,56.34],[12.095135,56.35],[12.100137,56.355],[12.100142,56.365],[12.10514,56.37],[12.105134,56.385],[12.110132,56.39],[12.115126,56.415],[12.120131,56.42],[12.120138,56.435],[12.125141,56.44],[12.125142,56.45],[12.130142,56.455],[12.130132,56.47],[12.135128,56.475],[12.13513,56.485],[12.140135,56.49],[12.140143,56.5],[12.145155,56.505],[12.140151,56.51],[12.140154,56.515],[12.125119,56.53],[12.125111,56.535],[12.110069,56.55],[12.110047,56.555],[12.070106,56.6],[12.070113,56.605],[12.055102,56.62],[12.055106,56.625],[12.040119,56.64],[12.040125,56.645],[12.020136,56.665],[12.020147,56.67],[12.005147,56.685],[12.005148,56.69],[11.965149,56.735],[11.965146,56.74],[11.96016,56.745001]]}},{"type":"Feature","properties":{"depth":5,"source":"DDM 2024 coarse contour","resolution":"0.005 degree sampled grid","scope":"denmark","tileSource":"contours-denmark-coarse.geojson"},"geometry":{"type":"LineString","coordinates":[[12.190117,56.269999],[12.19,56.270116],[12.18,56.270117],[12.175,56.275119],[12.165,56.275119],[12.16,56.280121],[12.145,56.280121],[12.14,56.285123],[12.13,56.285124],[12.125,56.290125],[12.1,56.295133],[12.085131,56.305],[12.08513,56.315],[12.090131,56.32],[12.090131,56.335],[12.095126,56.34],[12.095125,56.35],[12.100127,56.355],[12.100132,56.365],[12.10513,56.37],[12.105124,56.385],[12.110122,56.39],[12.115116,56.415],[12.120121,56.42],[12.120129,56.435],[12.125131,56.44],[12.125132,56.45],[12.130132,56.455],[12.130122,56.47],[12.135119,56.475],[12.135121,56.485],[12.140125,56.49],[12.140133,56.5],[12.145146,56.505],[12.140142,56.51],[12.140145,56.515],[12.12511,56.53],[12.125101,56.535],[12.110059,56.55],[12.110038,56.555],[12.070097,56.6],[12.070103,56.605],[12.055092,56.62],[12.055096,56.625],[12.040109,56.64],[12.040115,56.645],[12.020126,56.665],[12.020138,56.67],[12.005138,56.685],[12.005138,56.69],[11.965139,56.735],[11.965137,56.74],[11.960151,56.745001]]}},{"type":"Feature","properties":{"depth":5,"source":"DDM 2024 coarse contour","resolution":"0.005 degree sampled grid","scope":"denmark","tileSource":"contours-denmark-coarse.geojson"},"geometry":{"type":"LineString","coordinates":[[11.798333,56.295],[11.798,56.29],[11.79,56.2885],[11.785,56.279167],[11.77,56.276471],[11.765,56.28],[11.77,56.284],[11.78,56.28],[11.785,56.29125],[11.795,56.29625],[11.798333,56.295]]}},{"type":"Feature","properties":{"depth":5,"source":"DDM 2024 coarse contour","resolution":"0.005 degree sampled grid","scope":"denmark","tileSource":"contours-denmark-coarse.geojson"},"geometry":{"type":"LineString","coordinates":[[11.723033,56.745001],[11.719999,56.744411]]}},{"type":"Feature","properties":{"depth":10,"source":"DDM 2024 coarse contour","resolution":"0.005 degree sampled grid","scope":"denmark","tileSource":"contours-denmark-coarse.geojson"},"geometry":{"type":"LineString","coordinates":[[12.186912,56.269999],[12.16,56.280096],[12.145,56.280097],[12.14,56.285099],[12.1,56.295109],[12.085107,56.305],[12.090107,56.335],[12.105106,56.37],[12.1051,56.385],[12.120097,56.42],[12.125108,56.45],[12.130108,56.455],[12.130098,56.47],[12.145121,56.505],[12.110013,56.555],[12.070072,56.6],[12.040091,56.645],[12.020102,56.665],[12.005114,56.69],[11.959263,56.745001]]}},{"type":"Feature","properties":{"depth":10,"source":"DDM 2024 coarse contour","resolution":"0.005 degree sampled grid","scope":"denmark","tileSource":"contours-denmark-coarse.geojson"},"geometry":{"type":"LineString","coordinates":[[11.759286,56.315],[11.785,56.308889],[11.804737,56.31],[11.811552,56.285],[11.801875,56.275],[11.790262,56.269999]]}},{"type":"Feature","properties":{"depth":10,"source":"DDM 2024 coarse contour","resolution":"0.005 degree sampled grid","scope":"denmark","tileSource":"contours-denmark-coarse.geojson"},"geometry":{"type":"LineString","coordinates":[[11.727762,56.269999],[11.735789,56.28],[11.753636,56.285],[11.755,56.295],[11.768,56.3],[11.765,56.3045],[11.734911,56.31],[11.759286,56.315]]}},{"type":"Feature","properties":{"depth":10,"source":"DDM 2024 coarse contour","resolution":"0.005 degree sampled grid","scope":"denmark","tileSource":"contours-denmark-coarse.geojson"},"geometry":{"type":"LineString","coordinates":[[11.781406,56.745001],[11.719999,56.737995]]}},{"type":"Feature","properties":{"depth":15,"source":"DDM 2024 coarse contour","resolution":"0.005 degree sampled grid","scope":"denmark","tileSource":"contours-denmark-coarse.geojson"},"geometry":{"type":"LineString","coordinates":[[11.798533,56.745001],[11.795,56.743546],[11.719999,56.735629]]}},{"type":"Feature","properties":{"depth":15,"source":"DDM 2024 coarse contour","resolution":"0.005 degree sampled grid","scope":"denmark","tileSource":"contours-denmark-coarse.geojson"},"geometry":{"type":"LineString","coordinates":[[12.186848,56.269999],[12.16,56.280072],[12.145,56.280072],[12.14,56.285075],[12.1,56.295084],[12.085082,56.305],[12.090082,56.335],[12.105082,56.37],[12.105076,56.385],[12.120072,56.42],[12.125083,56.45],[12.130083,56.455],[12.130073,56.47],[12.145097,56.505],[12.11,56.552273],[12.1,56.54627],[12.065,56.543864],[12.038846,56.56],[12.055,56.574773],[12.07,56.574706],[12.09,56.565455],[12.095,56.565313],[12.095007,56.57],[12.00509,56.69],[11.965091,56.735],[11.959107,56.745001]]}},{"type":"Feature","properties":{"depth":15,"source":"DDM 2024 coarse contour","resolution":"0.005 degree sampled grid","scope":"denmark","tileSource":"contours-denmark-coarse.geojson"},"geometry":{"type":"LineString","coordinates":[[11.787222,56.315],[11.81,56.310959],[11.814239,56.305],[11.820417,56.285],[11.808667,56.27],[11.808663,56.269999]]}},{"type":"Feature","properties":{"depth":15,"source":"DDM 2024 coarse contour","resolution":"0.005 degree sampled grid","scope":"denmark","tileSource":"contours-denmark-coarse.geojson"},"geometry":{"type":"LineString","coordinates":[[11.719999,56.288269],[11.722727,56.29],[11.735,56.31418],[11.75,56.318258],[11.787222,56.315]]}},{"type":"Feature","properties":{"depth":20,"source":"DDM 2024 coarse contour","resolution":"0.005 degree sampled grid","scope":"denmark","tileSource":"contours-denmark-coarse.geojson"},"geometry":{"type":"LineString","coordinates":[[11.804781,56.745001],[11.8,56.742597],[11.719999,56.73402]]}},{"type":"Feature","properties":{"depth":20,"source":"DDM 2024 coarse contour","resolution":"0.005 degree sampled grid","scope":"denmark","tileSource":"contours-denmark-coarse.geojson"},"geometry":{"type":"LineString","coordinates":[[12.186784,56.269999],[12.16,56.280048],[12.145,56.280048],[12.14,56.285051],[12.1,56.29506],[12.085058,56.305],[12.090058,56.335],[12.105058,56.37],[12.105051,56.385],[12.120048,56.42],[12.125059,56.45],[12.130059,56.455],[12.130049,56.47],[12.145073,56.505],[12.115,56.543864],[12.09,56.535238],[12.06,56.531842],[12.044167,56.535],[12.025,56.550556],[12.021786,56.565],[12.035,56.579333],[12.06,56.586136],[12.085,56.581389],[12.085006,56.585],[12.020053,56.665],[12.005065,56.69],[11.965066,56.735],[11.959082,56.745001]]}},{"type":"Feature","properties":{"depth":20,"source":"DDM 2024 coarse contour","resolution":"0.005 degree sampled grid","scope":"denmark","tileSource":"contours-denmark-coarse.geojson"},"geometry":{"type":"LineString","coordinates":[[11.797,56.32],[11.82,56.308],[11.825455,56.31],[11.837778,56.29],[11.825417,56.27],[11.825415,56.269999]]}},{"type":"Feature","properties":{"depth":20,"source":"DDM 2024 coarse contour","resolution":"0.005 degree sampled grid","scope":"denmark","tileSource":"contours-denmark-coarse.geojson"},"geometry":{"type":"LineString","coordinates":[[11.719999,56.322916],[11.72,56.322917],[11.78,56.324286],[11.797,56.32]]}},{"type":"Feature","properties":{"depth":30,"source":"DDM 2024 coarse contour","resolution":"0.005 degree sampled grid","scope":"denmark","tileSource":"contours-denmark-coarse.geojson"},"geometry":{"type":"LineString","coordinates":[[11.834807,56.745001],[11.834808,56.745],[11.815,56.729146],[11.8,56.725],[11.795,56.728148],[11.77,56.724602],[11.765263,56.735],[11.755,56.734146],[11.731905,56.72],[11.732838,56.71],[11.745,56.702105],[11.740172,56.695],[11.719999,56.687344]]}},{"type":"Feature","properties":{"depth":30,"source":"DDM 2024 coarse contour","resolution":"0.005 degree sampled grid","scope":"denmark","tileSource":"contours-denmark-coarse.geojson"},"geometry":{"type":"LineString","coordinates":[[11.719999,56.490714],[11.725,56.49],[11.755,56.507],[11.76,56.498333],[11.765,56.505],[11.78,56.505],[11.795,56.515],[11.795,56.48],[11.8,56.47],[11.815,56.46],[11.816667,56.45],[11.825,56.448333],[11.832143,56.44],[11.838,56.39],[11.865,56.35],[11.905,56.3375],[11.91,56.332],[11.925,56.331667],[11.955,56.313],[11.965,56.31375],[11.97,56.3075],[11.995,56.298333],[12,56.285],[12.02,56.28],[12.045,56.283333],[12.06,56.27],[12.060003,56.269999]]}},{"type":"Feature","properties":{"depth":30,"source":"DDM 2024 coarse contour","resolution":"0.005 degree sampled grid","scope":"denmark","tileSource":"contours-denmark-coarse.geojson"},"geometry":{"type":"LineString","coordinates":[[12.083086,56.269999],[12.09,56.273846],[12.092778,56.269999]]}},{"type":"Feature","properties":{"depth":30,"source":"DDM 2024 coarse contour","resolution":"0.005 degree sampled grid","scope":"denmark","tileSource":"contours-denmark-coarse.geojson"},"geometry":{"type":"LineString","coordinates":[[12.118,56.269999],[12.12,56.276667],[12.14,56.28],[12.140002,56.285],[12.1,56.295012],[12.08501,56.305],[12.09001,56.335],[12.105009,56.37],[12.11,56.395],[12.1,56.405833],[12.078333,56.415],[12.085,56.4225],[12.1,56.427857],[12.12,56.420714],[12.120007,56.435],[12.130011,56.455],[12.13,56.47125],[12.125,56.48],[12.140003,56.49],[12.140012,56.5],[12.145025,56.505],[12.140024,56.515],[12.127857,56.525],[12.0875,56.5],[12.085,56.49],[12.075,56.4825],[12.04,56.463333],[12.02,56.461],[12.013125,56.47],[12.015,56.495],[12.01,56.505],[11.992,56.52],[11.985909,56.535],[11.978125,56.54],[11.981429,56.57],[11.98,56.573333],[11.975,56.57],[11.9775,56.585],[11.972143,56.6],[11.965,56.6],[11.96,56.605833],[11.95,56.605],[11.93,56.585],[11.93,56.578571],[11.916667,56.59],[11.926667,56.595],[11.924,56.6],[11.929545,56.61],[11.915,56.618333],[11.905,56.615],[11.90625,56.62],[11.918,56.625],[11.92,56.6325],[11.925,56.622],[11.93,56.625],[11.93,56.618333],[11.93,56.625],[11.935,56.622143],[11.94,56.628333],[11.945,56.624375],[11.958333,56.635],[11.959375,56.645],[11.94,56.65],[11.935,56.645],[11.925,56.655],[11.93,56.65],[11.931667,56.66],[11.943333,56.665],[11.98,56.666667],[11.99,56.655],[12.03,56.6525],[12.005017,56.69],[11.965018,56.735],[11.959034,56.745001]]}},{"type":"Feature","properties":{"depth":30,"source":"DDM 2024 coarse contour","resolution":"0.005 degree sampled grid","scope":"denmark","tileSource":"contours-denmark-coarse.geojson"},"geometry":{"type":"LineString","coordinates":[[11.85,56.59],[11.857143,56.565],[11.851667,56.555],[11.835,56.551667],[11.828,56.575],[11.835,56.58625],[11.85,56.59]]}},{"type":"Feature","properties":{"depth":30,"source":"DDM 2024 coarse contour","resolution":"0.005 degree sampled grid","scope":"denmark","tileSource":"contours-denmark-coarse.geojson"},"geometry":{"type":"LineString","coordinates":[[11.901667,56.605],[11.91,56.596667],[11.915,56.6],[11.910714,56.595],[11.914,56.59],[11.905,56.584],[11.895,56.585],[11.9,56.59],[11.89,56.6],[11.89875,56.605],[11.895,56.61],[11.901667,56.605]]}},{"type":"Feature","properties":{"depth":30,"source":"DDM 2024 coarse contour","resolution":"0.005 degree sampled grid","scope":"denmark","tileSource":"contours-denmark-coarse.geojson"},"geometry":{"type":"LineString","coordinates":[[11.99,56.625],[11.98125,56.62],[11.97625,56.61],[11.985,56.598],[11.9925,56.6],[11.995,56.615],[11.99,56.625]]}},{"type":"Feature","properties":{"depth":30,"source":"DDM 2024 coarse contour","resolution":"0.005 degree sampled grid","scope":"denmark","tileSource":"contours-denmark-coarse.geojson"},"geometry":{"type":"LineString","coordinates":[[11.940556,56.64],[11.9475,56.635],[11.935,56.645],[11.940556,56.64]]}},{"type":"Feature","properties":{"depth":50,"source":"DDM 2024 coarse contour","resolution":"0.005 degree sampled grid","scope":"denmark","tileSource":"contours-denmark-coarse.geojson"},"geometry":{"type":"LineString","coordinates":[[11.84108,56.745001],[11.85,56.731905],[11.859444,56.745],[11.859443,56.745001]]}}]}