{"type":"FeatureCollection","name":"DDM contour tile r06_c00","bbox":[7.4,57.23,7.875,57.705],"metadata":{"schema":"waternav-ddm-contour-tile-v1","version":"v45.8","tileId":"r06_c00","source":"Danmarks Dybdemodel 2024 ddm_50m.dybde.tiff via bundled DDM contour GeoJSON files"},"features":[{"type":"Feature","properties":{"depth":1,"source":"DDM 2024 coarse contour","resolution":"0.005 degree sampled grid","scope":"denmark","tileSource":"contours-denmark-coarse.geojson"},"geometry":{"type":"LineString","coordinates":[[7.875001,57.465563],[7.875,57.465563],[7.87,57.460548],[7.86,57.460556],[7.855,57.455538],[7.84,57.455546],[7.835,57.450546],[7.825,57.450537],[7.82,57.445565],[7.81,57.445519],[7.805,57.440529],[7.795,57.440493],[7.79,57.43546],[7.775,57.43545],[7.77,57.430412],[7.76,57.430423],[7.755,57.425402],[7.745,57.425405],[7.74,57.420395],[7.73,57.420393],[7.725,57.415387],[7.71,57.415384],[7.705,57.410381],[7.695,57.410384],[7.69,57.405382],[7.665,57.400388],[7.66,57.395382],[7.645,57.395386],[7.64,57.390389],[7.63,57.39039],[7.625,57.385401],[7.615,57.385396],[7.61,57.380412],[7.595,57.380411],[7.59,57.375423],[7.58,57.375425],[7.575,57.370424],[7.565,57.370428],[7.56,57.365422],[7.55,57.365427],[7.545,57.360418],[7.53,57.360426],[7.525,57.355411],[7.515,57.355417],[7.51,57.350394],[7.5,57.350406],[7.495,57.345381],[7.485,57.345387],[7.48,57.340365],[7.465,57.340371],[7.46,57.335353],[7.45,57.335351],[7.445,57.330335],[7.42,57.325312],[7.415,57.320298],[7.405,57.3203],[7.4,57.315286]]}},{"type":"Feature","properties":{"depth":2,"source":"DDM 2024 coarse contour","resolution":"0.005 degree sampled grid","scope":"denmark","tileSource":"contours-denmark-coarse.geojson"},"geometry":{"type":"LineString","coordinates":[[7.875001,57.465559],[7.875,57.465559],[7.87,57.460543],[7.86,57.460551],[7.855,57.455534],[7.84,57.455541],[7.835,57.450542],[7.825,57.450533],[7.82,57.44556],[7.81,57.445515],[7.805,57.440524],[7.795,57.440489],[7.79,57.435455],[7.775,57.435446],[7.77,57.430407],[7.76,57.430419],[7.755,57.425397],[7.745,57.425401],[7.74,57.42039],[7.73,57.420389],[7.725,57.415382],[7.71,57.415379],[7.705,57.410376],[7.695,57.410379],[7.69,57.405377],[7.665,57.400383],[7.66,57.395377],[7.645,57.395382],[7.64,57.390384],[7.63,57.390386],[7.625,57.385396],[7.615,57.385392],[7.61,57.380408],[7.595,57.380406],[7.59,57.375418],[7.58,57.37542],[7.575,57.370419],[7.565,57.370424],[7.56,57.365417],[7.55,57.365423],[7.545,57.360414],[7.53,57.360421],[7.525,57.355407],[7.515,57.355412],[7.51,57.35039],[7.5,57.350401],[7.495,57.345376],[7.485,57.345383],[7.48,57.34036],[7.465,57.340366],[7.46,57.335349],[7.45,57.335346],[7.445,57.33033],[7.42,57.325308],[7.415,57.320293],[7.405,57.320295],[7.4,57.315281]]}},{"type":"Feature","properties":{"depth":3,"source":"DDM 2024 coarse contour","resolution":"0.005 degree sampled grid","scope":"denmark","tileSource":"contours-denmark-coarse.geojson"},"geometry":{"type":"LineString","coordinates":[[7.875001,57.465554],[7.875,57.465554],[7.87,57.460539],[7.86,57.460547],[7.855,57.455529],[7.84,57.455537],[7.835,57.450537],[7.825,57.450528],[7.82,57.445556],[7.81,57.44551],[7.805,57.44052],[7.795,57.440484],[7.79,57.435451],[7.775,57.435441],[7.77,57.430402],[7.76,57.430414],[7.755,57.425393],[7.745,57.425396],[7.74,57.420386],[7.73,57.420384],[7.725,57.415378],[7.71,57.415374],[7.705,57.410372],[7.695,57.410374],[7.69,57.405373],[7.665,57.400379],[7.66,57.395373],[7.645,57.395377],[7.64,57.39038],[7.63,57.390381],[7.625,57.385392],[7.615,57.385387],[7.61,57.380403],[7.595,57.380402],[7.59,57.375413],[7.58,57.375415],[7.575,57.370415],[7.565,57.370419],[7.56,57.365413],[7.55,57.365418],[7.545,57.360409],[7.53,57.360417],[7.525,57.355402],[7.515,57.355407],[7.51,57.350385],[7.5,57.350396],[7.495,57.345371],[7.485,57.345378],[7.48,57.340356],[7.465,57.340362],[7.46,57.335344],[7.45,57.335341],[7.445,57.330326],[7.42,57.325303],[7.415,57.320289],[7.405,57.32029],[7.4,57.315277]]}},{"type":"Feature","properties":{"depth":5,"source":"DDM 2024 coarse contour","resolution":"0.005 degree sampled grid","scope":"denmark","tileSource":"contours-denmark-coarse.geojson"},"geometry":{"type":"LineString","coordinates":[[7.875001,57.465545],[7.875,57.465545],[7.87,57.46053],[7.86,57.460538],[7.855,57.45552],[7.84,57.455528],[7.835,57.450528],[7.825,57.450519],[7.82,57.445547],[7.81,57.445501],[7.805,57.440511],[7.795,57.440475],[7.79,57.435442],[7.775,57.435432],[7.77,57.430393],[7.76,57.430405],[7.755,57.425383],[7.745,57.425387],[7.74,57.420377],[7.73,57.420375],[7.725,57.415369],[7.71,57.415365],[7.705,57.410363],[7.695,57.410365],[7.69,57.405363],[7.665,57.400369],[7.66,57.395363],[7.645,57.395368],[7.64,57.39037],[7.63,57.390372],[7.625,57.385383],[7.615,57.385378],[7.61,57.380394],[7.595,57.380392],[7.59,57.375404],[7.58,57.375406],[7.575,57.370405],[7.565,57.37041],[7.56,57.365403],[7.55,57.365409],[7.545,57.3604],[7.53,57.360408],[7.525,57.355393],[7.515,57.355398],[7.51,57.350376],[7.5,57.350387],[7.495,57.345362],[7.485,57.345369],[7.48,57.340346],[7.465,57.340352],[7.46,57.335335],[7.45,57.335332],[7.445,57.330316],[7.42,57.325293],[7.415,57.320279],[7.405,57.320281],[7.4,57.315267]]}},{"type":"Feature","properties":{"depth":10,"source":"DDM 2024 coarse contour","resolution":"0.005 degree sampled grid","scope":"denmark","tileSource":"contours-denmark-coarse.geojson"},"geometry":{"type":"LineString","coordinates":[[7.875001,57.464088],[7.855,57.455498],[7.84,57.455506],[7.79,57.435419],[7.775,57.435409],[7.725,57.415346],[7.71,57.415342],[7.66,57.39534],[7.645,57.395345],[7.61,57.380371],[7.595,57.380369],[7.545,57.360377],[7.53,57.360385],[7.48,57.340323],[7.465,57.340329],[7.4,57.315244]]}},{"type":"Feature","properties":{"depth":15,"source":"DDM 2024 coarse contour","resolution":"0.005 degree sampled grid","scope":"denmark","tileSource":"contours-denmark-coarse.geojson"},"geometry":{"type":"LineString","coordinates":[[7.875001,57.464066],[7.855,57.455476],[7.84,57.455483],[7.79,57.435396],[7.775,57.435387],[7.725,57.415322],[7.71,57.415319],[7.66,57.395317],[7.645,57.395322],[7.61,57.380348],[7.595,57.380346],[7.545,57.360354],[7.53,57.360362],[7.48,57.3403],[7.465,57.340306],[7.4,57.31522]]}},{"type":"Feature","properties":{"depth":20,"source":"DDM 2024 coarse contour","resolution":"0.005 degree sampled grid","scope":"denmark","tileSource":"contours-denmark-coarse.geojson"},"geometry":{"type":"LineString","coordinates":[[7.875001,57.464044],[7.855,57.455453],[7.84,57.455461],[7.79,57.435374],[7.775,57.435364],[7.725,57.415299],[7.71,57.415296],[7.66,57.395294],[7.645,57.395299],[7.61,57.380325],[7.595,57.380324],[7.545,57.360331],[7.53,57.360339],[7.48,57.340277],[7.465,57.340283],[7.4,57.315197]]}},{"type":"Feature","properties":{"depth":30,"source":"DDM 2024 coarse contour","resolution":"0.005 degree sampled grid","scope":"denmark","tileSource":"contours-denmark-coarse.geojson"},"geometry":{"type":"LineString","coordinates":[[7.875001,57.463999],[7.855,57.455409],[7.84,57.455416],[7.79,57.435328],[7.775,57.435318],[7.725,57.415253],[7.71,57.41525],[7.66,57.395248],[7.645,57.395252],[7.61,57.380279],[7.595,57.380278],[7.545,57.360285],[7.53,57.360293],[7.48,57.34023],[7.465,57.340237],[7.4,57.315149]]}},{"type":"Feature","properties":{"depth":50,"source":"DDM 2024 coarse contour","resolution":"0.005 degree sampled grid","scope":"denmark","tileSource":"contours-denmark-coarse.geojson"},"geometry":{"type":"LineString","coordinates":[[7.853048,57.229999],[7.855,57.231364],[7.855992,57.229999]]}},{"type":"Feature","properties":{"depth":50,"source":"DDM 2024 coarse contour","resolution":"0.005 degree sampled grid","scope":"denmark","tileSource":"contours-denmark-coarse.geojson"},"geometry":{"type":"LineString","coordinates":[[7.79381,57.24],[7.795,57.234722],[7.778125,57.24],[7.79381,57.24]]}},{"type":"Feature","properties":{"depth":50,"source":"DDM 2024 coarse contour","resolution":"0.005 degree sampled grid","scope":"denmark","tileSource":"contours-denmark-coarse.geojson"},"geometry":{"type":"LineString","coordinates":[[7.733182,57.245],[7.742143,57.24],[7.735,57.236944],[7.725,57.24],[7.726111,57.245],[7.733182,57.245]]}},{"type":"Feature","properties":{"depth":50,"source":"DDM 2024 coarse contour","resolution":"0.005 degree sampled grid","scope":"denmark","tileSource":"contours-denmark-coarse.geojson"},"geometry":{"type":"LineString","coordinates":[[7.827,57.25],[7.842273,57.245],[7.818529,57.245],[7.82,57.251111],[7.827,57.25]]}},{"type":"Feature","properties":{"depth":50,"source":"DDM 2024 coarse contour","resolution":"0.005 degree sampled grid","scope":"denmark","tileSource":"contours-denmark-coarse.geojson"},"geometry":{"type":"LineString","coordinates":[[7.786923,57.265],[7.790405,57.26],[7.785,57.255769],[7.782381,57.26],[7.786923,57.265]]}},{"type":"Feature","properties":{"depth":50,"source":"DDM 2024 coarse contour","resolution":"0.005 degree sampled grid","scope":"denmark","tileSource":"contours-denmark-coarse.geojson"},"geometry":{"type":"LineString","coordinates":[[7.851364,57.285],[7.86,57.2732],[7.875001,57.277883]]}},{"type":"Feature","properties":{"depth":50,"source":"DDM 2024 coarse contour","resolution":"0.005 degree sampled grid","scope":"denmark","tileSource":"contours-denmark-coarse.geojson"},"geometry":{"type":"LineString","coordinates":[[7.875001,57.260202],[7.87,57.258163],[7.865,57.263718],[7.845,57.261364],[7.841,57.265],[7.848125,57.275],[7.842353,57.28],[7.851364,57.285]]}},{"type":"Feature","properties":{"depth":50,"source":"DDM 2024 coarse contour","resolution":"0.005 degree sampled grid","scope":"denmark","tileSource":"contours-denmark-coarse.geojson"},"geometry":{"type":"LineString","coordinates":[[7.875001,57.46391],[7.855,57.455319],[7.84,57.455327],[7.79,57.435237],[7.775,57.435227],[7.725,57.415161],[7.71,57.415157],[7.66,57.395156],[7.645,57.39516],[7.61,57.380188],[7.595,57.380186],[7.545,57.360194],[7.53,57.360202],[7.48,57.340138],[7.465,57.340144],[7.4,57.315055]]}},{"type":"Feature","properties":{"depth":100,"source":"DDM 2024 coarse contour","resolution":"0.005 degree sampled grid","scope":"denmark","tileSource":"contours-denmark-coarse.geojson"},"geometry":{"type":"LineString","coordinates":[[7.875001,57.463117],[7.86,57.460116],[7.855,57.455096],[7.84,57.455105],[7.786167,57.435],[7.83,57.426343],[7.865,57.433534],[7.875001,57.432212]]}}]}