{"type":"FeatureCollection","name":"DDM contour tile r00_c11","bbox":[12.68,54.35,13.155,54.825],"metadata":{"schema":"waternav-ddm-contour-tile-v1","version":"v46.0","tileId":"r00_c11","source":"Danmarks Dybdemodel 2024 ddm_50m.dybde.tiff via bundled DDM contour GeoJSON files"},"features":[{"type":"Feature","properties":{"depth":1,"source":"DDM 2024 coarse contour","resolution":"0.005 degree sampled grid","scope":"denmark","tileSource":"contours-denmark-coarse.geojson"},"geometry":{"type":"LineString","coordinates":[[12.679999,54.749919],[12.69,54.749918],[12.695,54.754917],[12.71,54.754916],[12.715,54.759916],[12.73,54.759916],[12.735,54.764916],[12.75,54.764914],[12.755,54.769914],[12.765,54.769913],[12.78,54.779913],[12.79,54.779913],[12.805,54.789912],[12.815,54.789911],[12.82,54.79491],[12.83,54.794909],[12.845,54.804907],[12.87,54.809904],[12.885,54.819901],[12.91,54.824899],[12.910102,54.825001]]}},{"type":"Feature","properties":{"depth":2,"source":"DDM 2024 coarse contour","resolution":"0.005 degree sampled grid","scope":"denmark","tileSource":"contours-denmark-coarse.geojson"},"geometry":{"type":"LineString","coordinates":[[12.679999,54.749924],[12.69,54.749923],[12.695,54.754922],[12.71,54.754921],[12.715,54.759921],[12.73,54.759921],[12.735,54.764921],[12.75,54.764919],[12.755,54.769919],[12.765,54.769918],[12.78,54.779918],[12.79,54.779917],[12.805,54.789917],[12.815,54.789916],[12.82,54.794915],[12.83,54.794914],[12.845,54.804912],[12.87,54.809909],[12.885,54.819906],[12.91,54.824903],[12.910098,54.825001]]}},{"type":"Feature","properties":{"depth":3,"source":"DDM 2024 coarse contour","resolution":"0.005 degree sampled grid","scope":"denmark","tileSource":"contours-denmark-coarse.geojson"},"geometry":{"type":"LineString","coordinates":[[12.679999,54.749929],[12.69,54.749928],[12.695,54.754927],[12.71,54.754926],[12.715,54.759926],[12.73,54.759926],[12.735,54.764926],[12.75,54.764924],[12.755,54.769924],[12.765,54.769923],[12.78,54.779923],[12.79,54.779922],[12.805,54.789921],[12.815,54.78992],[12.82,54.79492],[12.83,54.794919],[12.845,54.804917],[12.87,54.809914],[12.885,54.819911],[12.91,54.824908],[12.910093,54.825001]]}},{"type":"Feature","properties":{"depth":5,"source":"DDM 2024 coarse contour","resolution":"0.005 degree sampled grid","scope":"denmark","tileSource":"contours-denmark-coarse.geojson"},"geometry":{"type":"LineString","coordinates":[[12.679999,54.749939],[12.69,54.749938],[12.695,54.754937],[12.71,54.754936],[12.715,54.759936],[12.73,54.759936],[12.735,54.764936],[12.75,54.764934],[12.755,54.769934],[12.765,54.769933],[12.78,54.779933],[12.79,54.779932],[12.805,54.789931],[12.815,54.78993],[12.82,54.79493],[12.83,54.794929],[12.845,54.804927],[12.87,54.809923],[12.885,54.819921],[12.91,54.824918],[12.910083,54.825001]]}},{"type":"Feature","properties":{"depth":10,"source":"DDM 2024 coarse contour","resolution":"0.005 degree sampled grid","scope":"denmark","tileSource":"contours-denmark-coarse.geojson"},"geometry":{"type":"LineString","coordinates":[[12.679999,54.749963],[12.69,54.749962],[12.695,54.754962],[12.71,54.75496],[12.715,54.759961],[12.73,54.75996],[12.735,54.76496],[12.75,54.764959],[12.805,54.789956],[12.815,54.789955],[12.845,54.804951],[12.87,54.809948],[12.885,54.819945],[12.91,54.824943],[12.910091,54.825001]]}},{"type":"Feature","properties":{"depth":15,"source":"DDM 2024 coarse contour","resolution":"0.005 degree sampled grid","scope":"denmark","tileSource":"contours-denmark-coarse.geojson"},"geometry":{"type":"LineString","coordinates":[[12.679999,54.749988],[12.69,54.749987],[12.695,54.754986],[12.71,54.754985],[12.715,54.759985],[12.73,54.759985],[12.735,54.764985],[12.75,54.764983],[12.805,54.78998],[12.815,54.789979],[12.845,54.804976],[12.87,54.809973],[12.885,54.81997],[12.91,54.824967],[12.910053,54.825001]]}},{"type":"Feature","properties":{"depth":20,"source":"DDM 2024 coarse contour","resolution":"0.005 degree sampled grid","scope":"denmark","tileSource":"contours-denmark-coarse.geojson"},"geometry":{"type":"LineString","coordinates":[[12.829997,54.825001],[12.83,54.825],[12.83,54.82],[12.855,54.805],[12.885,54.819994],[12.91,54.824992],[12.910016,54.825001]]}}]}