{"type":"FeatureCollection","name":"DDM contour tile r02_c16","bbox":[15.08,55.31,15.555,55.785],"metadata":{"schema":"waternav-ddm-contour-tile-v1","version":"v46.0","tileId":"r02_c16","source":"Danmarks Dybdemodel 2024 ddm_50m.dybde.tiff via bundled DDM contour GeoJSON files"},"features":[{"type":"Feature","properties":{"depth":1,"source":"DDM 2024 coarse contour","resolution":"0.005 degree sampled grid","scope":"denmark","tileSource":"contours-denmark-coarse.geojson"},"geometry":{"type":"LineString","coordinates":[[15.555001,55.570326],[15.555,55.570326],[15.55,55.575324],[15.53,55.575324],[15.525,55.580324],[15.51,55.580322],[15.505,55.585322],[15.485,55.585321],[15.48,55.590319],[15.465,55.590319],[15.46,55.595317],[15.445,55.595318],[15.44,55.600314],[15.425,55.600321],[15.42,55.605322],[15.4,55.605321],[15.395,55.610321],[15.38,55.610323],[15.375,55.615322],[15.355,55.615327],[15.35,55.620328],[15.335,55.620326],[15.33,55.625326],[15.315,55.625328],[15.31,55.630327],[15.29,55.63033],[15.285,55.635328],[15.27,55.635329],[15.265,55.640328],[15.245,55.64033],[15.24,55.645328],[15.225,55.645329],[15.22,55.650324],[15.205,55.650324],[15.2,55.655319],[15.185,55.655321],[15.18,55.66032],[15.16,55.660321],[15.155,55.665318],[15.14,55.665317],[15.135,55.670312],[15.115,55.670314],[15.11,55.675311],[15.095,55.675308],[15.09,55.680305],[15.079999,55.6803]]}},{"type":"Feature","properties":{"depth":1,"source":"DDM 2024 coarse contour","resolution":"0.005 degree sampled grid","scope":"denmark","tileSource":"contours-denmark-coarse.geojson"},"geometry":{"type":"LineString","coordinates":[[15.184903,55.325],[15.19,55.324924],[15.194936,55.32],[15.19,55.315338],[15.185,55.315313],[15.170127,55.325],[15.175,55.329959],[15.18,55.329843],[15.184903,55.325]]}},{"type":"Feature","properties":{"depth":2,"source":"DDM 2024 coarse contour","resolution":"0.005 degree sampled grid","scope":"denmark","tileSource":"contours-denmark-coarse.geojson"},"geometry":{"type":"LineString","coordinates":[[15.555001,55.570321],[15.555,55.570321],[15.55,55.575319],[15.53,55.57532],[15.525,55.58032],[15.51,55.580318],[15.505,55.585317],[15.485,55.585316],[15.48,55.590314],[15.465,55.590314],[15.46,55.595313],[15.445,55.595314],[15.44,55.60031],[15.425,55.600316],[15.42,55.605317],[15.4,55.605317],[15.395,55.610316],[15.38,55.610318],[15.375,55.615318],[15.355,55.615322],[15.35,55.620324],[15.335,55.620322],[15.33,55.625322],[15.315,55.625323],[15.31,55.630322],[15.29,55.630325],[15.285,55.635323],[15.27,55.635324],[15.265,55.640323],[15.245,55.640325],[15.24,55.645324],[15.225,55.645324],[15.22,55.650319],[15.205,55.650319],[15.2,55.655315],[15.185,55.655317],[15.18,55.660315],[15.16,55.660317],[15.155,55.665313],[15.14,55.665312],[15.135,55.670307],[15.115,55.670309],[15.11,55.675306],[15.095,55.675303],[15.09,55.6803],[15.079999,55.680295]]}},{"type":"Feature","properties":{"depth":2,"source":"DDM 2024 coarse contour","resolution":"0.005 degree sampled grid","scope":"denmark","tileSource":"contours-denmark-coarse.geojson"},"geometry":{"type":"LineString","coordinates":[[15.184908,55.325],[15.19,55.324929],[15.194941,55.32],[15.19,55.315333],[15.185,55.315308],[15.170122,55.325],[15.175,55.329964],[15.18,55.329848],[15.184908,55.325]]}},{"type":"Feature","properties":{"depth":3,"source":"DDM 2024 coarse contour","resolution":"0.005 degree sampled grid","scope":"denmark","tileSource":"contours-denmark-coarse.geojson"},"geometry":{"type":"LineString","coordinates":[[15.555001,55.570316],[15.555,55.570316],[15.55,55.575315],[15.53,55.575315],[15.525,55.580315],[15.51,55.580313],[15.505,55.585313],[15.485,55.585312],[15.48,55.590309],[15.465,55.590309],[15.46,55.595308],[15.445,55.595309],[15.44,55.600305],[15.425,55.600312],[15.42,55.605313],[15.4,55.605312],[15.395,55.610311],[15.38,55.610314],[15.375,55.615313],[15.355,55.615317],[15.35,55.620319],[15.335,55.620317],[15.33,55.625317],[15.315,55.625318],[15.31,55.630318],[15.29,55.63032],[15.285,55.635318],[15.27,55.63532],[15.265,55.640319],[15.245,55.64032],[15.24,55.645319],[15.225,55.64532],[15.22,55.650315],[15.205,55.650315],[15.2,55.65531],[15.185,55.655312],[15.18,55.66031],[15.16,55.660312],[15.155,55.665309],[15.14,55.665307],[15.135,55.670302],[15.115,55.670305],[15.11,55.675302],[15.095,55.675298],[15.09,55.680296],[15.079999,55.680291]]}},{"type":"Feature","properties":{"depth":3,"source":"DDM 2024 coarse contour","resolution":"0.005 degree sampled grid","scope":"denmark","tileSource":"contours-denmark-coarse.geojson"},"geometry":{"type":"LineString","coordinates":[[15.184913,55.325],[15.19,55.324934],[15.194946,55.32],[15.19,55.315329],[15.185,55.315304],[15.170117,55.325],[15.175,55.329969],[15.18,55.329853],[15.184913,55.325]]}},{"type":"Feature","properties":{"depth":5,"source":"DDM 2024 coarse contour","resolution":"0.005 degree sampled grid","scope":"denmark","tileSource":"contours-denmark-coarse.geojson"},"geometry":{"type":"LineString","coordinates":[[15.555001,55.570307],[15.555,55.570307],[15.55,55.575305],[15.53,55.575306],[15.525,55.580306],[15.51,55.580304],[15.505,55.585303],[15.485,55.585302],[15.48,55.5903],[15.465,55.5903],[15.46,55.595299],[15.445,55.5953],[15.44,55.600296],[15.425,55.600302],[15.42,55.605303],[15.4,55.605303],[15.395,55.610302],[15.38,55.610304],[15.375,55.615304],[15.355,55.615308],[15.35,55.62031],[15.335,55.620308],[15.33,55.625308],[15.315,55.625309],[15.31,55.630308],[15.29,55.630311],[15.285,55.635309],[15.27,55.63531],[15.265,55.640309],[15.245,55.640311],[15.24,55.64531],[15.225,55.64531],[15.22,55.650305],[15.205,55.650305],[15.2,55.655301],[15.185,55.655303],[15.18,55.660301],[15.16,55.660303],[15.155,55.665299],[15.14,55.665298],[15.135,55.670293],[15.115,55.670295],[15.11,55.675292],[15.095,55.675289],[15.09,55.680286],[15.079999,55.680281]]}},{"type":"Feature","properties":{"depth":5,"source":"DDM 2024 coarse contour","resolution":"0.005 degree sampled grid","scope":"denmark","tileSource":"contours-denmark-coarse.geojson"},"geometry":{"type":"LineString","coordinates":[[15.184923,55.325],[15.19,55.324944],[15.194956,55.32],[15.19,55.315319],[15.185,55.315294],[15.170108,55.325],[15.175,55.329979],[15.18,55.329862],[15.184923,55.325]]}},{"type":"Feature","properties":{"depth":10,"source":"DDM 2024 coarse contour","resolution":"0.005 degree sampled grid","scope":"denmark","tileSource":"contours-denmark-coarse.geojson"},"geometry":{"type":"LineString","coordinates":[[15.555001,55.570284],[15.555,55.570284],[15.55,55.575282],[15.53,55.575282],[15.505,55.58528],[15.485,55.585279],[15.48,55.590277],[15.425,55.600279],[15.42,55.60528],[15.4,55.605279],[15.375,55.61528],[15.355,55.615285],[15.35,55.620286],[15.335,55.620284],[15.31,55.630285],[15.29,55.630288],[15.265,55.640286],[15.245,55.640288],[15.24,55.645286],[15.205,55.650282],[15.18,55.660278],[15.16,55.660279],[15.135,55.67027],[15.115,55.670272],[15.11,55.675269],[15.079999,55.679007]]}},{"type":"Feature","properties":{"depth":10,"source":"DDM 2024 coarse contour","resolution":"0.005 degree sampled grid","scope":"denmark","tileSource":"contours-denmark-coarse.geojson"},"geometry":{"type":"LineString","coordinates":[[15.175145,55.33],[15.19498,55.32],[15.185,55.315271],[15.175,55.320119],[15.167241,55.33],[15.175145,55.33]]}},{"type":"Feature","properties":{"depth":15,"source":"DDM 2024 coarse contour","resolution":"0.005 degree sampled grid","scope":"denmark","tileSource":"contours-denmark-coarse.geojson"},"geometry":{"type":"LineString","coordinates":[[15.555001,55.57026],[15.555,55.57026],[15.55,55.575259],[15.53,55.575259],[15.505,55.585256],[15.485,55.585255],[15.48,55.590253],[15.425,55.600255],[15.42,55.605256],[15.4,55.605256],[15.375,55.615257],[15.355,55.615261],[15.35,55.620263],[15.335,55.620261],[15.31,55.630262],[15.29,55.630264],[15.265,55.640263],[15.245,55.640264],[15.24,55.645263],[15.205,55.650259],[15.18,55.660254],[15.16,55.660256],[15.135,55.670246],[15.115,55.670248],[15.11,55.675245],[15.079999,55.678984]]}},{"type":"Feature","properties":{"depth":15,"source":"DDM 2024 coarse contour","resolution":"0.005 degree sampled grid","scope":"denmark","tileSource":"contours-denmark-coarse.geojson"},"geometry":{"type":"LineString","coordinates":[[15.176183,55.33],[15.195714,55.32],[15.185,55.315247],[15.164529,55.33],[15.176183,55.33]]}},{"type":"Feature","properties":{"depth":20,"source":"DDM 2024 coarse contour","resolution":"0.005 degree sampled grid","scope":"denmark","tileSource":"contours-denmark-coarse.geojson"},"geometry":{"type":"LineString","coordinates":[[15.555001,55.570237],[15.555,55.570237],[15.55,55.575235],[15.53,55.575236],[15.505,55.585233],[15.485,55.585232],[15.48,55.59023],[15.425,55.600232],[15.42,55.605233],[15.4,55.605233],[15.375,55.615233],[15.355,55.615238],[15.35,55.62024],[15.335,55.620237],[15.31,55.630238],[15.29,55.630241],[15.265,55.640239],[15.245,55.640241],[15.24,55.64524],[15.205,55.650235],[15.18,55.660231],[15.16,55.660233],[15.135,55.670223],[15.115,55.670225],[15.11,55.675222],[15.079999,55.67896]]}},{"type":"Feature","properties":{"depth":20,"source":"DDM 2024 coarse contour","resolution":"0.005 degree sampled grid","scope":"denmark","tileSource":"contours-denmark-coarse.geojson"},"geometry":{"type":"LineString","coordinates":[[15.17722,55.33],[15.199286,55.32],[15.185,55.315224],[15.163549,55.33],[15.17722,55.33]]}},{"type":"Feature","properties":{"depth":30,"source":"DDM 2024 coarse contour","resolution":"0.005 degree sampled grid","scope":"denmark","tileSource":"contours-denmark-coarse.geojson"},"geometry":{"type":"LineString","coordinates":[[15.555001,55.57019],[15.555,55.57019],[15.55,55.575188],[15.53,55.575189],[15.505,55.585186],[15.485,55.585185],[15.48,55.590183],[15.425,55.600185],[15.42,55.605186],[15.4,55.605186],[15.375,55.615187],[15.355,55.615191],[15.35,55.620193],[15.335,55.620191],[15.31,55.630192],[15.29,55.630194],[15.265,55.640192],[15.245,55.640194],[15.24,55.645193],[15.205,55.650188],[15.18,55.660184],[15.16,55.660186],[15.135,55.670176],[15.115,55.670178],[15.11,55.675175],[15.079999,55.678913]]}},{"type":"Feature","properties":{"depth":30,"source":"DDM 2024 coarse contour","resolution":"0.005 degree sampled grid","scope":"denmark","tileSource":"contours-denmark-coarse.geojson"},"geometry":{"type":"LineString","coordinates":[[15.179295,55.33],[15.201351,55.32],[15.185,55.315177],[15.161588,55.33],[15.17,55.334188],[15.179295,55.33]]}},{"type":"Feature","properties":{"depth":50,"source":"DDM 2024 coarse contour","resolution":"0.005 degree sampled grid","scope":"denmark","tileSource":"contours-denmark-coarse.geojson"},"geometry":{"type":"LineString","coordinates":[[15.555001,55.570097],[15.555,55.570097],[15.55,55.575095],[15.53,55.575095],[15.505,55.585093],[15.485,55.585092],[15.48,55.590089],[15.425,55.600092],[15.42,55.605093],[15.4,55.605092],[15.375,55.615093],[15.355,55.615098],[15.35,55.6201],[15.335,55.620097],[15.31,55.630098],[15.29,55.630101],[15.265,55.640099],[15.245,55.640101],[15.24,55.6451],[15.205,55.650095],[15.18,55.66009],[15.16,55.660092],[15.135,55.670082],[15.115,55.670084],[15.11,55.675081],[15.079999,55.678819]]}},{"type":"Feature","properties":{"depth":50,"source":"DDM 2024 coarse contour","resolution":"0.005 degree sampled grid","scope":"denmark","tileSource":"contours-denmark-coarse.geojson"},"geometry":{"type":"LineString","coordinates":[[15.154167,55.35],[15.187684,55.33],[15.205,55.325895],[15.204354,55.32],[15.185,55.315083],[15.15,55.324909],[15.157568,55.335],[15.140081,55.345],[15.154167,55.35]]}},{"type":"Feature","properties":{"depth":100,"source":"DDM 2024 coarse contour","resolution":"0.005 degree sampled grid","scope":"denmark","tileSource":"contours-denmark-coarse.geojson"},"geometry":{"type":"LineString","coordinates":[[15.24,55.316176],[15.22,55.31822],[15.194872,55.31],[15.194878,55.309999]]}},{"type":"Feature","properties":{"depth":100,"source":"DDM 2024 coarse contour","resolution":"0.005 degree sampled grid","scope":"denmark","tileSource":"contours-denmark-coarse.geojson"},"geometry":{"type":"LineString","coordinates":[[15.217875,55.309999],[15.22,55.312361],[15.221467,55.309999]]}},{"type":"Feature","properties":{"depth":100,"source":"DDM 2024 coarse contour","resolution":"0.005 degree sampled grid","scope":"denmark","tileSource":"contours-denmark-coarse.geojson"},"geometry":{"type":"LineString","coordinates":[[15.232192,55.309999],[15.24,55.316176]]}}]}