{"type":"FeatureCollection","name":"DDM contour tile r03_c10","bbox":[12.2,55.79,12.675,56.265],"metadata":{"schema":"waternav-ddm-contour-tile-v1","version":"v46.0","tileId":"r03_c10","source":"Danmarks Dybdemodel 2024 ddm_50m.dybde.tiff via bundled DDM contour GeoJSON files"},"features":[{"type":"Feature","properties":{"depth":1,"source":"DDM 2024 coarse contour","resolution":"0.005 degree sampled grid","scope":"denmark","tileSource":"contours-denmark-coarse.geojson"},"geometry":{"type":"LineString","coordinates":[[12.675001,55.89507],[12.665,55.905081],[12.66,55.90508],[12.655072,55.91],[12.655064,55.915],[12.645139,55.925],[12.645078,55.96],[12.650076,55.965],[12.650071,56.02],[12.655085,56.025],[12.655178,56.04],[12.645176,56.05],[12.645175,56.055],[12.62,56.065093],[12.61,56.07512],[12.595,56.080119],[12.585,56.090141],[12.57,56.095132],[12.56,56.105138],[12.555,56.105133],[12.53,56.12012],[12.52,56.120119],[12.465,56.150116],[12.455,56.150116],[12.425,56.175113],[12.42,56.175113],[12.41,56.185112],[12.405,56.185113],[12.395,56.195112],[12.39,56.195112],[12.375,56.210113],[12.35,56.215114],[12.345,56.220115],[12.335,56.220115],[12.33,56.225116],[12.32,56.225116],[12.315,56.230117],[12.305,56.230118],[12.3,56.235118],[12.29,56.235119],[12.285,56.24012],[12.275,56.240121],[12.27,56.245122],[12.26,56.245123],[12.255,56.250124],[12.24,56.250125],[12.235,56.255127],[12.225,56.255128],[12.22,56.260131],[12.21,56.260131],[12.205132,56.265001]]}},{"type":"Feature","properties":{"depth":1,"source":"DDM 2024 coarse contour","resolution":"0.005 degree sampled grid","scope":"denmark","tileSource":"contours-denmark-coarse.geojson"},"geometry":{"type":"LineString","coordinates":[[12.310769,56.13],[12.317857,56.125],[12.345,56.12497],[12.38,56.105],[12.405,56.104978],[12.410952,56.1],[12.42,56.099987],[12.425,56.095854],[12.45,56.095],[12.455,56.099978],[12.460769,56.095],[12.5,56.094957],[12.505,56.089999],[12.52,56.08996],[12.525,56.084994],[12.535,56.08497],[12.56,56.069997],[12.565,56.069983],[12.575,56.059999],[12.585,56.05998],[12.59,56.054991],[12.595,56.054973],[12.605294,56.045],[12.62,56.044978],[12.624972,56.04],[12.59,56.005028],[12.580341,56.005],[12.554993,55.985],[12.55498,55.98],[12.539996,55.96],[12.539987,55.95],[12.527,55.94],[12.529444,55.935],[12.525156,55.925],[12.525833,55.915],[12.549996,55.885],[12.5504,55.88],[12.559999,55.87],[12.559997,55.865],[12.579964,55.85],[12.574999,55.845],[12.575909,55.835],[12.579987,55.83],[12.5755,55.825],[12.579993,55.82],[12.58,55.811765],[12.589988,55.805],[12.589999,55.8],[12.594985,55.795],[12.594987,55.789999]]}},{"type":"Feature","properties":{"depth":1,"source":"DDM 2024 coarse contour","resolution":"0.005 degree sampled grid","scope":"denmark","tileSource":"contours-denmark-coarse.geojson"},"geometry":{"type":"LineString","coordinates":[[12.199999,56.115316],[12.21,56.115548],[12.215,56.119973],[12.229286,56.12],[12.235,56.124967],[12.26,56.125556],[12.265,56.12997],[12.310769,56.13]]}},{"type":"Feature","properties":{"depth":2,"source":"DDM 2024 coarse contour","resolution":"0.005 degree sampled grid","scope":"denmark","tileSource":"contours-denmark-coarse.geojson"},"geometry":{"type":"LineString","coordinates":[[12.675001,55.895066],[12.665,55.905076],[12.66,55.905075],[12.655068,55.91],[12.655059,55.915],[12.645134,55.925],[12.645073,55.96],[12.650071,55.965],[12.650067,56.02],[12.65508,56.025],[12.655174,56.04],[12.645171,56.05],[12.64517,56.055],[12.62,56.065088],[12.61,56.075115],[12.595,56.080114],[12.585,56.090137],[12.57,56.095128],[12.56,56.105133],[12.555,56.105128],[12.53,56.120115],[12.52,56.120114],[12.465,56.150111],[12.455,56.150111],[12.425,56.175108],[12.42,56.175108],[12.395,56.195107],[12.39,56.195107],[12.375,56.210108],[12.35,56.215109],[12.345,56.22011],[12.335,56.22011],[12.33,56.225111],[12.32,56.225111],[12.315,56.230112],[12.305,56.230113],[12.3,56.235113],[12.29,56.235114],[12.285,56.240115],[12.275,56.240116],[12.27,56.245118],[12.26,56.245119],[12.255,56.250119],[12.24,56.25012],[12.235,56.255122],[12.225,56.255123],[12.22,56.260126],[12.21,56.260126],[12.205127,56.265001]]}},{"type":"Feature","properties":{"depth":2,"source":"DDM 2024 coarse contour","resolution":"0.005 degree sampled grid","scope":"denmark","tileSource":"contours-denmark-coarse.geojson"},"geometry":{"type":"LineString","coordinates":[[12.312051,56.13],[12.322,56.125],[12.345,56.124975],[12.382647,56.105],[12.405,56.104983],[12.412143,56.1],[12.433333,56.095],[12.445833,56.095],[12.455,56.099983],[12.462692,56.095],[12.5,56.094962],[12.505,56.09035],[12.52,56.089965],[12.525,56.084999],[12.535,56.084975],[12.54,56.079999],[12.565,56.069988],[12.575,56.060761],[12.585,56.059985],[12.59,56.054996],[12.595,56.054978],[12.606765,56.045],[12.615,56.046556],[12.624977,56.04],[12.59,56.005023],[12.581477,56.005],[12.554998,55.985],[12.554985,55.98],[12.54,55.959474],[12.539992,55.95],[12.529,55.94],[12.532273,55.93],[12.526719,55.925],[12.526806,55.92],[12.544999,55.89],[12.56125,55.87],[12.561667,55.865],[12.579969,55.85],[12.575784,55.845],[12.579992,55.83],[12.58,55.814706],[12.589993,55.805],[12.59499,55.795],[12.594992,55.789999]]}},{"type":"Feature","properties":{"depth":2,"source":"DDM 2024 coarse contour","resolution":"0.005 degree sampled grid","scope":"denmark","tileSource":"contours-denmark-coarse.geojson"},"geometry":{"type":"LineString","coordinates":[[12.199999,56.115729],[12.21,56.116233],[12.215,56.119978],[12.226905,56.12],[12.235,56.124972],[12.26,56.12625],[12.265,56.129975],[12.312051,56.13]]}},{"type":"Feature","properties":{"depth":3,"source":"DDM 2024 coarse contour","resolution":"0.005 degree sampled grid","scope":"denmark","tileSource":"contours-denmark-coarse.geojson"},"geometry":{"type":"LineString","coordinates":[[12.675001,55.895061],[12.665,55.905071],[12.66,55.90507],[12.655063,55.91],[12.655054,55.915],[12.645129,55.925],[12.645068,55.96],[12.650066,55.965],[12.650062,56.02],[12.655075,56.025],[12.655169,56.04],[12.645166,56.05],[12.645165,56.055],[12.62,56.065083],[12.61,56.07511],[12.595,56.080109],[12.585,56.090132],[12.57,56.095123],[12.56,56.105128],[12.555,56.105124],[12.53,56.12011],[12.52,56.120109],[12.465,56.150106],[12.455,56.150106],[12.425,56.175103],[12.42,56.175103],[12.41,56.185103],[12.405,56.185103],[12.395,56.195102],[12.39,56.195102],[12.375,56.210103],[12.35,56.215104],[12.345,56.220106],[12.335,56.220106],[12.33,56.225106],[12.32,56.225106],[12.315,56.230107],[12.305,56.230108],[12.3,56.235108],[12.29,56.235109],[12.285,56.24011],[12.275,56.240111],[12.27,56.245113],[12.26,56.245114],[12.255,56.250115],[12.24,56.250116],[12.235,56.255117],[12.225,56.255118],[12.22,56.260121],[12.21,56.260121],[12.205122,56.265001]]}},{"type":"Feature","properties":{"depth":3,"source":"DDM 2024 coarse contour","resolution":"0.005 degree sampled grid","scope":"denmark","tileSource":"contours-denmark-coarse.geojson"},"geometry":{"type":"LineString","coordinates":[[12.313333,56.13],[12.3275,56.125],[12.345,56.12498],[12.385,56.105357],[12.405,56.104988],[12.413333,56.1],[12.435,56.09569],[12.455,56.099988],[12.464615,56.095],[12.5,56.094967],[12.505,56.09085],[12.52,56.08997],[12.525,56.085422],[12.535,56.08498],[12.565,56.069993],[12.575,56.061848],[12.595,56.054983],[12.608235,56.045],[12.615,56.047667],[12.624982,56.04],[12.59,56.005018],[12.582614,56.005],[12.57,55.995015],[12.565,55.995],[12.555833,55.985],[12.545,55.967927],[12.539997,55.95],[12.532083,55.94],[12.539,55.93],[12.537667,55.925],[12.535,55.923095],[12.53,55.927115],[12.528194,55.92],[12.54,55.900577],[12.5475,55.895],[12.557451,55.875],[12.572111,55.855],[12.579974,55.85],[12.576765,55.845],[12.581957,55.815],[12.597,55.79],[12.597,55.789999]]}},{"type":"Feature","properties":{"depth":3,"source":"DDM 2024 coarse contour","resolution":"0.005 degree sampled grid","scope":"denmark","tileSource":"contours-denmark-coarse.geojson"},"geometry":{"type":"LineString","coordinates":[[12.199999,56.114999],[12.200417,56.115],[12.265,56.12998],[12.3,56.130308],[12.305,56.13375],[12.313333,56.13]]}},{"type":"Feature","properties":{"depth":5,"source":"DDM 2024 coarse contour","resolution":"0.005 degree sampled grid","scope":"denmark","tileSource":"contours-denmark-coarse.geojson"},"geometry":{"type":"LineString","coordinates":[[12.675001,55.895051],[12.665,55.905061],[12.66,55.90506],[12.655053,55.91],[12.655044,55.915],[12.64512,55.925],[12.645059,55.96],[12.650057,55.965],[12.650052,56.02],[12.655065,56.025],[12.655159,56.04],[12.645157,56.05],[12.645155,56.055],[12.62,56.065073],[12.61,56.0751],[12.595,56.0801],[12.585,56.090122],[12.57,56.095113],[12.56,56.105119],[12.555,56.105114],[12.53,56.120101],[12.52,56.120099],[12.465,56.150097],[12.455,56.150096],[12.425,56.175093],[12.42,56.175093],[12.41,56.185093],[12.405,56.185093],[12.395,56.195092],[12.39,56.195092],[12.375,56.210093],[12.35,56.215094],[12.345,56.220096],[12.335,56.220096],[12.33,56.225097],[12.32,56.225097],[12.315,56.230097],[12.305,56.230098],[12.3,56.235099],[12.29,56.2351],[12.285,56.240101],[12.275,56.240101],[12.27,56.245103],[12.26,56.245104],[12.255,56.250105],[12.24,56.250106],[12.235,56.255108],[12.225,56.255109],[12.22,56.260111],[12.21,56.260112],[12.205112,56.265001]]}},{"type":"Feature","properties":{"depth":5,"source":"DDM 2024 coarse contour","resolution":"0.005 degree sampled grid","scope":"denmark","tileSource":"contours-denmark-coarse.geojson"},"geometry":{"type":"LineString","coordinates":[[12.3078,56.135],[12.32,56.128864],[12.33,56.12881],[12.332963,56.125],[12.345,56.12499],[12.375909,56.115],[12.38125,56.11],[12.396818,56.105],[12.44,56.098611],[12.47,56.098784],[12.52,56.08998],[12.555,56.075823],[12.605,56.0492],[12.615,56.049889],[12.624992,56.04],[12.6,56.011744],[12.575,56.000001],[12.549999,55.975],[12.545,55.965488],[12.546818,55.96],[12.544118,55.95],[12.549286,55.945],[12.54875,55.94],[12.555625,55.935],[12.55875,55.925],[12.55,55.919167],[12.545,55.922143],[12.536429,55.915],[12.54,55.904423],[12.545,55.908125],[12.556667,55.895],[12.559412,55.875],[12.565,55.8718],[12.579984,55.85],[12.5797,55.84],[12.5875,55.815],[12.5995,55.79],[12.5995,55.789999]]}},{"type":"Feature","properties":{"depth":5,"source":"DDM 2024 coarse contour","resolution":"0.005 degree sampled grid","scope":"denmark","tileSource":"contours-denmark-coarse.geojson"},"geometry":{"type":"LineString","coordinates":[[12.199999,56.117737],[12.285,56.133308],[12.3,56.131846],[12.305,56.137333],[12.3078,56.135]]}},{"type":"Feature","properties":{"depth":10,"source":"DDM 2024 coarse contour","resolution":"0.005 degree sampled grid","scope":"denmark","tileSource":"contours-denmark-coarse.geojson"},"geometry":{"type":"LineString","coordinates":[[12.199999,56.125022],[12.21,56.128571],[12.235,56.128636],[12.255,56.136522],[12.265,56.133846],[12.28,56.14125],[12.295,56.138542],[12.2975,56.145],[12.288611,56.155],[12.295,56.1584],[12.3,56.151333],[12.305,56.156226],[12.335,56.140943],[12.345,56.143265],[12.365,56.13],[12.385,56.135],[12.4,56.122742],[12.445,56.10705],[12.465,56.106169],[12.55,56.085],[12.555,56.078987],[12.58,56.075365],[12.615,56.06],[12.625813,56.04],[12.609993,56.025],[12.597,56],[12.5725,55.97],[12.582895,55.94],[12.575909,55.935],[12.583571,55.91],[12.58,55.905833],[12.575,55.911698],[12.567632,55.91],[12.576,55.9],[12.572317,55.87],[12.605,55.838333],[12.613846,55.84],[12.615,55.845],[12.62,55.837708],[12.625,55.8425],[12.63,55.838571],[12.645,55.847167],[12.655,55.845],[12.66,55.835833],[12.668333,55.835],[12.66,55.83],[12.666,55.8],[12.672401,55.789999]]}},{"type":"Feature","properties":{"depth":10,"source":"DDM 2024 coarse contour","resolution":"0.005 degree sampled grid","scope":"denmark","tileSource":"contours-denmark-coarse.geojson"},"geometry":{"type":"LineString","coordinates":[[12.675001,55.89502],[12.655028,55.91],[12.645095,55.925],[12.65,55.984429],[12.639773,56],[12.640556,55.995],[12.65,55.99],[12.650027,56.02],[12.655041,56.025],[12.655135,56.04],[12.645,56.055131],[12.62,56.065049],[12.56,56.105094],[12.53,56.120076],[12.52,56.120075],[12.465,56.150072],[12.455,56.150072],[12.425,56.175069],[12.39,56.195068],[12.375,56.210069],[12.32,56.225072],[12.255,56.25008],[12.24,56.250081],[12.200233,56.265001]]}},{"type":"Feature","properties":{"depth":10,"source":"DDM 2024 coarse contour","resolution":"0.005 degree sampled grid","scope":"denmark","tileSource":"contours-denmark-coarse.geojson"},"geometry":{"type":"LineString","coordinates":[[12.590972,55.89],[12.61,55.869167],[12.62,55.870732],[12.645,55.85425],[12.635,55.84625],[12.615,55.85803],[12.61,55.854583],[12.6,55.874277],[12.595,55.86],[12.5844,55.88],[12.59,55.895],[12.590972,55.89]]}},{"type":"Feature","properties":{"depth":10,"source":"DDM 2024 coarse contour","resolution":"0.005 degree sampled grid","scope":"denmark","tileSource":"contours-denmark-coarse.geojson"},"geometry":{"type":"LineString","coordinates":[[12.2625,56.15],[12.245,56.137105],[12.242381,56.14],[12.255,56.15119],[12.2625,56.15]]}},{"type":"Feature","properties":{"depth":15,"source":"DDM 2024 coarse contour","resolution":"0.005 degree sampled grid","scope":"denmark","tileSource":"contours-denmark-coarse.geojson"},"geometry":{"type":"LineString","coordinates":[[12.199999,56.13881],[12.2,56.13881],[12.219091,56.17],[12.235,56.167692],[12.238333,56.17],[12.235,56.1756],[12.241538,56.175],[12.245,56.165909],[12.25,56.168824],[12.295,56.163953],[12.355,56.150245],[12.45,56.107123],[12.465,56.108185],[12.5294,56.095],[12.605,56.066556],[12.625,56.061094],[12.625037,56.065],[12.57,56.095064],[12.56,56.10507],[12.53,56.120052],[12.52,56.12005],[12.465,56.150048],[12.455,56.150047],[12.425,56.175044],[12.39,56.195044],[12.375,56.210044],[12.32,56.225048],[12.255,56.250056],[12.24,56.250057],[12.200169,56.265001]]}},{"type":"Feature","properties":{"depth":15,"source":"DDM 2024 coarse contour","resolution":"0.005 degree sampled grid","scope":"denmark","tileSource":"contours-denmark-coarse.geojson"},"geometry":{"type":"LineString","coordinates":[[12.645,56.055107],[12.635105,56.055],[12.635,56.049681],[12.625,56.051222],[12.62701,56.04],[12.614985,56.03],[12.607045,56.015],[12.603833,56],[12.61,55.99],[12.606667,55.965],[12.612812,55.95],[12.609167,55.94],[12.615,55.9125],[12.605,55.917857],[12.6,55.912791],[12.595,55.917847],[12.592833,55.91],[12.608947,55.9],[12.61,55.890789],[12.615,55.903611],[12.636071,55.895],[12.639643,55.89],[12.635,55.883333],[12.62,55.891786],[12.613659,55.885],[12.665,55.847643],[12.675001,55.83768]]}},{"type":"Feature","properties":{"depth":15,"source":"DDM 2024 coarse contour","resolution":"0.005 degree sampled grid","scope":"denmark","tileSource":"contours-denmark-coarse.geojson"},"geometry":{"type":"LineString","coordinates":[[12.675001,55.85524],[12.665,55.866],[12.66,55.865],[12.662778,55.87],[12.64375,55.89],[12.65,55.885],[12.655,55.890909],[12.675,55.88587],[12.675001,55.890435]]}},{"type":"Feature","properties":{"depth":15,"source":"DDM 2024 coarse contour","resolution":"0.005 degree sampled grid","scope":"denmark","tileSource":"contours-denmark-coarse.geojson"},"geometry":{"type":"LineString","coordinates":[[12.675001,55.895001],[12.665,55.905012],[12.655,55.911944],[12.65,55.91],[12.653514,55.915],[12.645071,55.925],[12.645009,55.96],[12.65,55.973333],[12.639091,55.98],[12.63,55.995],[12.629487,56.03],[12.645,56.038333],[12.650494,56.03],[12.645526,56.025],[12.65,56.014565],[12.655016,56.025],[12.655111,56.04],[12.645,56.055107]]}},{"type":"Feature","properties":{"depth":20,"source":"DDM 2024 coarse contour","resolution":"0.005 degree sampled grid","scope":"denmark","tileSource":"contours-denmark-coarse.geojson"},"geometry":{"type":"LineString","coordinates":[[12.199999,56.186904],[12.205,56.185455],[12.21,56.174655],[12.216842,56.175],[12.214167,56.185],[12.225,56.187273],[12.245,56.179457],[12.265,56.180909],[12.355,56.152696],[12.43,56.117457],[12.446818,56.115],[12.45,56.10852],[12.46,56.111354],[12.53,56.096728],[12.605,56.069333],[12.615017,56.07],[12.57,56.09504],[12.56,56.105046],[12.53,56.120027],[12.52,56.120026],[12.465,56.150023],[12.455,56.150023],[12.425,56.17502],[12.39,56.195019],[12.375,56.21002],[12.32,56.225023],[12.255,56.250032],[12.24,56.250033],[12.200105,56.265001]]}},{"type":"Feature","properties":{"depth":20,"source":"DDM 2024 coarse contour","resolution":"0.005 degree sampled grid","scope":"denmark","tileSource":"contours-denmark-coarse.geojson"},"geometry":{"type":"LineString","coordinates":[[12.645,55.938333],[12.62675,55.925],[12.625,55.916667],[12.63,55.91],[12.645,55.910909],[12.65,55.916622],[12.645,55.938333]]}},{"type":"Feature","properties":{"depth":20,"source":"DDM 2024 coarse contour","resolution":"0.005 degree sampled grid","scope":"denmark","tileSource":"contours-denmark-coarse.geojson"},"geometry":{"type":"LineString","coordinates":[[12.62,56.03125],[12.613496,56.025],[12.611111,56.01],[12.62,55.974737],[12.623553,55.99],[12.6186,56.02],[12.623944,56.03],[12.62,56.03125]]}},{"type":"Feature","properties":{"depth":20,"source":"DDM 2024 coarse contour","resolution":"0.005 degree sampled grid","scope":"denmark","tileSource":"contours-denmark-coarse.geojson"},"geometry":{"type":"LineString","coordinates":[[12.645,56.055083],[12.636414,56.055],[12.655,56.027125],[12.655087,56.04],[12.645,56.055083]]}},{"type":"Feature","properties":{"depth":20,"source":"DDM 2024 coarse contour","resolution":"0.005 degree sampled grid","scope":"denmark","tileSource":"contours-denmark-coarse.geojson"},"geometry":{"type":"LineString","coordinates":[[12.63,56.046667],[12.63,56.035787],[12.635116,56.04],[12.63,56.046667]]}},{"type":"Feature","properties":{"depth":30,"source":"DDM 2024 coarse contour","resolution":"0.005 degree sampled grid","scope":"denmark","tileSource":"contours-denmark-coarse.geojson"},"geometry":{"type":"LineString","coordinates":[[12.65,56.045037],[12.646681,56.045],[12.655,56.033438],[12.65,56.045037]]}},{"type":"Feature","properties":{"depth":30,"source":"DDM 2024 coarse contour","resolution":"0.005 degree sampled grid","scope":"denmark","tileSource":"contours-denmark-coarse.geojson"},"geometry":{"type":"LineString","coordinates":[[12.645,56.055035],[12.639031,56.055],[12.645,56.046711],[12.645,56.055035]]}}]}