{"type":"FeatureCollection","name":"DDM contour tile r05_c04","bbox":[9.32,56.75,9.795,57.225],"metadata":{"schema":"waternav-ddm-contour-tile-v1","version":"v45.9","tileId":"r05_c04","source":"Danmarks Dybdemodel 2024 ddm_50m.dybde.tiff via bundled DDM contour GeoJSON files"},"features":[{"type":"Feature","properties":{"depth":1,"source":"DDM 2024 coarse contour","resolution":"0.005 degree sampled grid","scope":"denmark","tileSource":"contours-denmark-coarse.geojson"},"geometry":{"type":"LineString","coordinates":[[9.319999,57.155702],[9.325,57.155882],[9.33,57.159987],[9.37625,57.16],[9.385,57.164986],[9.399412,57.165],[9.415,57.174988],[9.425,57.174997],[9.46,57.194987],[9.468333,57.195],[9.495,57.209988],[9.50425,57.21],[9.51,57.21499],[9.515,57.214996],[9.52,57.219991],[9.535,57.225],[9.535001,57.225001]]}},{"type":"Feature","properties":{"depth":1,"source":"DDM 2024 coarse contour","resolution":"0.005 degree sampled grid","scope":"denmark","tileSource":"contours-denmark-coarse.geojson"},"geometry":{"type":"LineString","coordinates":[[9.61,56.971667],[9.585,56.975],[9.575,56.97],[9.585,56.967273],[9.615,56.97],[9.61,56.971667]]}},{"type":"Feature","properties":{"depth":1,"source":"DDM 2024 coarse contour","resolution":"0.005 degree sampled grid","scope":"denmark","tileSource":"contours-denmark-coarse.geojson"},"geometry":{"type":"LineString","coordinates":[[9.795,57.071923],[9.79,57.074524],[9.785,57.07004],[9.78,57.074494],[9.765,57.073478],[9.759,57.07],[9.770526,57.065],[9.755,57.059167],[9.75,57.064861],[9.74,57.06425],[9.735,57.06],[9.695,57.060007],[9.69,57.065],[9.68,57.0675],[9.655,57.055],[9.651667,57.05],[9.6525,57.045],[9.63,57.0295],[9.634375,57.035],[9.625,57.042778],[9.59,57.035],[9.575,57.035556],[9.57,57.0325],[9.555,57.038182],[9.515,57.035833],[9.505,57.038462],[9.495714,57.035],[9.496087,57.03],[9.49,57.025031],[9.485,57.029412],[9.48,57.024796],[9.458333,57.025],[9.464412,57.03],[9.462273,57.035],[9.46,57.038125],[9.455,57.035008],[9.45,57.0375],[9.42,57.034048],[9.415,57.030009],[9.405,57.03],[9.4,57.025016],[9.387857,57.025],[9.38,57.020556],[9.34,57.019048],[9.32,57.010023],[9.319999,57.010023]]}},{"type":"Feature","properties":{"depth":1,"source":"DDM 2024 coarse contour","resolution":"0.005 degree sampled grid","scope":"denmark","tileSource":"contours-denmark-coarse.geojson"},"geometry":{"type":"LineString","coordinates":[[9.319999,57.004844],[9.329091,57.005],[9.34,57.009998],[9.37,57.009993],[9.375,57.014991],[9.405,57.014999],[9.41,57.019993],[9.505,57.020096],[9.505,57.014993],[9.52,57.014999],[9.525,57.009999],[9.54,57.007353],[9.555,57.014998],[9.565,57.014997],[9.585,57.007],[9.6,57.005],[9.62,56.99],[9.645,56.998],[9.654231,57.01],[9.665,57.011875],[9.668125,57.015],[9.666154,57.025],[9.68,57.039996],[9.69,57.039989],[9.695,57.04498],[9.73,57.046098],[9.735,57.04999],[9.775714,57.055],[9.79,57.06525],[9.795001,57.0603]]}},{"type":"Feature","properties":{"depth":1,"source":"DDM 2024 coarse contour","resolution":"0.005 degree sampled grid","scope":"denmark","tileSource":"contours-denmark-coarse.geojson"},"geometry":{"type":"LineString","coordinates":[[9.795001,57.071922],[9.795,57.071923]]}},{"type":"Feature","properties":{"depth":1,"source":"DDM 2024 coarse contour","resolution":"0.005 degree sampled grid","scope":"denmark","tileSource":"contours-denmark-coarse.geojson"},"geometry":{"type":"LineString","coordinates":[[9.48,57.04],[9.465556,57.04],[9.47,57.032],[9.48,57.033125],[9.482143,57.035],[9.48,57.04]]}},{"type":"Feature","properties":{"depth":2,"source":"DDM 2024 coarse contour","resolution":"0.005 degree sampled grid","scope":"denmark","tileSource":"contours-denmark-coarse.geojson"},"geometry":{"type":"LineString","coordinates":[[9.319999,57.156468],[9.33,57.159992],[9.372,57.16],[9.385,57.164991],[9.396471,57.165],[9.41,57.17],[9.415,57.174993],[9.423667,57.175],[9.43,57.179992],[9.435,57.179996],[9.46,57.194992],[9.49,57.204995],[9.495,57.209993],[9.514167,57.215],[9.529592,57.225001]]}},{"type":"Feature","properties":{"depth":2,"source":"DDM 2024 coarse contour","resolution":"0.005 degree sampled grid","scope":"denmark","tileSource":"contours-denmark-coarse.geojson"},"geometry":{"type":"LineString","coordinates":[[9.75,57.063472],[9.74,57.063417],[9.73,57.056944],[9.715,57.055937],[9.708571,57.06],[9.68,57.0625],[9.67,57.058125],[9.645,57.029],[9.64,57.027857],[9.635,57.031944],[9.630833,57.025],[9.625,57.0235],[9.610833,57.01],[9.63,56.997083],[9.635,56.9985],[9.66,57.015833],[9.6655,57.03],[9.68,57.040263],[9.69,57.039994],[9.695,57.044985],[9.745,57.051034],[9.752917,57.055],[9.753472,57.06],[9.75,57.063472]]}},{"type":"Feature","properties":{"depth":2,"source":"DDM 2024 coarse contour","resolution":"0.005 degree sampled grid","scope":"denmark","tileSource":"contours-denmark-coarse.geojson"},"geometry":{"type":"LineString","coordinates":[[9.33,57.013393],[9.319999,57.011847]]}},{"type":"Feature","properties":{"depth":2,"source":"DDM 2024 coarse contour","resolution":"0.005 degree sampled grid","scope":"denmark","tileSource":"contours-denmark-coarse.geojson"},"geometry":{"type":"LineString","coordinates":[[9.319999,57.005],[9.324643,57.005],[9.33413,57.01],[9.33,57.013393]]}},{"type":"Feature","properties":{"depth":2,"source":"DDM 2024 coarse contour","resolution":"0.005 degree sampled grid","scope":"denmark","tileSource":"contours-denmark-coarse.geojson"},"geometry":{"type":"LineString","coordinates":[[9.4,57.02],[9.375,57.017353],[9.35,57.0198],[9.336,57.015],[9.34,57.011],[9.353667,57.01],[9.365,57.012885],[9.37,57.009998],[9.375,57.014996],[9.401818,57.015],[9.4,57.02]]}},{"type":"Feature","properties":{"depth":2,"source":"DDM 2024 coarse contour","resolution":"0.005 degree sampled grid","scope":"denmark","tileSource":"contours-denmark-coarse.geojson"},"geometry":{"type":"LineString","coordinates":[[9.455,57.035003],[9.436364,57.035],[9.43,57.0315],[9.407941,57.03],[9.4,57.025011],[9.39125,57.025],[9.4,57.02],[9.505,57.021058],[9.5072,57.02],[9.504998,57.015],[9.51,57.014985],[9.516923,57.015],[9.512414,57.02],[9.524,57.025],[9.515,57.033269],[9.51,57.02875],[9.505,57.034687],[9.49,57.025026],[9.485,57.028676],[9.48,57.023776],[9.450714,57.025],[9.461471,57.03],[9.455,57.035003]]}},{"type":"Feature","properties":{"depth":2,"source":"DDM 2024 coarse contour","resolution":"0.005 degree sampled grid","scope":"denmark","tileSource":"contours-denmark-coarse.geojson"},"geometry":{"type":"LineString","coordinates":[[9.615,57.034265],[9.58,57.031875],[9.576429,57.025],[9.565,57.023889],[9.555,57.034318],[9.535,57.033594],[9.525,57.03],[9.537273,57.025],[9.536111,57.02],[9.54,57.015333],[9.565,57.0158],[9.605,57.01],[9.61,57.011],[9.615,57.02],[9.588125,57.025],[9.605,57.025678],[9.61,57.029976],[9.615,57.026915],[9.619833,57.03],[9.615,57.034265]]}},{"type":"Feature","properties":{"depth":2,"source":"DDM 2024 coarse contour","resolution":"0.005 degree sampled grid","scope":"denmark","tileSource":"contours-denmark-coarse.geojson"},"geometry":{"type":"LineString","coordinates":[[9.79,57.073929],[9.785,57.070035],[9.78,57.073933],[9.765,57.071304],[9.763,57.07],[9.773158,57.065],[9.762727,57.06],[9.77,57.055962],[9.79,57.065875],[9.794648,57.07],[9.79,57.073929]]}},{"type":"Feature","properties":{"depth":2,"source":"DDM 2024 coarse contour","resolution":"0.005 degree sampled grid","scope":"denmark","tileSource":"contours-denmark-coarse.geojson"},"geometry":{"type":"LineString","coordinates":[[9.795001,57.065975],[9.793333,57.065],[9.795001,57.062762]]}},{"type":"Feature","properties":{"depth":3,"source":"DDM 2024 coarse contour","resolution":"0.005 degree sampled grid","scope":"denmark","tileSource":"contours-denmark-coarse.geojson"},"geometry":{"type":"LineString","coordinates":[[9.319999,57.156937],[9.33,57.159997],[9.37,57.16125],[9.408043,57.17],[9.425,57.178889],[9.434286,57.18],[9.443182,57.185],[9.445,57.19],[9.452778,57.19],[9.485,57.207857],[9.49,57.205],[9.495,57.209998],[9.530238,57.225],[9.530239,57.225001]]}},{"type":"Feature","properties":{"depth":3,"source":"DDM 2024 coarse contour","resolution":"0.005 degree sampled grid","scope":"denmark","tileSource":"contours-denmark-coarse.geojson"},"geometry":{"type":"LineString","coordinates":[[9.33,57.011607],[9.319999,57.01075]]}},{"type":"Feature","properties":{"depth":3,"source":"DDM 2024 coarse contour","resolution":"0.005 degree sampled grid","scope":"denmark","tileSource":"contours-denmark-coarse.geojson"},"geometry":{"type":"LineString","coordinates":[[9.319999,57.005],[9.321071,57.005],[9.331957,57.01],[9.33,57.011607]]}},{"type":"Feature","properties":{"depth":3,"source":"DDM 2024 coarse contour","resolution":"0.005 degree sampled grid","scope":"denmark","tileSource":"contours-denmark-coarse.geojson"},"geometry":{"type":"LineString","coordinates":[[9.37,57.016897],[9.36,57.015238],[9.35,57.0178],[9.337667,57.015],[9.350333,57.01],[9.36,57.014762],[9.37,57.011765],[9.374231,57.015],[9.37,57.016897]]}},{"type":"Feature","properties":{"depth":3,"source":"DDM 2024 coarse contour","resolution":"0.005 degree sampled grid","scope":"denmark","tileSource":"contours-denmark-coarse.geojson"},"geometry":{"type":"LineString","coordinates":[[9.66,57.03375],[9.650455,57.03],[9.65,57.023],[9.635,57.022222],[9.621667,57.015],[9.625,57.01],[9.635,57.0075],[9.645,57.01],[9.66,57.02],[9.657308,57.025],[9.6625,57.03],[9.66,57.03375]]}},{"type":"Feature","properties":{"depth":3,"source":"DDM 2024 coarse contour","resolution":"0.005 degree sampled grid","scope":"denmark","tileSource":"contours-denmark-coarse.geojson"},"geometry":{"type":"LineString","coordinates":[[9.39,57.017679],[9.378333,57.015],[9.395,57.015],[9.39,57.017679]]}},{"type":"Feature","properties":{"depth":3,"source":"DDM 2024 coarse contour","resolution":"0.005 degree sampled grid","scope":"denmark","tileSource":"contours-denmark-coarse.geojson"},"geometry":{"type":"LineString","coordinates":[[9.515,57.031346],[9.51,57.027614],[9.505,57.031562],[9.49,57.025021],[9.485,57.027941],[9.48,57.022755],[9.44,57.023871],[9.433542,57.02],[9.505,57.022019],[9.5092,57.02],[9.505962,57.015],[9.514038,57.015],[9.51069,57.02],[9.5188,57.025],[9.515,57.031346]]}},{"type":"Feature","properties":{"depth":3,"source":"DDM 2024 coarse contour","resolution":"0.005 degree sampled grid","scope":"denmark","tileSource":"contours-denmark-coarse.geojson"},"geometry":{"type":"LineString","coordinates":[[9.555,57.032045],[9.545,57.033558],[9.531389,57.03],[9.539545,57.025],[9.54,57.018667],[9.6,57.014583],[9.605,57.015],[9.609,57.02],[9.6,57.023088],[9.555,57.023],[9.555,57.032045]]}},{"type":"Feature","properties":{"depth":3,"source":"DDM 2024 coarse contour","resolution":"0.005 degree sampled grid","scope":"denmark","tileSource":"contours-denmark-coarse.geojson"},"geometry":{"type":"LineString","coordinates":[[9.43,57.027083],[9.415,57.029792],[9.393036,57.025],[9.411316,57.02],[9.425,57.02],[9.432083,57.025],[9.43,57.027083]]}},{"type":"Feature","properties":{"depth":3,"source":"DDM 2024 coarse contour","resolution":"0.005 degree sampled grid","scope":"denmark","tileSource":"contours-denmark-coarse.geojson"},"geometry":{"type":"LineString","coordinates":[[9.445,57.035011],[9.440417,57.035],[9.445,57.03],[9.458333,57.03],[9.455,57.033571],[9.445,57.03],[9.448143,57.035],[9.445,57.035011]]}},{"type":"Feature","properties":{"depth":3,"source":"DDM 2024 coarse contour","resolution":"0.005 degree sampled grid","scope":"denmark","tileSource":"contours-denmark-coarse.geojson"},"geometry":{"type":"LineString","coordinates":[[9.615,57.032794],[9.595,57.033],[9.59,57.03],[9.595,57.026707],[9.605,57.026525],[9.61,57.029981],[9.615,57.027979],[9.618167,57.03],[9.615,57.032794]]}},{"type":"Feature","properties":{"depth":3,"source":"DDM 2024 coarse contour","resolution":"0.005 degree sampled grid","scope":"denmark","tileSource":"contours-denmark-coarse.geojson"},"geometry":{"type":"LineString","coordinates":[[9.69,57.055833],[9.676667,57.055],[9.660556,57.035],[9.665,57.031364],[9.68,57.042895],[9.69,57.039999],[9.695,57.04499],[9.699565,57.045],[9.695,57.048889],[9.6825,57.05],[9.6925,57.055],[9.69,57.055833]]}},{"type":"Feature","properties":{"depth":3,"source":"DDM 2024 coarse contour","resolution":"0.005 degree sampled grid","scope":"denmark","tileSource":"contours-denmark-coarse.geojson"},"geometry":{"type":"LineString","coordinates":[[9.725,57.055217],[9.705,57.054348],[9.6975,57.05],[9.7,57.04625],[9.735,57.05],[9.725,57.055217]]}},{"type":"Feature","properties":{"depth":3,"source":"DDM 2024 coarse contour","resolution":"0.005 degree sampled grid","scope":"denmark","tileSource":"contours-denmark-coarse.geojson"},"geometry":{"type":"LineString","coordinates":[[9.75,57.062083],[9.74,57.062583],[9.7315,57.055],[9.735,57.05],[9.745,57.052759],[9.75,57.055833],[9.752083,57.06],[9.75,57.062083]]}},{"type":"Feature","properties":{"depth":3,"source":"DDM 2024 coarse contour","resolution":"0.005 degree sampled grid","scope":"denmark","tileSource":"contours-denmark-coarse.geojson"},"geometry":{"type":"LineString","coordinates":[[9.79,57.073333],[9.785,57.07003],[9.78,57.073371],[9.767,57.07],[9.775,57.065341],[9.785,57.06558],[9.793944,57.07],[9.79,57.073333]]}},{"type":"Feature","properties":{"depth":5,"source":"DDM 2024 coarse contour","resolution":"0.005 degree sampled grid","scope":"denmark","tileSource":"contours-denmark-coarse.geojson"},"geometry":{"type":"LineString","coordinates":[[9.319999,57.161579],[9.325,57.163158],[9.355,57.163846],[9.37,57.169444],[9.375,57.167187],[9.38,57.171667],[9.4,57.173846],[9.45,57.197143],[9.455,57.194828],[9.458125,57.2],[9.47,57.207143],[9.512058,57.225001]]}},{"type":"Feature","properties":{"depth":5,"source":"DDM 2024 coarse contour","resolution":"0.005 degree sampled grid","scope":"denmark","tileSource":"contours-denmark-coarse.geojson"},"geometry":{"type":"LineString","coordinates":[[9.517542,57.225001],[9.52,57.223793],[9.520757,57.225001]]}},{"type":"Feature","properties":{"depth":5,"source":"DDM 2024 coarse contour","resolution":"0.005 degree sampled grid","scope":"denmark","tileSource":"contours-denmark-coarse.geojson"},"geometry":{"type":"LineString","coordinates":[[9.48,57.020714],[9.45,57.022583],[9.438824,57.02],[9.482692,57.02],[9.48,57.020714]]}},{"type":"Feature","properties":{"depth":5,"source":"DDM 2024 coarse contour","resolution":"0.005 degree sampled grid","scope":"denmark","tileSource":"contours-denmark-coarse.geojson"},"geometry":{"type":"LineString","coordinates":[[9.51,57.025341],[9.483387,57.025],[9.485,57.021154],[9.51375,57.025],[9.51,57.025341]]}},{"type":"Feature","properties":{"depth":5,"source":"DDM 2024 coarse contour","resolution":"0.005 degree sampled grid","scope":"denmark","tileSource":"contours-denmark-coarse.geojson"},"geometry":{"type":"LineString","coordinates":[[9.545,57.031635],[9.542258,57.03],[9.543214,57.025],[9.55,57.022857],[9.548696,57.03],[9.545,57.031635]]}},{"type":"Feature","properties":{"depth":5,"source":"DDM 2024 coarse contour","resolution":"0.005 degree sampled grid","scope":"denmark","tileSource":"contours-denmark-coarse.geojson"},"geometry":{"type":"LineString","coordinates":[[9.61,57.031696],[9.593704,57.03],[9.61475,57.03],[9.61,57.031696]]}},{"type":"Feature","properties":{"depth":5,"source":"DDM 2024 coarse contour","resolution":"0.005 degree sampled grid","scope":"denmark","tileSource":"contours-denmark-coarse.geojson"},"geometry":{"type":"LineString","coordinates":[[9.79,57.072143],[9.772,57.07],[9.785,57.067029],[9.792535,57.07],[9.79,57.072143]]}},{"type":"Feature","properties":{"depth":10,"source":"DDM 2024 coarse contour","resolution":"0.005 degree sampled grid","scope":"denmark","tileSource":"contours-denmark-coarse.geojson"},"geometry":{"type":"LineString","coordinates":[[9.373946,57.225001],[9.385,57.216429],[9.42,57.215556],[9.42,57.21],[9.43,57.208],[9.435,57.21],[9.435,57.215833],[9.445,57.211],[9.485,57.223667],[9.48705,57.225001]]}}]}