{"type":"FeatureCollection","name":"DDM contour tile r06_c03","bbox":[8.84,57.23,9.315,57.705],"metadata":{"schema":"waternav-ddm-contour-tile-v1","version":"v45.9","tileId":"r06_c03","source":"Danmarks Dybdemodel 2024 ddm_50m.dybde.tiff via bundled DDM contour GeoJSON files"},"features":[{"type":"Feature","properties":{"depth":1,"source":"DDM 2024 coarse contour","resolution":"0.005 degree sampled grid","scope":"denmark","tileSource":"contours-denmark-coarse.geojson"},"geometry":{"type":"LineString","coordinates":[[8.904554,57.705001],[8.9,57.700437],[8.895,57.700435],[8.89,57.69543],[8.88,57.695432],[8.875,57.69044],[8.855,57.690453],[8.85,57.685468],[8.839999,57.685474]]}},{"type":"Feature","properties":{"depth":2,"source":"DDM 2024 coarse contour","resolution":"0.005 degree sampled grid","scope":"denmark","tileSource":"contours-denmark-coarse.geojson"},"geometry":{"type":"LineString","coordinates":[[8.904559,57.705001],[8.9,57.700432],[8.895,57.700431],[8.89,57.695426],[8.88,57.695428],[8.875,57.690435],[8.855,57.690449],[8.85,57.685464],[8.839999,57.68547]]}},{"type":"Feature","properties":{"depth":3,"source":"DDM 2024 coarse contour","resolution":"0.005 degree sampled grid","scope":"denmark","tileSource":"contours-denmark-coarse.geojson"},"geometry":{"type":"LineString","coordinates":[[8.904563,57.705001],[8.9,57.700428],[8.895,57.700426],[8.89,57.695421],[8.88,57.695423],[8.875,57.69043],[8.855,57.690444],[8.85,57.685459],[8.839999,57.685465]]}},{"type":"Feature","properties":{"depth":5,"source":"DDM 2024 coarse contour","resolution":"0.005 degree sampled grid","scope":"denmark","tileSource":"contours-denmark-coarse.geojson"},"geometry":{"type":"LineString","coordinates":[[8.904572,57.705001],[8.9,57.700418],[8.895,57.700417],[8.89,57.695412],[8.88,57.695414],[8.875,57.690421],[8.855,57.690435],[8.85,57.68545],[8.839999,57.685456]]}},{"type":"Feature","properties":{"depth":10,"source":"DDM 2024 coarse contour","resolution":"0.005 degree sampled grid","scope":"denmark","tileSource":"contours-denmark-coarse.geojson"},"geometry":{"type":"LineString","coordinates":[[9.303499,57.229999],[9.315001,57.240455]]}},{"type":"Feature","properties":{"depth":10,"source":"DDM 2024 coarse contour","resolution":"0.005 degree sampled grid","scope":"denmark","tileSource":"contours-denmark-coarse.geojson"},"geometry":{"type":"LineString","coordinates":[[8.904914,57.705001],[8.89,57.695389],[8.855,57.690412],[8.85,57.685427],[8.839999,57.685433]]}},{"type":"Feature","properties":{"depth":15,"source":"DDM 2024 coarse contour","resolution":"0.005 degree sampled grid","scope":"denmark","tileSource":"contours-denmark-coarse.geojson"},"geometry":{"type":"LineString","coordinates":[[9.042498,57.229999],[9.0425,57.23],[9.09,57.27],[9.11,57.275],[9.17,57.276429],[9.22,57.292],[9.24,57.305],[9.265,57.335],[9.275,57.339],[9.315001,57.342111]]}},{"type":"Feature","properties":{"depth":15,"source":"DDM 2024 coarse contour","resolution":"0.005 degree sampled grid","scope":"denmark","tileSource":"contours-denmark-coarse.geojson"},"geometry":{"type":"LineString","coordinates":[[8.90495,57.705001],[8.89,57.695366],[8.855,57.69039],[8.85,57.685405],[8.839999,57.685411]]}},{"type":"Feature","properties":{"depth":20,"source":"DDM 2024 coarse contour","resolution":"0.005 degree sampled grid","scope":"denmark","tileSource":"contours-denmark-coarse.geojson"},"geometry":{"type":"LineString","coordinates":[[8.885454,57.229999],[8.89,57.233333],[8.964,57.255],[8.97,57.268333],[8.998,57.29],[9.00625,57.305],[9.00125,57.32],[8.973333,57.345],[8.98,57.355],[9.06,57.35625],[9.1,57.343333],[9.16125,57.31],[9.18125,57.36],[9.1825,57.38],[9.1775,57.39],[9.145,57.41],[9.14,57.418846],[9.13,57.411667],[9.12,57.41119],[9.115,57.417333],[9.095,57.409286],[9.07,57.41125],[9.0625,57.425],[9.03,57.445],[9.02875,57.455],[9.045,57.468333],[9.08,57.469],[9.0975,57.46],[9.0975,57.445],[9.115,57.436667],[9.125,57.448],[9.13,57.442593],[9.134063,57.445],[9.136389,57.45],[9.1325,57.455],[9.14,57.452708],[9.15,57.461429],[9.165,57.462778],[9.18,57.472917],[9.21,57.472639],[9.21,57.478864],[9.2,57.475],[9.2,57.480833],[9.24,57.5],[9.225455,57.56],[9.24,57.57125],[9.28,57.578],[9.31,57.576667],[9.315001,57.572221]]}},{"type":"Feature","properties":{"depth":20,"source":"DDM 2024 coarse contour","resolution":"0.005 degree sampled grid","scope":"denmark","tileSource":"contours-denmark-coarse.geojson"},"geometry":{"type":"LineString","coordinates":[[9.315001,57.512274],[9.315,57.512273],[9.305,57.51375],[9.3,57.508182],[9.29,57.511833],[9.25,57.5],[9.255,57.495],[9.28,57.496667],[9.295,57.488167],[9.300625,57.49],[9.295,57.495],[9.3,57.4975],[9.315001,57.495625]]}},{"type":"Feature","properties":{"depth":20,"source":"DDM 2024 coarse contour","resolution":"0.005 degree sampled grid","scope":"denmark","tileSource":"contours-denmark-coarse.geojson"},"geometry":{"type":"LineString","coordinates":[[8.904984,57.705001],[8.89,57.695344],[8.855,57.690367],[8.85,57.685382],[8.839999,57.685388]]}},{"type":"Feature","properties":{"depth":20,"source":"DDM 2024 coarse contour","resolution":"0.005 degree sampled grid","scope":"denmark","tileSource":"contours-denmark-coarse.geojson"},"geometry":{"type":"LineString","coordinates":[[9.315001,57.449286],[9.29,57.445],[9.2825,57.435],[9.29875,57.38],[9.315,57.366],[9.315001,57.366]]}},{"type":"Feature","properties":{"depth":20,"source":"DDM 2024 coarse contour","resolution":"0.005 degree sampled grid","scope":"denmark","tileSource":"contours-denmark-coarse.geojson"},"geometry":{"type":"LineString","coordinates":[[9.155,57.43625],[9.155,57.423667],[9.165,57.43],[9.155,57.43625]]}},{"type":"Feature","properties":{"depth":20,"source":"DDM 2024 coarse contour","resolution":"0.005 degree sampled grid","scope":"denmark","tileSource":"contours-denmark-coarse.geojson"},"geometry":{"type":"LineString","coordinates":[[9.135,57.44125],[9.130833,57.43],[9.145,57.426964],[9.149048,57.43],[9.135,57.44125]]}},{"type":"Feature","properties":{"depth":20,"source":"DDM 2024 coarse contour","resolution":"0.005 degree sampled grid","scope":"denmark","tileSource":"contours-denmark-coarse.geojson"},"geometry":{"type":"LineString","coordinates":[[9.165,57.441111],[9.165,57.43],[9.178,57.435],[9.165,57.441111]]}},{"type":"Feature","properties":{"depth":30,"source":"DDM 2024 coarse contour","resolution":"0.005 degree sampled grid","scope":"denmark","tileSource":"contours-denmark-coarse.geojson"},"geometry":{"type":"LineString","coordinates":[[8.839999,57.44639],[8.85,57.431667],[8.87,57.43625],[8.886667,57.45],[8.8675,57.475],[8.870833,57.48],[8.9075,57.495],[8.919444,57.51],[8.935,57.51925],[9.01375,57.54],[9.065,57.579348],[9.165,57.57],[9.21,57.6055],[9.244167,57.625],[9.285833,57.645],[9.315,57.65325],[9.315001,57.65325]]}},{"type":"Feature","properties":{"depth":30,"source":"DDM 2024 coarse contour","resolution":"0.005 degree sampled grid","scope":"denmark","tileSource":"contours-denmark-coarse.geojson"},"geometry":{"type":"LineString","coordinates":[[8.905055,57.705001],[8.89,57.695298],[8.855,57.690321],[8.85,57.685337],[8.839999,57.685343]]}},{"type":"Feature","properties":{"depth":50,"source":"DDM 2024 coarse contour","resolution":"0.005 degree sampled grid","scope":"denmark","tileSource":"contours-denmark-coarse.geojson"},"geometry":{"type":"LineString","coordinates":[[8.839999,57.552],[8.847857,57.555],[9.04,57.618636],[9.217743,57.705001]]}},{"type":"Feature","properties":{"depth":50,"source":"DDM 2024 coarse contour","resolution":"0.005 degree sampled grid","scope":"denmark","tileSource":"contours-denmark-coarse.geojson"},"geometry":{"type":"LineString","coordinates":[[8.905196,57.705001],[8.89,57.695207],[8.855,57.690231],[8.85,57.685246],[8.839999,57.685252]]}},{"type":"Feature","properties":{"depth":100,"source":"DDM 2024 coarse contour","resolution":"0.005 degree sampled grid","scope":"denmark","tileSource":"contours-denmark-coarse.geojson"},"geometry":{"type":"LineString","coordinates":[[8.855,57.690003],[8.85,57.685019],[8.839999,57.685025]]}},{"type":"Feature","properties":{"depth":100,"source":"DDM 2024 coarse contour","resolution":"0.005 degree sampled grid","scope":"denmark","tileSource":"contours-denmark-coarse.geojson"},"geometry":{"type":"LineString","coordinates":[[8.839999,57.652229],[8.869167,57.665],[8.874444,57.675],[8.872,57.68],[8.855,57.690003]]}},{"type":"Feature","properties":{"depth":100,"source":"DDM 2024 coarse contour","resolution":"0.005 degree sampled grid","scope":"denmark","tileSource":"contours-denmark-coarse.geojson"},"geometry":{"type":"LineString","coordinates":[[8.914658,57.705001],[8.935,57.701512],[8.943138,57.705001]]}}]}