{"type":"FeatureCollection","name":"DDM contour tile r06_c08","bbox":[11.24,57.23,11.715,57.705],"metadata":{"schema":"waternav-ddm-contour-tile-v1","version":"v46.0","tileId":"r06_c08","source":"Danmarks Dybdemodel 2024 ddm_50m.dybde.tiff via bundled DDM contour GeoJSON files"},"features":[{"type":"Feature","properties":{"depth":1,"source":"DDM 2024 coarse contour","resolution":"0.005 degree sampled grid","scope":"denmark","tileSource":"contours-denmark-coarse.geojson"},"geometry":{"type":"LineString","coordinates":[[11.575291,57.229999],[11.575291,57.23],[11.53533,57.275],[11.535336,57.28],[11.51533,57.3],[11.515324,57.305],[11.495237,57.325],[11.495278,57.33],[11.470336,57.355],[11.470344,57.36],[11.450283,57.38],[11.450392,57.385],[11.425262,57.41],[11.425257,57.415],[11.405239,57.435],[11.405234,57.44],[11.260232,57.59],[11.260229,57.595],[11.239999,57.615221]]}},{"type":"Feature","properties":{"depth":2,"source":"DDM 2024 coarse contour","resolution":"0.005 degree sampled grid","scope":"denmark","tileSource":"contours-denmark-coarse.geojson"},"geometry":{"type":"LineString","coordinates":[[11.575287,57.229999],[11.575287,57.23],[11.535325,57.275],[11.535331,57.28],[11.515325,57.3],[11.515319,57.305],[11.495232,57.325],[11.495273,57.33],[11.470331,57.355],[11.470339,57.36],[11.450278,57.38],[11.450387,57.385],[11.425258,57.41],[11.425252,57.415],[11.405235,57.435],[11.405229,57.44],[11.260227,57.59],[11.260224,57.595],[11.239999,57.615216]]}},{"type":"Feature","properties":{"depth":3,"source":"DDM 2024 coarse contour","resolution":"0.005 degree sampled grid","scope":"denmark","tileSource":"contours-denmark-coarse.geojson"},"geometry":{"type":"LineString","coordinates":[[11.575282,57.229999],[11.575282,57.23],[11.53532,57.275],[11.535326,57.28],[11.51532,57.3],[11.515314,57.305],[11.495228,57.325],[11.495268,57.33],[11.470326,57.355],[11.470335,57.36],[11.450273,57.38],[11.450382,57.385],[11.425253,57.41],[11.425247,57.415],[11.40523,57.435],[11.405224,57.44],[11.260223,57.59],[11.260219,57.595],[11.239999,57.615211]]}},{"type":"Feature","properties":{"depth":5,"source":"DDM 2024 coarse contour","resolution":"0.005 degree sampled grid","scope":"denmark","tileSource":"contours-denmark-coarse.geojson"},"geometry":{"type":"LineString","coordinates":[[11.575273,57.229999],[11.575273,57.23],[11.535311,57.275],[11.535317,57.28],[11.515311,57.3],[11.515305,57.305],[11.495218,57.325],[11.495259,57.33],[11.470317,57.355],[11.470325,57.36],[11.450264,57.38],[11.450373,57.385],[11.425244,57.41],[11.425238,57.415],[11.40522,57.435],[11.405214,57.44],[11.260213,57.59],[11.260209,57.595],[11.239999,57.615202]]}},{"type":"Feature","properties":{"depth":5,"source":"DDM 2024 coarse contour","resolution":"0.005 degree sampled grid","scope":"denmark","tileSource":"contours-denmark-coarse.geojson"},"geometry":{"type":"LineString","coordinates":[[11.239999,57.291461],[11.241282,57.29],[11.239999,57.288213]]}},{"type":"Feature","properties":{"depth":5,"source":"DDM 2024 coarse contour","resolution":"0.005 degree sampled grid","scope":"denmark","tileSource":"contours-denmark-coarse.geojson"},"geometry":{"type":"LineString","coordinates":[[11.239999,57.240834],[11.24,57.240833],[11.245,57.240625],[11.243889,57.235],[11.25,57.23],[11.25,57.229999]]}},{"type":"Feature","properties":{"depth":10,"source":"DDM 2024 coarse contour","resolution":"0.005 degree sampled grid","scope":"denmark","tileSource":"contours-denmark-coarse.geojson"},"geometry":{"type":"LineString","coordinates":[[11.574949,57.229999],[11.495194,57.325],[11.495235,57.33],[11.42522,57.41],[11.405191,57.44],[11.260189,57.59],[11.260186,57.595],[11.239999,57.615178]]}},{"type":"Feature","properties":{"depth":10,"source":"DDM 2024 coarse contour","resolution":"0.005 degree sampled grid","scope":"denmark","tileSource":"contours-denmark-coarse.geojson"},"geometry":{"type":"LineString","coordinates":[[11.239999,57.375265],[11.24,57.375265],[11.26,57.370045],[11.25,57.352727],[11.239999,57.353655]]}},{"type":"Feature","properties":{"depth":10,"source":"DDM 2024 coarse contour","resolution":"0.005 degree sampled grid","scope":"denmark","tileSource":"contours-denmark-coarse.geojson"},"geometry":{"type":"LineString","coordinates":[[11.239999,57.338787],[11.247857,57.33],[11.244545,57.315],[11.248571,57.31],[11.252895,57.26],[11.260714,57.23],[11.260715,57.229999]]}},{"type":"Feature","properties":{"depth":15,"source":"DDM 2024 coarse contour","resolution":"0.005 degree sampled grid","scope":"denmark","tileSource":"contours-denmark-coarse.geojson"},"geometry":{"type":"LineString","coordinates":[[11.239999,57.376921],[11.24,57.376921],[11.261548,57.37],[11.256558,57.315],[11.27,57.26],[11.266667,57.25],[11.272223,57.229999]]}},{"type":"Feature","properties":{"depth":15,"source":"DDM 2024 coarse contour","resolution":"0.005 degree sampled grid","scope":"denmark","tileSource":"contours-denmark-coarse.geojson"},"geometry":{"type":"LineString","coordinates":[[11.574925,57.229999],[11.495171,57.325],[11.495212,57.33],[11.425196,57.41],[11.405167,57.44],[11.260165,57.59],[11.260162,57.595],[11.239999,57.615154]]}},{"type":"Feature","properties":{"depth":15,"source":"DDM 2024 coarse contour","resolution":"0.005 degree sampled grid","scope":"denmark","tileSource":"contours-denmark-coarse.geojson"},"geometry":{"type":"LineString","coordinates":[[11.239999,57.455423],[11.272206,57.44],[11.277778,57.43],[11.275,57.426429],[11.26,57.421667],[11.239999,57.425247]]}},{"type":"Feature","properties":{"depth":15,"source":"DDM 2024 coarse contour","resolution":"0.005 degree sampled grid","scope":"denmark","tileSource":"contours-denmark-coarse.geojson"},"geometry":{"type":"LineString","coordinates":[[11.285238,57.485],[11.304706,57.47],[11.303929,57.46],[11.3,57.457708],[11.295,57.465455],[11.2855,57.46],[11.29,57.454885],[11.255,57.473214],[11.2485,57.47],[11.25,57.463837],[11.239999,57.464814]]}},{"type":"Feature","properties":{"depth":15,"source":"DDM 2024 coarse contour","resolution":"0.005 degree sampled grid","scope":"denmark","tileSource":"contours-denmark-coarse.geojson"},"geometry":{"type":"LineString","coordinates":[[11.239999,57.467067],[11.247308,57.475],[11.27,57.48],[11.26,57.48],[11.261071,57.485],[11.275,57.488026],[11.285238,57.485]]}},{"type":"Feature","properties":{"depth":20,"source":"DDM 2024 coarse contour","resolution":"0.005 degree sampled grid","scope":"denmark","tileSource":"contours-denmark-coarse.geojson"},"geometry":{"type":"LineString","coordinates":[[11.239999,57.485035],[11.245,57.484286],[11.26,57.491915],[11.275,57.491716],[11.29,57.485588],[11.335323,57.455],[11.32,57.461406],[11.3,57.450595],[11.265,57.462838],[11.257857,57.46],[11.256552,57.455],[11.29,57.430469],[11.305267,57.43],[11.297115,57.42],[11.265,57.416809],[11.239999,57.420511]]}},{"type":"Feature","properties":{"depth":20,"source":"DDM 2024 coarse contour","resolution":"0.005 degree sampled grid","scope":"denmark","tileSource":"contours-denmark-coarse.geojson"},"geometry":{"type":"LineString","coordinates":[[11.239999,57.378722],[11.25,57.377843],[11.263036,57.37],[11.265459,57.36],[11.259805,57.315],[11.277857,57.26],[11.282908,57.229999]]}},{"type":"Feature","properties":{"depth":20,"source":"DDM 2024 coarse contour","resolution":"0.005 degree sampled grid","scope":"denmark","tileSource":"contours-denmark-coarse.geojson"},"geometry":{"type":"LineString","coordinates":[[11.574901,57.229999],[11.495147,57.325],[11.495188,57.33],[11.425172,57.41],[11.405143,57.44],[11.260142,57.59],[11.260138,57.595],[11.239999,57.61513]]}},{"type":"Feature","properties":{"depth":30,"source":"DDM 2024 coarse contour","resolution":"0.005 degree sampled grid","scope":"denmark","tileSource":"contours-denmark-coarse.geojson"},"geometry":{"type":"LineString","coordinates":[[11.239999,57.501341],[11.285,57.4995],[11.342179,57.46],[11.344554,57.45],[11.335,57.443333],[11.32,57.450694],[11.3,57.44727],[11.275,57.454667],[11.272667,57.45],[11.295,57.43463],[11.3316,57.425],[11.325,57.416364],[11.31,57.415282],[11.295,57.406429],[11.239999,57.413296]]}},{"type":"Feature","properties":{"depth":30,"source":"DDM 2024 coarse contour","resolution":"0.005 degree sampled grid","scope":"denmark","tileSource":"contours-denmark-coarse.geojson"},"geometry":{"type":"LineString","coordinates":[[11.239999,57.394924],[11.245,57.387568],[11.265,57.372073],[11.271571,57.36],[11.265,57.3195],[11.282024,57.285],[11.278592,57.28],[11.29,57.27],[11.296875,57.25],[11.303095,57.245],[11.306769,57.229999]]}},{"type":"Feature","properties":{"depth":30,"source":"DDM 2024 coarse contour","resolution":"0.005 degree sampled grid","scope":"denmark","tileSource":"contours-denmark-coarse.geojson"},"geometry":{"type":"LineString","coordinates":[[11.575155,57.229999],[11.575155,57.23],[11.495099,57.325],[11.495141,57.33],[11.470201,57.355],[11.450258,57.385],[11.425125,57.41],[11.405095,57.44],[11.260094,57.59],[11.26009,57.595],[11.239999,57.615082]]}},{"type":"Feature","properties":{"depth":30,"source":"DDM 2024 coarse contour","resolution":"0.005 degree sampled grid","scope":"denmark","tileSource":"contours-denmark-coarse.geojson"},"geometry":{"type":"LineString","coordinates":[[11.4125,57.23],[11.412499,57.229999]]}},{"type":"Feature","properties":{"depth":30,"source":"DDM 2024 coarse contour","resolution":"0.005 degree sampled grid","scope":"denmark","tileSource":"contours-denmark-coarse.geojson"},"geometry":{"type":"LineString","coordinates":[[11.412498,57.229999],[11.4125,57.23]]}},{"type":"Feature","properties":{"depth":30,"source":"DDM 2024 coarse contour","resolution":"0.005 degree sampled grid","scope":"denmark","tileSource":"contours-denmark-coarse.geojson"},"geometry":{"type":"LineString","coordinates":[[11.387407,57.315],[11.390538,57.305],[11.385,57.302719],[11.37437,57.315],[11.387407,57.315]]}},{"type":"Feature","properties":{"depth":30,"source":"DDM 2024 coarse contour","resolution":"0.005 degree sampled grid","scope":"denmark","tileSource":"contours-denmark-coarse.geojson"},"geometry":{"type":"LineString","coordinates":[[11.416831,57.385],[11.425949,57.38],[11.426034,57.375],[11.41,57.36525],[11.394417,57.365],[11.390923,57.37],[11.395,57.377703],[11.41,57.386311],[11.416831,57.385]]}},{"type":"Feature","properties":{"depth":50,"source":"DDM 2024 coarse contour","resolution":"0.005 degree sampled grid","scope":"denmark","tileSource":"contours-denmark-coarse.geojson"},"geometry":{"type":"LineString","coordinates":[[11.355,57.470409],[11.349828,57.47],[11.349182,57.465],[11.358535,57.45],[11.360179,57.43],[11.3718,57.41],[11.442105,57.38],[11.43175,57.37],[11.436333,57.365],[11.4345,57.36],[11.415,57.353444],[11.355,57.365921],[11.349853,57.36],[11.377843,57.34],[11.368929,57.325],[11.402946,57.315],[11.410088,57.29],[11.405,57.279894],[11.388182,57.285],[11.385,57.291277],[11.38,57.284545],[11.37,57.282455],[11.345,57.287868],[11.3,57.318362],[11.28,57.319909],[11.28,57.311932],[11.340877,57.245],[11.341803,57.229999]]}},{"type":"Feature","properties":{"depth":50,"source":"DDM 2024 coarse contour","resolution":"0.005 degree sampled grid","scope":"denmark","tileSource":"contours-denmark-coarse.geojson"},"geometry":{"type":"LineString","coordinates":[[11.575062,57.229999],[11.575061,57.23],[11.515101,57.3],[11.515094,57.305],[11.505,57.31503],[11.4935,57.315],[11.489663,57.325],[11.495,57.324048],[11.495046,57.33],[11.42503,57.41],[11.405,57.44],[11.37,57.467872],[11.355,57.470409]]}},{"type":"Feature","properties":{"depth":50,"source":"DDM 2024 coarse contour","resolution":"0.005 degree sampled grid","scope":"denmark","tileSource":"contours-denmark-coarse.geojson"},"geometry":{"type":"LineString","coordinates":[[11.414694,57.235],[11.42,57.23338],[11.420915,57.229999]]}},{"type":"Feature","properties":{"depth":50,"source":"DDM 2024 coarse contour","resolution":"0.005 degree sampled grid","scope":"denmark","tileSource":"contours-denmark-coarse.geojson"},"geometry":{"type":"LineString","coordinates":[[11.398005,57.229999],[11.4,57.23227],[11.414694,57.235]]}},{"type":"Feature","properties":{"depth":50,"source":"DDM 2024 coarse contour","resolution":"0.005 degree sampled grid","scope":"denmark","tileSource":"contours-denmark-coarse.geojson"},"geometry":{"type":"LineString","coordinates":[[11.525556,57.24],[11.54,57.236917],[11.541358,57.23],[11.541359,57.229999]]}},{"type":"Feature","properties":{"depth":50,"source":"DDM 2024 coarse contour","resolution":"0.005 degree sampled grid","scope":"denmark","tileSource":"contours-denmark-coarse.geojson"},"geometry":{"type":"LineString","coordinates":[[11.499185,57.229999],[11.499184,57.23],[11.516167,57.24],[11.525556,57.24]]}},{"type":"Feature","properties":{"depth":50,"source":"DDM 2024 coarse contour","resolution":"0.005 degree sampled grid","scope":"denmark","tileSource":"contours-denmark-coarse.geojson"},"geometry":{"type":"LineString","coordinates":[[11.477738,57.265],[11.455,57.250625],[11.445263,57.255],[11.455,57.265202],[11.47,57.26886],[11.477738,57.265]]}},{"type":"Feature","properties":{"depth":50,"source":"DDM 2024 coarse contour","resolution":"0.005 degree sampled grid","scope":"denmark","tileSource":"contours-denmark-coarse.geojson"},"geometry":{"type":"LineString","coordinates":[[11.265,57.585002],[11.26,57.5875],[11.243333,57.58],[11.24125,57.57],[11.255,57.561429],[11.28,57.558182],[11.285024,57.565],[11.265,57.585002]]}},{"type":"Feature","properties":{"depth":100,"source":"DDM 2024 coarse contour","resolution":"0.005 degree sampled grid","scope":"denmark","tileSource":"contours-denmark-coarse.geojson"},"geometry":{"type":"LineString","coordinates":[[11.36,57.233333],[11.36,57.229999]]}},{"type":"Feature","properties":{"depth":100,"source":"DDM 2024 coarse contour","resolution":"0.005 degree sampled grid","scope":"denmark","tileSource":"contours-denmark-coarse.geojson"},"geometry":{"type":"LineString","coordinates":[[11.361015,57.229999],[11.36,57.233333]]}},{"type":"Feature","properties":{"depth":100,"source":"DDM 2024 coarse contour","resolution":"0.005 degree sampled grid","scope":"denmark","tileSource":"contours-denmark-coarse.geojson"},"geometry":{"type":"LineString","coordinates":[[11.43,57.291622],[11.416055,57.28],[11.42,57.27142],[11.428845,57.28],[11.43,57.291622]]}},{"type":"Feature","properties":{"depth":100,"source":"DDM 2024 coarse contour","resolution":"0.005 degree sampled grid","scope":"denmark","tileSource":"contours-denmark-coarse.geojson"},"geometry":{"type":"LineString","coordinates":[[11.44,57.326282],[11.436983,57.315],[11.44,57.310302],[11.443359,57.32],[11.44,57.326282]]}}]}