{"type":"FeatureCollection","name":"DDM contour tile r06_c04","bbox":[9.32,57.23,9.795,57.705],"metadata":{"schema":"waternav-ddm-contour-tile-v1","version":"v45.9","tileId":"r06_c04","source":"Danmarks Dybdemodel 2024 ddm_50m.dybde.tiff via bundled DDM contour GeoJSON files"},"features":[{"type":"Feature","properties":{"depth":1,"source":"DDM 2024 coarse contour","resolution":"0.005 degree sampled grid","scope":"denmark","tileSource":"contours-denmark-coarse.geojson"},"geometry":{"type":"LineString","coordinates":[[9.540006,57.229999],[9.545,57.234986],[9.55,57.234996],[9.565,57.249982],[9.569744,57.25],[9.625,57.299998],[9.634667,57.305],[9.71,57.379992],[9.72,57.385],[9.720014,57.39],[9.745,57.415],[9.745006,57.42],[9.759605,57.435],[9.760008,57.44],[9.795001,57.479365]]}},{"type":"Feature","properties":{"depth":2,"source":"DDM 2024 coarse contour","resolution":"0.005 degree sampled grid","scope":"denmark","tileSource":"contours-denmark-coarse.geojson"},"geometry":{"type":"LineString","coordinates":[[9.537301,57.229999],[9.545,57.234991],[9.5495,57.235],[9.59,57.270357],[9.6,57.2755],[9.65,57.325],[9.66,57.329999],[9.697885,57.37],[9.718448,57.385],[9.760003,57.44],[9.795001,57.47937]]}},{"type":"Feature","properties":{"depth":3,"source":"DDM 2024 coarse contour","resolution":"0.005 degree sampled grid","scope":"denmark","tileSource":"contours-denmark-coarse.geojson"},"geometry":{"type":"LineString","coordinates":[[9.537625,57.229999],[9.567179,57.25],[9.59,57.272143],[9.6034,57.28],[9.65,57.326724],[9.675,57.344999],[9.71,57.382857],[9.716724,57.385],[9.715,57.39],[9.72,57.388393],[9.762586,57.445],[9.795001,57.479655]]}},{"type":"Feature","properties":{"depth":5,"source":"DDM 2024 coarse contour","resolution":"0.005 degree sampled grid","scope":"denmark","tileSource":"contours-denmark-coarse.geojson"},"geometry":{"type":"LineString","coordinates":[[9.523888,57.229999],[9.523889,57.23],[9.545909,57.24],[9.585,57.276842],[9.5975,57.28],[9.605769,57.295],[9.63,57.315],[9.63,57.309815],[9.635,57.322692],[9.64,57.326071],[9.645,57.324423],[9.64875,57.335],[9.653929,57.34],[9.66,57.345294],[9.665,57.342647],[9.685,57.359792],[9.690833,57.37],[9.72125,57.4],[9.727609,57.41],[9.735,57.417778],[9.74,57.418214],[9.745441,57.425],[9.742407,57.43],[9.75,57.438182],[9.755,57.439167],[9.757222,57.445],[9.765312,57.45],[9.769853,57.46],[9.785,57.471324],[9.794828,57.485],[9.795001,57.485093]]}},{"type":"Feature","properties":{"depth":10,"source":"DDM 2024 coarse contour","resolution":"0.005 degree sampled grid","scope":"denmark","tileSource":"contours-denmark-coarse.geojson"},"geometry":{"type":"LineString","coordinates":[[9.319999,57.244999],[9.32,57.245],[9.35,57.255],[9.375,57.25],[9.3775,57.245],[9.3675,57.23],[9.367501,57.229999]]}},{"type":"Feature","properties":{"depth":10,"source":"DDM 2024 coarse contour","resolution":"0.005 degree sampled grid","scope":"denmark","tileSource":"contours-denmark-coarse.geojson"},"geometry":{"type":"LineString","coordinates":[[9.494731,57.229999],[9.563889,57.275],[9.57,57.285],[9.575909,57.285],[9.611786,57.32],[9.658158,57.355],[9.795001,57.49299]]}},{"type":"Feature","properties":{"depth":10,"source":"DDM 2024 coarse contour","resolution":"0.005 degree sampled grid","scope":"denmark","tileSource":"contours-denmark-coarse.geojson"},"geometry":{"type":"LineString","coordinates":[[9.72,57.495],[9.715,57.4865],[9.68,57.476667],[9.64,57.456875],[9.62,57.458333],[9.6075,57.47],[9.665,57.4825],[9.695,57.49619],[9.72,57.495]]}},{"type":"Feature","properties":{"depth":15,"source":"DDM 2024 coarse contour","resolution":"0.005 degree sampled grid","scope":"denmark","tileSource":"contours-denmark-coarse.geojson"},"geometry":{"type":"LineString","coordinates":[[9.319999,57.3425],[9.32,57.3425],[9.36,57.361],[9.385,57.367273],[9.396667,57.365],[9.43,57.34375],[9.47,57.33625],[9.51,57.34],[9.555,57.35375],[9.586667,57.375],[9.6175,57.41],[9.611667,57.425],[9.61475,57.43],[9.61,57.433519],[9.605,57.428],[9.55,57.46],[9.54,57.47],[9.5425,57.48],[9.56,57.485],[9.62,57.486111],[9.735,57.527222],[9.795001,57.537419]]}},{"type":"Feature","properties":{"depth":15,"source":"DDM 2024 coarse contour","resolution":"0.005 degree sampled grid","scope":"denmark","tileSource":"contours-denmark-coarse.geojson"},"geometry":{"type":"LineString","coordinates":[[9.715,57.470556],[9.689286,57.455],[9.69,57.445],[9.695,57.441],[9.7002,57.445],[9.690385,57.435],[9.686905,57.415],[9.68125,57.41],[9.685,57.406471],[9.711905,57.42],[9.72025,57.45],[9.712805,57.455],[9.720484,57.465],[9.715,57.470556]]}},{"type":"Feature","properties":{"depth":15,"source":"DDM 2024 coarse contour","resolution":"0.005 degree sampled grid","scope":"denmark","tileSource":"contours-denmark-coarse.geojson"},"geometry":{"type":"LineString","coordinates":[[9.4725,57.475],[9.476667,57.465],[9.465,57.455],[9.44,57.448333],[9.4275,57.45],[9.42625,57.455],[9.44,57.470833],[9.46,57.478],[9.4725,57.475]]}},{"type":"Feature","properties":{"depth":15,"source":"DDM 2024 coarse contour","resolution":"0.005 degree sampled grid","scope":"denmark","tileSource":"contours-denmark-coarse.geojson"},"geometry":{"type":"LineString","coordinates":[[9.79,57.525],[9.77,57.522917],[9.755,57.515],[9.744231,57.5],[9.745714,57.495],[9.75,57.492],[9.765,57.497667],[9.773333,57.495],[9.766842,57.49],[9.77,57.487273],[9.78,57.4864],[9.783913,57.49],[9.775357,57.495],[9.777,57.5],[9.795001,57.514429]]}},{"type":"Feature","properties":{"depth":15,"source":"DDM 2024 coarse contour","resolution":"0.005 degree sampled grid","scope":"denmark","tileSource":"contours-denmark-coarse.geojson"},"geometry":{"type":"LineString","coordinates":[[9.795001,57.516248],[9.79,57.525]]}},{"type":"Feature","properties":{"depth":20,"source":"DDM 2024 coarse contour","resolution":"0.005 degree sampled grid","scope":"denmark","tileSource":"contours-denmark-coarse.geojson"},"geometry":{"type":"LineString","coordinates":[[9.319999,57.562503],[9.3225,57.555],[9.345,57.54375],[9.36,57.5425],[9.405,57.551667],[9.398571,57.545],[9.41125,57.54],[9.395,57.539423],[9.39,57.532619],[9.385,57.537],[9.360217,57.53],[9.367222,57.525],[9.36,57.5245],[9.355,57.516429],[9.335,57.515],[9.344667,57.51],[9.34,57.506316],[9.335,57.515],[9.32,57.516184],[9.319999,57.516183]]}},{"type":"Feature","properties":{"depth":20,"source":"DDM 2024 coarse contour","resolution":"0.005 degree sampled grid","scope":"denmark","tileSource":"contours-denmark-coarse.geojson"},"geometry":{"type":"LineString","coordinates":[[9.319999,57.495],[9.32,57.495],[9.335,57.504706],[9.345952,57.5],[9.345,57.491667],[9.34,57.49],[9.355,57.482143],[9.385,57.480556],[9.41,57.489375],[9.4235,57.51],[9.435,57.5151],[9.49,57.51625],[9.51,57.521],[9.525,57.531667],[9.581667,57.505],[9.625,57.499286],[9.655625,57.51],[9.715,57.551667],[9.765,57.56],[9.795,57.574],[9.795001,57.574001]]}},{"type":"Feature","properties":{"depth":20,"source":"DDM 2024 coarse contour","resolution":"0.005 degree sampled grid","scope":"denmark","tileSource":"contours-denmark-coarse.geojson"},"geometry":{"type":"LineString","coordinates":[[9.325,57.451],[9.319999,57.450143]]}},{"type":"Feature","properties":{"depth":20,"source":"DDM 2024 coarse contour","resolution":"0.005 degree sampled grid","scope":"denmark","tileSource":"contours-denmark-coarse.geojson"},"geometry":{"type":"LineString","coordinates":[[9.319999,57.3675],[9.328333,57.37],[9.333333,57.385],[9.351667,57.41],[9.357,57.43],[9.345,57.44375],[9.325,57.451]]}},{"type":"Feature","properties":{"depth":20,"source":"DDM 2024 coarse contour","resolution":"0.005 degree sampled grid","scope":"denmark","tileSource":"contours-denmark-coarse.geojson"},"geometry":{"type":"LineString","coordinates":[[9.505,57.431],[9.485,57.434444],[9.475,57.43],[9.46,57.4],[9.465,57.395],[9.475,57.395],[9.53125,57.41],[9.505,57.431]]}},{"type":"Feature","properties":{"depth":20,"source":"DDM 2024 coarse contour","resolution":"0.005 degree sampled grid","scope":"denmark","tileSource":"contours-denmark-coarse.geojson"},"geometry":{"type":"LineString","coordinates":[[9.400333,57.515],[9.380294,57.51],[9.395,57.51734],[9.400333,57.515]]}},{"type":"Feature","properties":{"depth":20,"source":"DDM 2024 coarse contour","resolution":"0.005 degree sampled grid","scope":"denmark","tileSource":"contours-denmark-coarse.geojson"},"geometry":{"type":"LineString","coordinates":[[9.35,57.533333],[9.335833,57.525],[9.35,57.525556],[9.35,57.533333]]}},{"type":"Feature","properties":{"depth":20,"source":"DDM 2024 coarse contour","resolution":"0.005 degree sampled grid","scope":"denmark","tileSource":"contours-denmark-coarse.geojson"},"geometry":{"type":"LineString","coordinates":[[9.4912,57.55],[9.498214,57.545],[9.495,57.543125],[9.4912,57.55]]}},{"type":"Feature","properties":{"depth":20,"source":"DDM 2024 coarse contour","resolution":"0.005 degree sampled grid","scope":"denmark","tileSource":"contours-denmark-coarse.geojson"},"geometry":{"type":"LineString","coordinates":[[9.554545,57.58],[9.55,57.57125],[9.555,57.573889],[9.557917,57.57],[9.541,57.565],[9.5475,57.56],[9.54,57.55225],[9.535,57.5575],[9.51,57.545],[9.502083,57.55],[9.505,57.555357],[9.523,57.555],[9.511429,57.56],[9.53,57.565],[9.518889,57.575],[9.525,57.578889],[9.55,57.584286],[9.554545,57.58]]}},{"type":"Feature","properties":{"depth":20,"source":"DDM 2024 coarse contour","resolution":"0.005 degree sampled grid","scope":"denmark","tileSource":"contours-denmark-coarse.geojson"},"geometry":{"type":"LineString","coordinates":[[9.373333,57.635],[9.380333,57.63],[9.380769,57.62],[9.37,57.607857],[9.35,57.601],[9.335,57.6075],[9.33,57.62],[9.34,57.635],[9.373333,57.635]]}},{"type":"Feature","properties":{"depth":30,"source":"DDM 2024 coarse contour","resolution":"0.005 degree sampled grid","scope":"denmark","tileSource":"contours-denmark-coarse.geojson"},"geometry":{"type":"LineString","coordinates":[[9.319999,57.653139],[9.4,57.651364],[9.425,57.645],[9.48,57.61875],[9.56,57.611667],[9.586429,57.615],[9.63,57.632083],[9.7,57.639348],[9.755,57.655663],[9.78875,57.66],[9.77,57.649107],[9.755,57.649792],[9.751618,57.645],[9.755,57.639545],[9.74,57.645476],[9.695,57.632368],[9.69,57.623727],[9.685,57.623],[9.68,57.630094],[9.66,57.625],[9.66,57.62],[9.629615,57.62],[9.616667,57.61],[9.61375,57.6],[9.635,57.598833],[9.65,57.607],[9.67,57.609286],[9.675,57.604722],[9.684,57.61],[9.685,57.617],[9.7,57.622121],[9.707143,57.62],[9.692,57.61],[9.695,57.608333],[9.725,57.610714],[9.73,57.615],[9.722,57.62],[9.731818,57.625],[9.73,57.63],[9.745,57.625217],[9.795001,57.643222]]}},{"type":"Feature","properties":{"depth":30,"source":"DDM 2024 coarse contour","resolution":"0.005 degree sampled grid","scope":"denmark","tileSource":"contours-denmark-coarse.geojson"},"geometry":{"type":"LineString","coordinates":[[9.62,57.59175],[9.613333,57.585],[9.626071,57.585],[9.62,57.59175]]}},{"type":"Feature","properties":{"depth":30,"source":"DDM 2024 coarse contour","resolution":"0.005 degree sampled grid","scope":"denmark","tileSource":"contours-denmark-coarse.geojson"},"geometry":{"type":"LineString","coordinates":[[9.620948,57.705001],[9.605,57.703214],[9.596229,57.705001]]}},{"type":"Feature","properties":{"depth":50,"source":"DDM 2024 coarse contour","resolution":"0.005 degree sampled grid","scope":"denmark","tileSource":"contours-denmark-coarse.geojson"},"geometry":{"type":"LineString","coordinates":[[9.761991,57.705001],[9.756563,57.7],[9.735,57.664407],[9.795001,57.675377]]}}]}